<?xml version="1.0" encoding="UTF-8"?>
<gpx creator="StravaGPX" version="1.1" xmlns="http://www.topografix.com/GPX/1/1" xmlns:xsi="http://www.w3.org/2001/XMLSchema-instance" xsi:schemaLocation="http://www.topografix.com/GPX/1/1 http://www.topografix.com/GPX/1/1/gpx.xsd">
 <metadata>
  <name>Dorpsdraf</name>
  <author>
   <name>Anné van Zyl</name>
   <link href="https://www.strava.com/athletes/19135595"/>
  </author>
  <copyright author="OpenStreetMap contributors">
   <year>2020</year>
   <license>https://www.openstreetmap.org/copyright</license>
  </copyright>
  <link href="https://www.strava.com/routes/3480134462603628056"/>
 </metadata>
 <trk>
  <name>Dorpsdraf</name>
  <link href="https://www.strava.com/routes/3480134462603628056"/>
  <type>cycling</type>
  <trkseg>
   <trkpt lat="-29.807720000000003" lon="24.41966">
    <ele>1104.87</ele>
   </trkpt>
   <trkpt lat="-29.808220000000002" lon="24.41964">
    <ele>1105.48</ele>
   </trkpt>
   <trkpt lat="-29.808570000000003" lon="24.419700000000002">
    <ele>1106.18</ele>
   </trkpt>
   <trkpt lat="-29.8089" lon="24.419690000000003">
    <ele>1106.87</ele>
   </trkpt>
   <trkpt lat="-29.808960000000003" lon="24.41965">
    <ele>1106.96</ele>
   </trkpt>
   <trkpt lat="-29.809050000000003" lon="24.41956">
    <ele>1106.92</ele>
   </trkpt>
   <trkpt lat="-29.809070000000002" lon="24.41926">
    <ele>1106.8200000000002</ele>
   </trkpt>
   <trkpt lat="-29.80919" lon="24.418830000000003">
    <ele>1107.0300000000002</ele>
   </trkpt>
   <trkpt lat="-29.809240000000003" lon="24.418760000000002">
    <ele>1107.0300000000002</ele>
   </trkpt>
   <trkpt lat="-29.809742005564832" lon="24.418152012209628">
    <ele>1107.85</ele>
   </trkpt>
   <trkpt lat="-29.81024400834679" lon="24.41754401831525">
    <ele>1108.7</ele>
   </trkpt>
   <trkpt lat="-29.81074600834577" lon="24.416936018316726">
    <ele>1110.17</ele>
   </trkpt>
   <trkpt lat="-29.811248005561712" lon="24.41632801221391">
    <ele>1110.92</ele>
   </trkpt>
   <trkpt lat="-29.811750000000004" lon="24.41572">
    <ele>1112.12</ele>
   </trkpt>
   <trkpt lat="-29.81225333619982" lon="24.415100006275665">
    <ele>1112.3899999999999</ele>
   </trkpt>
   <trkpt lat="-29.81275666950563" lon="24.414480006309663">
    <ele>1111.89</ele>
   </trkpt>
   <trkpt lat="-29.813260000000003" lon="24.413860000000003">
    <ele>1111.68</ele>
   </trkpt>
   <trkpt lat="-29.813290000000002" lon="24.41382">
    <ele>1111.63</ele>
   </trkpt>
   <trkpt lat="-29.813760001917213" lon="24.41431999533662">
    <ele>1113.04</ele>
   </trkpt>
   <trkpt lat="-29.814230001952193" lon="24.414819995373772">
    <ele>1114.7</ele>
   </trkpt>
   <trkpt lat="-29.814700000000002" lon="24.41532">
    <ele>1116.33</ele>
   </trkpt>
   <trkpt lat="-29.81471" lon="24.41531">
    <ele>1116.3400000000001</ele>
   </trkpt>
   <trkpt lat="-29.8151500011689" lon="24.414760002382785">
    <ele>1116.65</ele>
   </trkpt>
   <trkpt lat="-29.815590000000004" lon="24.41421">
    <ele>1116.8700000000001</ele>
   </trkpt>
   <trkpt lat="-29.815770000000004" lon="24.41391">
    <ele>1117.31</ele>
   </trkpt>
   <trkpt lat="-29.815970000000004" lon="24.41353">
    <ele>1117.49</ele>
   </trkpt>
   <trkpt lat="-29.816100000000002" lon="24.413230000000002">
    <ele>1117.5300000000002</ele>
   </trkpt>
   <trkpt lat="-29.816200000000002" lon="24.412910000000004">
    <ele>1117.44</ele>
   </trkpt>
   <trkpt lat="-29.816200000000002" lon="24.412920000000003">
    <ele>1117.46</ele>
   </trkpt>
   <trkpt lat="-29.81677" lon="24.41317">
    <ele>1127.0900000000001</ele>
   </trkpt>
   <trkpt lat="-29.817200000000003" lon="24.41315">
    <ele>1128.33</ele>
   </trkpt>
   <trkpt lat="-29.817660000198998" lon="24.413284999417098">
    <ele>1129.3000000000002</ele>
   </trkpt>
   <trkpt lat="-29.818120000000004" lon="24.413420000000002">
    <ele>1129.8600000000001</ele>
   </trkpt>
   <trkpt lat="-29.81799" lon="24.412940000000003">
    <ele>1129.8400000000001</ele>
   </trkpt>
   <trkpt lat="-29.818" lon="24.412560000000003">
    <ele>1129.79</ele>
   </trkpt>
   <trkpt lat="-29.81811" lon="24.41215">
    <ele>1129.95</ele>
   </trkpt>
   <trkpt lat="-29.818250000000003" lon="24.41185">
    <ele>1130.9600000000003</ele>
   </trkpt>
   <trkpt lat="-29.818400000000004" lon="24.41159">
    <ele>1131.07</ele>
   </trkpt>
   <trkpt lat="-29.818260000000002" lon="24.411410000000004">
    <ele>1131.34</ele>
   </trkpt>
   <trkpt lat="-29.817850000000004" lon="24.41148">
    <ele>1130.95</ele>
   </trkpt>
   <trkpt lat="-29.81782" lon="24.41129">
    <ele>1131.0500000000002</ele>
   </trkpt>
   <trkpt lat="-29.817840000000004" lon="24.41129">
    <ele>1131.07</ele>
   </trkpt>
   <trkpt lat="-29.818210000000004" lon="24.411220000000004">
    <ele>1131.64</ele>
   </trkpt>
   <trkpt lat="-29.818260000000002" lon="24.411410000000004">
    <ele>1131.34</ele>
   </trkpt>
   <trkpt lat="-29.818400000000004" lon="24.41159">
    <ele>1131.07</ele>
   </trkpt>
   <trkpt lat="-29.818490000000004" lon="24.411530000000003">
    <ele>1132.7500000000002</ele>
   </trkpt>
   <trkpt lat="-29.818980000000003" lon="24.41131">
    <ele>1132.21</ele>
   </trkpt>
   <trkpt lat="-29.819655000082946" lon="24.41123000053322">
    <ele>1132.46</ele>
   </trkpt>
   <trkpt lat="-29.820330000000002" lon="24.411150000000003">
    <ele>1132.97</ele>
   </trkpt>
   <trkpt lat="-29.820510000000002" lon="24.411150000000003">
    <ele>1133.1200000000001</ele>
   </trkpt>
   <trkpt lat="-29.820770000000003" lon="24.41121">
    <ele>1133.22</ele>
   </trkpt>
   <trkpt lat="-29.82072" lon="24.411340000000003">
    <ele>1133.19</ele>
   </trkpt>
   <trkpt lat="-29.820670000000003" lon="24.41146">
    <ele>1133.2900000000002</ele>
   </trkpt>
   <trkpt lat="-29.820570000000004" lon="24.411430000000003">
    <ele>1133.2900000000002</ele>
   </trkpt>
   <trkpt lat="-29.82053" lon="24.411440000000002">
    <ele>1133.2900000000002</ele>
   </trkpt>
   <trkpt lat="-29.820230000000002" lon="24.41176">
    <ele>1133.2900000000002</ele>
   </trkpt>
   <trkpt lat="-29.819620001960242" lon="24.41249000450975">
    <ele>1131.19</ele>
   </trkpt>
   <trkpt lat="-29.819010000000002" lon="24.413220000000003">
    <ele>1130.33</ele>
   </trkpt>
   <trkpt lat="-29.819000000000003" lon="24.413230000000002">
    <ele>1130.3</ele>
   </trkpt>
   <trkpt lat="-29.819820000000004" lon="24.41344">
    <ele>1130.18</ele>
   </trkpt>
   <trkpt lat="-29.819930000000003" lon="24.413490000000003">
    <ele>1131.22</ele>
   </trkpt>
   <trkpt lat="-29.819960000000002" lon="24.41343">
    <ele>1131.2900000000002</ele>
   </trkpt>
   <trkpt lat="-29.82025" lon="24.413490000000003">
    <ele>1131.0300000000002</ele>
   </trkpt>
   <trkpt lat="-29.820780000141344" lon="24.413634999248206">
    <ele>1131.0</ele>
   </trkpt>
   <trkpt lat="-29.821310000000004" lon="24.413780000000003">
    <ele>1132.7</ele>
   </trkpt>
   <trkpt lat="-29.82138" lon="24.413860000000003">
    <ele>1132.88</ele>
   </trkpt>
   <trkpt lat="-29.82139" lon="24.413940000000004">
    <ele>1132.8100000000002</ele>
   </trkpt>
   <trkpt lat="-29.821270001205487" lon="24.414505000661407">
    <ele>1130.16</ele>
   </trkpt>
   <trkpt lat="-29.821150000000003" lon="24.415070000000004">
    <ele>1129.67</ele>
   </trkpt>
   <trkpt lat="-29.821150000000003" lon="24.415090000000003">
    <ele>1129.64</ele>
   </trkpt>
   <trkpt lat="-29.820660000000004" lon="24.41497">
    <ele>1129.82</ele>
   </trkpt>
   <trkpt lat="-29.820194999737797" lon="24.41483999930418">
    <ele>1130.06</ele>
   </trkpt>
   <trkpt lat="-29.819730000000003" lon="24.414710000000003">
    <ele>1130.2</ele>
   </trkpt>
   <trkpt lat="-29.81922" lon="24.414530000000003">
    <ele>1130.21</ele>
   </trkpt>
   <trkpt lat="-29.81903" lon="24.4144">
    <ele>1130.21</ele>
   </trkpt>
   <trkpt lat="-29.818490000000004" lon="24.413870000000003">
    <ele>1129.73</ele>
   </trkpt>
   <trkpt lat="-29.818500000000004" lon="24.413860000000003">
    <ele>1129.8100000000002</ele>
   </trkpt>
   <trkpt lat="-29.81794250534818" lon="24.41454751148948">
    <ele>1128.5800000000002</ele>
   </trkpt>
   <trkpt lat="-29.81738500713736" lon="24.415235015311108">
    <ele>1126.89</ele>
   </trkpt>
   <trkpt lat="-29.816827505367666" lon="24.415922511465094">
    <ele>1125.14</ele>
   </trkpt>
   <trkpt lat="-29.816270000000003" lon="24.416610000000002">
    <ele>1124.64</ele>
   </trkpt>
   <trkpt lat="-29.816190000000002" lon="24.41665">
    <ele>1124.57</ele>
   </trkpt>
   <trkpt lat="-29.81603" lon="24.41666">
    <ele>1124.57</ele>
   </trkpt>
   <trkpt lat="-29.816000000000003" lon="24.41665">
    <ele>1124.56</ele>
   </trkpt>
   <trkpt lat="-29.815910000000002" lon="24.416590000000003">
    <ele>1124.42</ele>
   </trkpt>
   <trkpt lat="-29.815300000000004" lon="24.41597">
    <ele>1119.3600000000001</ele>
   </trkpt>
   <trkpt lat="-29.81479750324458" lon="24.415432491876498">
    <ele>1116.67</ele>
   </trkpt>
   <trkpt lat="-29.814295004313916" lon="24.41489498915576">
    <ele>1114.7</ele>
   </trkpt>
   <trkpt lat="-29.81379250320806" lon="24.414357491837634">
    <ele>1113.19</ele>
   </trkpt>
   <trkpt lat="-29.813290000000002" lon="24.41382">
    <ele>1111.63</ele>
   </trkpt>
   <trkpt lat="-29.812776669733772" lon="24.414453339777765">
    <ele>1111.89</ele>
   </trkpt>
   <trkpt lat="-29.812263336447614" lon="24.4150866730528">
    <ele>1112.3899999999999</ele>
   </trkpt>
   <trkpt lat="-29.811750000000004" lon="24.41572">
    <ele>1112.12</ele>
   </trkpt>
   <trkpt lat="-29.811248005567194" lon="24.416328012207273">
    <ele>1110.92</ele>
   </trkpt>
   <trkpt lat="-29.81074600835125" lon="24.41693601831009">
    <ele>1110.17</ele>
   </trkpt>
   <trkpt lat="-29.810244008352267" lon="24.417544018308615">
    <ele>1108.7</ele>
   </trkpt>
   <trkpt lat="-29.80974200557031" lon="24.41815201220299">
    <ele>1107.85</ele>
   </trkpt>
   <trkpt lat="-29.809240000000003" lon="24.418760000000002">
    <ele>1107.0300000000002</ele>
   </trkpt>
   <trkpt lat="-29.80919" lon="24.418830000000003">
    <ele>1106.88</ele>
   </trkpt>
   <trkpt lat="-29.809070000000002" lon="24.41926">
    <ele>1106.8200000000002</ele>
   </trkpt>
   <trkpt lat="-29.809050000000003" lon="24.41956">
    <ele>1106.92</ele>
   </trkpt>
   <trkpt lat="-29.808960000000003" lon="24.41965">
    <ele>1106.96</ele>
   </trkpt>
   <trkpt lat="-29.808980000000002" lon="24.41963">
    <ele>1106.95</ele>
   </trkpt>
   <trkpt lat="-29.8089" lon="24.419690000000003">
    <ele>1106.87</ele>
   </trkpt>
   <trkpt lat="-29.808570000000003" lon="24.419700000000002">
    <ele>1106.18</ele>
   </trkpt>
   <trkpt lat="-29.808220000000002" lon="24.41964">
    <ele>1105.48</ele>
   </trkpt>
   <trkpt lat="-29.807380000000002" lon="24.419670000000004">
    <ele>1104.6100000000001</ele>
   </trkpt>
   <trkpt lat="-29.80732" lon="24.41965">
    <ele>1104.6100000000001</ele>
   </trkpt>
   <trkpt lat="-29.80731" lon="24.419480000000004">
    <ele>1104.45</ele>
   </trkpt>
   <trkpt lat="-29.80739" lon="24.41937">
    <ele>1104.3899999999999</ele>
   </trkpt>
  </trkseg>
 </trk>
</gpx>
