<?xml version="1.0" encoding="UTF-8"?>
<gpx version="1.1" creator="Vasbyt placeholder" xmlns="http://www.topografix.com/GPX/1/1">
  <metadata><name>Vasbyt Hardloop - kort roete (plekhouer)</name></metadata>
  <trk>
    <name>Vasbyt Hardloop - kort roete</name>
    <trkseg>
      <trkpt lat="-29.813000" lon="24.485000"><ele>1080.0</ele></trkpt>
      <trkpt lat="-29.812550" lon="24.485850"><ele>1085.6</ele></trkpt>
      <trkpt lat="-29.812090" lon="24.486694"><ele>1091.1</ele></trkpt>
      <trkpt lat="-29.811620" lon="24.487533"><ele>1096.6</ele></trkpt>
      <trkpt lat="-29.811139" lon="24.488364"><ele>1102.1</ele></trkpt>
      <trkpt lat="-29.810650" lon="24.489187"><ele>1107.4</ele></trkpt>
      <trkpt lat="-29.810150" lon="24.489999"><ele>1112.6</ele></trkpt>
      <trkpt lat="-29.809641" lon="24.490801"><ele>1117.7</ele></trkpt>
      <trkpt lat="-29.809123" lon="24.491590"><ele>1122.6</ele></trkpt>
      <trkpt lat="-29.808595" lon="24.492366"><ele>1127.3</ele></trkpt>
      <trkpt lat="-29.808059" lon="24.493127"><ele>1131.8</ele></trkpt>
      <trkpt lat="-29.807514" lon="24.493872"><ele>1136.1</ele></trkpt>
      <trkpt lat="-29.806962" lon="24.494601"><ele>1140.2</ele></trkpt>
      <trkpt lat="-29.806401" lon="24.495311"><ele>1144.0</ele></trkpt>
      <trkpt lat="-29.805832" lon="24.496003"><ele>1147.6</ele></trkpt>
      <trkpt lat="-29.805257" lon="24.496674"><ele>1150.9</ele></trkpt>
      <trkpt lat="-29.804674" lon="24.497325"><ele>1154.0</ele></trkpt>
      <trkpt lat="-29.804085" lon="24.497953"><ele>1156.8</ele></trkpt>
      <trkpt lat="-29.803491" lon="24.498559"><ele>1159.3</ele></trkpt>
      <trkpt lat="-29.802890" lon="24.499141"><ele>1161.5</ele></trkpt>
      <trkpt lat="-29.802285" lon="24.499699"><ele>1163.5</ele></trkpt>
      <trkpt lat="-29.801674" lon="24.500232"><ele>1165.3</ele></trkpt>
      <trkpt lat="-29.801060" lon="24.500738"><ele>1166.8</ele></trkpt>
      <trkpt lat="-29.800442" lon="24.501218"><ele>1168.1</ele></trkpt>
      <trkpt lat="-29.799821" lon="24.501671"><ele>1169.1</ele></trkpt>
      <trkpt lat="-29.799197" lon="24.502097"><ele>1169.9</ele></trkpt>
      <trkpt lat="-29.798571" lon="24.502494"><ele>1170.6</ele></trkpt>
      <trkpt lat="-29.797943" lon="24.502862"><ele>1171.0</ele></trkpt>
      <trkpt lat="-29.797314" lon="24.503202"><ele>1171.3</ele></trkpt>
      <trkpt lat="-29.796684" lon="24.503512"><ele>1171.5</ele></trkpt>
      <trkpt lat="-29.796054" lon="24.503792"><ele>1171.5</ele></trkpt>
      <trkpt lat="-29.795425" lon="24.504043"><ele>1171.4</ele></trkpt>
      <trkpt lat="-29.794796" lon="24.504263"><ele>1171.3</ele></trkpt>
      <trkpt lat="-29.794169" lon="24.504453"><ele>1171.1</ele></trkpt>
      <trkpt lat="-29.793544" lon="24.504613"><ele>1170.8</ele></trkpt>
      <trkpt lat="-29.792921" lon="24.504743"><ele>1170.5</ele></trkpt>
      <trkpt lat="-29.792301" lon="24.504842"><ele>1170.2</ele></trkpt>
      <trkpt lat="-29.791685" lon="24.504911"><ele>1169.9</ele></trkpt>
      <trkpt lat="-29.791072" lon="24.504951"><ele>1169.6</ele></trkpt>
      <trkpt lat="-29.790464" lon="24.504960"><ele>1169.3</ele></trkpt>
      <trkpt lat="-29.789860" lon="24.504941"><ele>1169.1</ele></trkpt>
      <trkpt lat="-29.789261" lon="24.504892"><ele>1169.0</ele></trkpt>
      <trkpt lat="-29.788668" lon="24.504814"><ele>1168.9</ele></trkpt>
      <trkpt lat="-29.788081" lon="24.504708"><ele>1169.0</ele></trkpt>
      <trkpt lat="-29.787500" lon="24.504573"><ele>1169.1</ele></trkpt>
      <trkpt lat="-29.786925" lon="24.504412"><ele>1169.3</ele></trkpt>
      <trkpt lat="-29.786358" lon="24.504223"><ele>1169.6</ele></trkpt>
      <trkpt lat="-29.785797" lon="24.504009"><ele>1170.0</ele></trkpt>
      <trkpt lat="-29.785245" lon="24.503768"><ele>1170.4</ele></trkpt>
      <trkpt lat="-29.784699" lon="24.503503"><ele>1171.0</ele></trkpt>
      <trkpt lat="-29.784162" lon="24.503213"><ele>1171.7</ele></trkpt>
      <trkpt lat="-29.783633" lon="24.502899"><ele>1172.4</ele></trkpt>
      <trkpt lat="-29.783113" lon="24.502563"><ele>1173.2</ele></trkpt>
      <trkpt lat="-29.782601" lon="24.502205"><ele>1174.1</ele></trkpt>
      <trkpt lat="-29.782097" lon="24.501825"><ele>1175.0</ele></trkpt>
      <trkpt lat="-29.781603" lon="24.501425"><ele>1175.9</ele></trkpt>
      <trkpt lat="-29.781117" lon="24.501005"><ele>1176.9</ele></trkpt>
      <trkpt lat="-29.780640" lon="24.500567"><ele>1177.8</ele></trkpt>
      <trkpt lat="-29.780172" lon="24.500111"><ele>1178.8</ele></trkpt>
      <trkpt lat="-29.779712" lon="24.499638"><ele>1179.7</ele></trkpt>
      <trkpt lat="-29.779262" lon="24.499150"><ele>1180.6</ele></trkpt>
      <trkpt lat="-29.778820" lon="24.498646"><ele>1181.4</ele></trkpt>
      <trkpt lat="-29.778387" lon="24.498128"><ele>1182.1</ele></trkpt>
      <trkpt lat="-29.777963" lon="24.497597"><ele>1182.8</ele></trkpt>
      <trkpt lat="-29.777547" lon="24.497054"><ele>1183.3</ele></trkpt>
      <trkpt lat="-29.777139" lon="24.496500"><ele>1183.7</ele></trkpt>
      <trkpt lat="-29.776740" lon="24.495935"><ele>1183.9</ele></trkpt>
      <trkpt lat="-29.776349" lon="24.495361"><ele>1184.0</ele></trkpt>
      <trkpt lat="-29.775965" lon="24.494779"><ele>1184.0</ele></trkpt>
      <trkpt lat="-29.775589" lon="24.494189"><ele>1183.7</ele></trkpt>
      <trkpt lat="-29.775220" lon="24.493593"><ele>1183.3</ele></trkpt>
      <trkpt lat="-29.774858" lon="24.492990"><ele>1182.7</ele></trkpt>
      <trkpt lat="-29.774503" lon="24.492383"><ele>1181.8</ele></trkpt>
      <trkpt lat="-29.774154" lon="24.491772"><ele>1180.8</ele></trkpt>
      <trkpt lat="-29.773812" lon="24.491157"><ele>1179.6</ele></trkpt>
      <trkpt lat="-29.773475" lon="24.490540"><ele>1178.1</ele></trkpt>
      <trkpt lat="-29.773144" lon="24.489922"><ele>1176.5</ele></trkpt>
      <trkpt lat="-29.772817" lon="24.489302"><ele>1174.6</ele></trkpt>
      <trkpt lat="-29.772496" lon="24.488683"><ele>1172.6</ele></trkpt>
      <trkpt lat="-29.772179" lon="24.488064"><ele>1170.4</ele></trkpt>
      <trkpt lat="-29.771866" lon="24.487446"><ele>1168.0</ele></trkpt>
      <trkpt lat="-29.771556" lon="24.486829"><ele>1165.5</ele></trkpt>
      <trkpt lat="-29.771250" lon="24.486216"><ele>1162.8</ele></trkpt>
      <trkpt lat="-29.770947" lon="24.485605"><ele>1160.0</ele></trkpt>
      <trkpt lat="-29.770646" lon="24.484997"><ele>1157.1</ele></trkpt>
      <trkpt lat="-29.770348" lon="24.484394"><ele>1154.1</ele></trkpt>
      <trkpt lat="-29.770051" lon="24.483794"><ele>1151.1</ele></trkpt>
      <trkpt lat="-29.769756" lon="24.483200"><ele>1148.0</ele></trkpt>
      <trkpt lat="-29.769462" lon="24.482610"><ele>1144.8</ele></trkpt>
      <trkpt lat="-29.769169" lon="24.482026"><ele>1141.7</ele></trkpt>
      <trkpt lat="-29.768876" lon="24.481448"><ele>1138.6</ele></trkpt>
      <trkpt lat="-29.768584" lon="24.480876"><ele>1135.5</ele></trkpt>
      <trkpt lat="-29.768291" lon="24.480310"><ele>1132.5</ele></trkpt>
      <trkpt lat="-29.767998" lon="24.479750"><ele>1129.6</ele></trkpt>
      <trkpt lat="-29.767705" lon="24.479196"><ele>1126.9</ele></trkpt>
      <trkpt lat="-29.767410" lon="24.478650"><ele>1124.2</ele></trkpt>
      <trkpt lat="-29.767115" lon="24.478109"><ele>1121.7</ele></trkpt>
      <trkpt lat="-29.766818" lon="24.477575"><ele>1119.4</ele></trkpt>
      <trkpt lat="-29.766519" lon="24.477048"><ele>1117.3</ele></trkpt>
      <trkpt lat="-29.766219" lon="24.476528"><ele>1115.4</ele></trkpt>
      <trkpt lat="-29.765917" lon="24.476013"><ele>1113.7</ele></trkpt>
      <trkpt lat="-29.765613" lon="24.475505"><ele>1112.2</ele></trkpt>
      <trkpt lat="-29.765307" lon="24.475003"><ele>1111.0</ele></trkpt>
      <trkpt lat="-29.764999" lon="24.474507"><ele>1110.0</ele></trkpt>
      <trkpt lat="-29.764689" lon="24.474017"><ele>1109.3</ele></trkpt>
      <trkpt lat="-29.764377" lon="24.473531"><ele>1108.8</ele></trkpt>
      <trkpt lat="-29.764062" lon="24.473052"><ele>1108.6</ele></trkpt>
      <trkpt lat="-29.763746" lon="24.472576"><ele>1108.7</ele></trkpt>
      <trkpt lat="-29.763427" lon="24.472106"><ele>1109.0</ele></trkpt>
      <trkpt lat="-29.763107" lon="24.471639"><ele>1109.6</ele></trkpt>
      <trkpt lat="-29.762784" lon="24.471176"><ele>1110.4</ele></trkpt>
      <trkpt lat="-29.762460" lon="24.470717"><ele>1111.5</ele></trkpt>
      <trkpt lat="-29.762135" lon="24.470260"><ele>1112.8</ele></trkpt>
      <trkpt lat="-29.761809" lon="24.469806"><ele>1114.2</ele></trkpt>
      <trkpt lat="-29.761481" lon="24.469354"><ele>1115.9</ele></trkpt>
      <trkpt lat="-29.761153" lon="24.468904"><ele>1117.7</ele></trkpt>
      <trkpt lat="-29.760824" lon="24.468455"><ele>1119.7</ele></trkpt>
      <trkpt lat="-29.760495" lon="24.468006"><ele>1121.9</ele></trkpt>
      <trkpt lat="-29.760167" lon="24.467558"><ele>1124.1</ele></trkpt>
      <trkpt lat="-29.759839" lon="24.467109"><ele>1126.4</ele></trkpt>
      <trkpt lat="-29.759512" lon="24.466660"><ele>1128.8</ele></trkpt>
      <trkpt lat="-29.759186" lon="24.466210"><ele>1131.3</ele></trkpt>
      <trkpt lat="-29.758862" lon="24.465758"><ele>1133.7</ele></trkpt>
      <trkpt lat="-29.758541" lon="24.465303"><ele>1136.2</ele></trkpt>
      <trkpt lat="-29.758222" lon="24.464847"><ele>1138.6</ele></trkpt>
      <trkpt lat="-29.757907" lon="24.464387"><ele>1141.0</ele></trkpt>
      <trkpt lat="-29.757595" lon="24.463923"><ele>1143.3</ele></trkpt>
      <trkpt lat="-29.757288" lon="24.463456"><ele>1145.6</ele></trkpt>
      <trkpt lat="-29.756985" lon="24.462985"><ele>1147.7</ele></trkpt>
      <trkpt lat="-29.756688" lon="24.462509"><ele>1149.7</ele></trkpt>
      <trkpt lat="-29.756397" lon="24.462027"><ele>1151.5</ele></trkpt>
      <trkpt lat="-29.756112" lon="24.461541"><ele>1153.2</ele></trkpt>
      <trkpt lat="-29.755835" lon="24.461048"><ele>1154.7</ele></trkpt>
      <trkpt lat="-29.755565" lon="24.460549"><ele>1156.0</ele></trkpt>
      <trkpt lat="-29.755303" lon="24.460045"><ele>1157.2</ele></trkpt>
      <trkpt lat="-29.755050" lon="24.459533"><ele>1158.1</ele></trkpt>
      <trkpt lat="-29.754807" lon="24.459014"><ele>1158.9</ele></trkpt>
      <trkpt lat="-29.754573" lon="24.458489"><ele>1159.4</ele></trkpt>
      <trkpt lat="-29.754350" lon="24.457956"><ele>1159.7</ele></trkpt>
      <trkpt lat="-29.754138" lon="24.457416"><ele>1159.9</ele></trkpt>
      <trkpt lat="-29.753938" lon="24.456868"><ele>1159.8</ele></trkpt>
      <trkpt lat="-29.753750" lon="24.456312"><ele>1159.5</ele></trkpt>
      <trkpt lat="-29.753575" lon="24.455749"><ele>1159.1</ele></trkpt>
      <trkpt lat="-29.753413" lon="24.455178"><ele>1158.4</ele></trkpt>
      <trkpt lat="-29.753265" lon="24.454599"><ele>1157.6</ele></trkpt>
      <trkpt lat="-29.753131" lon="24.454012"><ele>1156.6</ele></trkpt>
      <trkpt lat="-29.753012" lon="24.453418"><ele>1155.5</ele></trkpt>
      <trkpt lat="-29.752908" lon="24.452815"><ele>1154.3</ele></trkpt>
      <trkpt lat="-29.752819" lon="24.452206"><ele>1153.0</ele></trkpt>
      <trkpt lat="-29.752747" lon="24.451589"><ele>1151.5</ele></trkpt>
      <trkpt lat="-29.752691" lon="24.450964"><ele>1150.0</ele></trkpt>
      <trkpt lat="-29.752651" lon="24.450333"><ele>1148.4</ele></trkpt>
      <trkpt lat="-29.752629" lon="24.449694"><ele>1146.8</ele></trkpt>
      <trkpt lat="-29.752624" lon="24.449049"><ele>1145.1</ele></trkpt>
      <trkpt lat="-29.752636" lon="24.448398"><ele>1143.5</ele></trkpt>
      <trkpt lat="-29.752667" lon="24.447741"><ele>1141.8</ele></trkpt>
      <trkpt lat="-29.752715" lon="24.447078"><ele>1140.2</ele></trkpt>
      <trkpt lat="-29.752781" lon="24.446410"><ele>1138.6</ele></trkpt>
      <trkpt lat="-29.752865" lon="24.445737"><ele>1137.1</ele></trkpt>
      <trkpt lat="-29.752967" lon="24.445059"><ele>1135.6</ele></trkpt>
      <trkpt lat="-29.753088" lon="24.444378"><ele>1134.2</ele></trkpt>
      <trkpt lat="-29.753227" lon="24.443692"><ele>1132.9</ele></trkpt>
      <trkpt lat="-29.753384" lon="24.443003"><ele>1131.7</ele></trkpt>
      <trkpt lat="-29.753560" lon="24.442312"><ele>1130.5</ele></trkpt>
      <trkpt lat="-29.753753" lon="24.441618"><ele>1129.5</ele></trkpt>
      <trkpt lat="-29.753964" lon="24.440923"><ele>1128.6</ele></trkpt>
      <trkpt lat="-29.754193" lon="24.440226"><ele>1127.8</ele></trkpt>
      <trkpt lat="-29.754439" lon="24.439529"><ele>1127.1</ele></trkpt>
      <trkpt lat="-29.754702" lon="24.438831"><ele>1126.4</ele></trkpt>
      <trkpt lat="-29.754981" lon="24.438134"><ele>1125.9</ele></trkpt>
      <trkpt lat="-29.755277" lon="24.437437"><ele>1125.5</ele></trkpt>
      <trkpt lat="-29.755589" lon="24.436742"><ele>1125.1</ele></trkpt>
      <trkpt lat="-29.755917" lon="24.436048"><ele>1124.8</ele></trkpt>
      <trkpt lat="-29.756259" lon="24.435358"><ele>1124.5</ele></trkpt>
      <trkpt lat="-29.756615" lon="24.434670"><ele>1124.3</ele></trkpt>
      <trkpt lat="-29.756986" lon="24.433985"><ele>1124.1</ele></trkpt>
      <trkpt lat="-29.757369" lon="24.433305"><ele>1123.9</ele></trkpt>
      <trkpt lat="-29.757766" lon="24.432629"><ele>1123.7</ele></trkpt>
      <trkpt lat="-29.758174" lon="24.431958"><ele>1123.5</ele></trkpt>
      <trkpt lat="-29.758593" lon="24.431293"><ele>1123.2</ele></trkpt>
      <trkpt lat="-29.759022" lon="24.430633"><ele>1122.8</ele></trkpt>
      <trkpt lat="-29.759462" lon="24.429980"><ele>1122.3</ele></trkpt>
      <trkpt lat="-29.759910" lon="24.429334"><ele>1121.8</ele></trkpt>
      <trkpt lat="-29.760366" lon="24.428695"><ele>1121.1</ele></trkpt>
      <trkpt lat="-29.760829" lon="24.428064"><ele>1120.3</ele></trkpt>
      <trkpt lat="-29.761299" lon="24.427441"><ele>1119.3</ele></trkpt>
      <trkpt lat="-29.761774" lon="24.426827"><ele>1118.1</ele></trkpt>
      <trkpt lat="-29.762253" lon="24.426221"><ele>1116.8</ele></trkpt>
      <trkpt lat="-29.762736" lon="24.425624"><ele>1115.2</ele></trkpt>
      <trkpt lat="-29.763222" lon="24.425036"><ele>1113.5</ele></trkpt>
      <trkpt lat="-29.763709" lon="24.424458"><ele>1111.5</ele></trkpt>
      <trkpt lat="-29.764197" lon="24.423890"><ele>1109.2</ele></trkpt>
      <trkpt lat="-29.764685" lon="24.423332"><ele>1106.8</ele></trkpt>
      <trkpt lat="-29.765171" lon="24.422784"><ele>1104.1</ele></trkpt>
      <trkpt lat="-29.765656" lon="24.422246"><ele>1101.1</ele></trkpt>
      <trkpt lat="-29.766136" lon="24.421719"><ele>1097.9</ele></trkpt>
      <trkpt lat="-29.766613" lon="24.421202"><ele>1094.5</ele></trkpt>
      <trkpt lat="-29.767084" lon="24.420696"><ele>1090.8</ele></trkpt>
      <trkpt lat="-29.767550" lon="24.420200"><ele>1086.9</ele></trkpt>
      <trkpt lat="-29.768008" lon="24.419715"><ele>1082.8</ele></trkpt>
      <trkpt lat="-29.768458" lon="24.419240"><ele>1078.5</ele></trkpt>
      <trkpt lat="-29.768898" lon="24.418776"><ele>1074.0</ele></trkpt>
      <trkpt lat="-29.769329" lon="24.418321"><ele>1069.3</ele></trkpt>
      <trkpt lat="-29.769749" lon="24.417877"><ele>1064.4</ele></trkpt>
      <trkpt lat="-29.770157" lon="24.417443"><ele>1059.4</ele></trkpt>
      <trkpt lat="-29.770553" lon="24.417018"><ele>1054.3</ele></trkpt>
      <trkpt lat="-29.770935" lon="24.416603"><ele>1049.1</ele></trkpt>
      <trkpt lat="-29.771303" lon="24.416197"><ele>1043.8</ele></trkpt>
      <trkpt lat="-29.771655" lon="24.415800"><ele>1038.5</ele></trkpt>
      <trkpt lat="-29.771992" lon="24.415411"><ele>1033.2</ele></trkpt>
      <trkpt lat="-29.772312" lon="24.415031"><ele>1027.8</ele></trkpt>
      <trkpt lat="-29.772615" lon="24.414659"><ele>1022.5</ele></trkpt>
      <trkpt lat="-29.772900" lon="24.414293"><ele>1017.2</ele></trkpt>
      <trkpt lat="-29.773167" lon="24.413935"><ele>1012.0</ele></trkpt>
      <trkpt lat="-29.773414" lon="24.413584"><ele>1006.9</ele></trkpt>
      <trkpt lat="-29.773642" lon="24.413238"><ele>1001.9</ele></trkpt>
      <trkpt lat="-29.773849" lon="24.412898"><ele>997.0</ele></trkpt>
      <trkpt lat="-29.774036" lon="24.412563"><ele>992.3</ele></trkpt>
      <trkpt lat="-29.774202" lon="24.412232"><ele>987.8</ele></trkpt>
      <trkpt lat="-29.774346" lon="24.411906"><ele>983.6</ele></trkpt>
      <trkpt lat="-29.774469" lon="24.411583"><ele>979.5</ele></trkpt>
      <trkpt lat="-29.774570" lon="24.411263"><ele>975.7</ele></trkpt>
      <trkpt lat="-29.774649" lon="24.410945"><ele>972.1</ele></trkpt>
      <trkpt lat="-29.774705" lon="24.410629"><ele>968.8</ele></trkpt>
      <trkpt lat="-29.774739" lon="24.410314"><ele>965.8</ele></trkpt>
      <trkpt lat="-29.774750" lon="24.410000"><ele>963.0</ele></trkpt>
      <trkpt lat="-29.774739" lon="24.409686"><ele>960.5</ele></trkpt>
      <trkpt lat="-29.774705" lon="24.409371"><ele>958.3</ele></trkpt>
      <trkpt lat="-29.774649" lon="24.409055"><ele>956.4</ele></trkpt>
      <trkpt lat="-29.774570" lon="24.408737"><ele>954.8</ele></trkpt>
      <trkpt lat="-29.774469" lon="24.408417"><ele>953.5</ele></trkpt>
      <trkpt lat="-29.774346" lon="24.408094"><ele>952.4</ele></trkpt>
      <trkpt lat="-29.774202" lon="24.407768"><ele>951.6</ele></trkpt>
      <trkpt lat="-29.774036" lon="24.407437"><ele>951.0</ele></trkpt>
      <trkpt lat="-29.773849" lon="24.407102"><ele>950.7</ele></trkpt>
      <trkpt lat="-29.773642" lon="24.406762"><ele>950.6</ele></trkpt>
      <trkpt lat="-29.773414" lon="24.406416"><ele>950.8</ele></trkpt>
      <trkpt lat="-29.773167" lon="24.406065"><ele>951.1</ele></trkpt>
      <trkpt lat="-29.772900" lon="24.405707"><ele>951.6</ele></trkpt>
      <trkpt lat="-29.772615" lon="24.405341"><ele>952.2</ele></trkpt>
      <trkpt lat="-29.772312" lon="24.404969"><ele>953.0</ele></trkpt>
      <trkpt lat="-29.771992" lon="24.404589"><ele>953.9</ele></trkpt>
      <trkpt lat="-29.771655" lon="24.404200"><ele>954.9</ele></trkpt>
      <trkpt lat="-29.771303" lon="24.403803"><ele>955.9</ele></trkpt>
      <trkpt lat="-29.770935" lon="24.403397"><ele>957.1</ele></trkpt>
      <trkpt lat="-29.770553" lon="24.402982"><ele>958.2</ele></trkpt>
      <trkpt lat="-29.770157" lon="24.402557"><ele>959.4</ele></trkpt>
      <trkpt lat="-29.769749" lon="24.402123"><ele>960.6</ele></trkpt>
      <trkpt lat="-29.769329" lon="24.401679"><ele>961.8</ele></trkpt>
      <trkpt lat="-29.768898" lon="24.401224"><ele>962.9</ele></trkpt>
      <trkpt lat="-29.768458" lon="24.400760"><ele>964.0</ele></trkpt>
      <trkpt lat="-29.768008" lon="24.400285"><ele>965.1</ele></trkpt>
      <trkpt lat="-29.767550" lon="24.399800"><ele>966.1</ele></trkpt>
      <trkpt lat="-29.767084" lon="24.399304"><ele>967.0</ele></trkpt>
      <trkpt lat="-29.766613" lon="24.398798"><ele>967.8</ele></trkpt>
      <trkpt lat="-29.766136" lon="24.398281"><ele>968.5</ele></trkpt>
      <trkpt lat="-29.765656" lon="24.397754"><ele>969.1</ele></trkpt>
      <trkpt lat="-29.765171" lon="24.397216"><ele>969.7</ele></trkpt>
      <trkpt lat="-29.764685" lon="24.396668"><ele>970.1</ele></trkpt>
      <trkpt lat="-29.764197" lon="24.396110"><ele>970.5</ele></trkpt>
      <trkpt lat="-29.763709" lon="24.395542"><ele>970.8</ele></trkpt>
      <trkpt lat="-29.763222" lon="24.394964"><ele>971.0</ele></trkpt>
      <trkpt lat="-29.762736" lon="24.394376"><ele>971.1</ele></trkpt>
      <trkpt lat="-29.762253" lon="24.393779"><ele>971.2</ele></trkpt>
      <trkpt lat="-29.761774" lon="24.393173"><ele>971.2</ele></trkpt>
      <trkpt lat="-29.761299" lon="24.392559"><ele>971.2</ele></trkpt>
      <trkpt lat="-29.760829" lon="24.391936"><ele>971.1</ele></trkpt>
      <trkpt lat="-29.760366" lon="24.391305"><ele>971.1</ele></trkpt>
      <trkpt lat="-29.759910" lon="24.390666"><ele>971.1</ele></trkpt>
      <trkpt lat="-29.759462" lon="24.390020"><ele>971.1</ele></trkpt>
      <trkpt lat="-29.759022" lon="24.389367"><ele>971.1</ele></trkpt>
      <trkpt lat="-29.758593" lon="24.388707"><ele>971.2</ele></trkpt>
      <trkpt lat="-29.758174" lon="24.388042"><ele>971.3</ele></trkpt>
      <trkpt lat="-29.757766" lon="24.387371"><ele>971.6</ele></trkpt>
      <trkpt lat="-29.757369" lon="24.386695"><ele>972.0</ele></trkpt>
      <trkpt lat="-29.756986" lon="24.386015"><ele>972.4</ele></trkpt>
      <trkpt lat="-29.756615" lon="24.385330"><ele>973.1</ele></trkpt>
      <trkpt lat="-29.756259" lon="24.384642"><ele>973.8</ele></trkpt>
      <trkpt lat="-29.755917" lon="24.383952"><ele>974.7</ele></trkpt>
      <trkpt lat="-29.755589" lon="24.383258"><ele>975.8</ele></trkpt>
      <trkpt lat="-29.755277" lon="24.382563"><ele>977.1</ele></trkpt>
      <trkpt lat="-29.754981" lon="24.381866"><ele>978.6</ele></trkpt>
      <trkpt lat="-29.754702" lon="24.381169"><ele>980.2</ele></trkpt>
      <trkpt lat="-29.754439" lon="24.380471"><ele>982.1</ele></trkpt>
      <trkpt lat="-29.754193" lon="24.379774"><ele>984.1</ele></trkpt>
      <trkpt lat="-29.753964" lon="24.379077"><ele>986.4</ele></trkpt>
      <trkpt lat="-29.753753" lon="24.378382"><ele>988.8</ele></trkpt>
      <trkpt lat="-29.753560" lon="24.377688"><ele>991.4</ele></trkpt>
      <trkpt lat="-29.753384" lon="24.376997"><ele>994.2</ele></trkpt>
      <trkpt lat="-29.753227" lon="24.376308"><ele>997.2</ele></trkpt>
      <trkpt lat="-29.753088" lon="24.375622"><ele>1000.3</ele></trkpt>
      <trkpt lat="-29.752967" lon="24.374941"><ele>1003.6</ele></trkpt>
      <trkpt lat="-29.752865" lon="24.374263"><ele>1007.0</ele></trkpt>
      <trkpt lat="-29.752781" lon="24.373590"><ele>1010.5</ele></trkpt>
      <trkpt lat="-29.752715" lon="24.372922"><ele>1014.1</ele></trkpt>
      <trkpt lat="-29.752667" lon="24.372259"><ele>1017.8</ele></trkpt>
      <trkpt lat="-29.752636" lon="24.371602"><ele>1021.6</ele></trkpt>
      <trkpt lat="-29.752624" lon="24.370951"><ele>1025.3</ele></trkpt>
      <trkpt lat="-29.752629" lon="24.370306"><ele>1029.1</ele></trkpt>
      <trkpt lat="-29.752651" lon="24.369667"><ele>1032.9</ele></trkpt>
      <trkpt lat="-29.752691" lon="24.369036"><ele>1036.7</ele></trkpt>
      <trkpt lat="-29.752747" lon="24.368411"><ele>1040.4</ele></trkpt>
      <trkpt lat="-29.752819" lon="24.367794"><ele>1044.0</ele></trkpt>
      <trkpt lat="-29.752908" lon="24.367185"><ele>1047.6</ele></trkpt>
      <trkpt lat="-29.753012" lon="24.366582"><ele>1051.0</ele></trkpt>
      <trkpt lat="-29.753131" lon="24.365988"><ele>1054.2</ele></trkpt>
      <trkpt lat="-29.753265" lon="24.365401"><ele>1057.3</ele></trkpt>
      <trkpt lat="-29.753413" lon="24.364822"><ele>1060.2</ele></trkpt>
      <trkpt lat="-29.753575" lon="24.364251"><ele>1062.9</ele></trkpt>
      <trkpt lat="-29.753750" lon="24.363688"><ele>1065.4</ele></trkpt>
      <trkpt lat="-29.753938" lon="24.363132"><ele>1067.7</ele></trkpt>
      <trkpt lat="-29.754138" lon="24.362584"><ele>1069.7</ele></trkpt>
      <trkpt lat="-29.754350" lon="24.362044"><ele>1071.5</ele></trkpt>
      <trkpt lat="-29.754573" lon="24.361511"><ele>1073.0</ele></trkpt>
      <trkpt lat="-29.754807" lon="24.360986"><ele>1074.3</ele></trkpt>
      <trkpt lat="-29.755050" lon="24.360467"><ele>1075.3</ele></trkpt>
      <trkpt lat="-29.755303" lon="24.359955"><ele>1076.0</ele></trkpt>
      <trkpt lat="-29.755565" lon="24.359451"><ele>1076.4</ele></trkpt>
      <trkpt lat="-29.755835" lon="24.358952"><ele>1076.6</ele></trkpt>
      <trkpt lat="-29.756112" lon="24.358459"><ele>1076.6</ele></trkpt>
      <trkpt lat="-29.756397" lon="24.357973"><ele>1076.2</ele></trkpt>
      <trkpt lat="-29.756688" lon="24.357491"><ele>1075.7</ele></trkpt>
      <trkpt lat="-29.756985" lon="24.357015"><ele>1074.9</ele></trkpt>
      <trkpt lat="-29.757288" lon="24.356544"><ele>1073.9</ele></trkpt>
      <trkpt lat="-29.757595" lon="24.356077"><ele>1072.7</ele></trkpt>
      <trkpt lat="-29.757907" lon="24.355613"><ele>1071.4</ele></trkpt>
      <trkpt lat="-29.758222" lon="24.355153"><ele>1069.9</ele></trkpt>
      <trkpt lat="-29.758541" lon="24.354697"><ele>1068.2</ele></trkpt>
      <trkpt lat="-29.758862" lon="24.354242"><ele>1066.4</ele></trkpt>
      <trkpt lat="-29.759186" lon="24.353790"><ele>1064.5</ele></trkpt>
      <trkpt lat="-29.759512" lon="24.353340"><ele>1062.6</ele></trkpt>
      <trkpt lat="-29.759839" lon="24.352891"><ele>1060.6</ele></trkpt>
      <trkpt lat="-29.760167" lon="24.352442"><ele>1058.6</ele></trkpt>
      <trkpt lat="-29.760495" lon="24.351994"><ele>1056.6</ele></trkpt>
      <trkpt lat="-29.760824" lon="24.351545"><ele>1054.6</ele></trkpt>
      <trkpt lat="-29.761153" lon="24.351096"><ele>1052.7</ele></trkpt>
      <trkpt lat="-29.761481" lon="24.350646"><ele>1050.8</ele></trkpt>
      <trkpt lat="-29.761809" lon="24.350194"><ele>1049.0</ele></trkpt>
      <trkpt lat="-29.762135" lon="24.349740"><ele>1047.3</ele></trkpt>
      <trkpt lat="-29.762460" lon="24.349283"><ele>1045.7</ele></trkpt>
      <trkpt lat="-29.762784" lon="24.348824"><ele>1044.3</ele></trkpt>
      <trkpt lat="-29.763107" lon="24.348361"><ele>1043.1</ele></trkpt>
      <trkpt lat="-29.763427" lon="24.347894"><ele>1042.0</ele></trkpt>
      <trkpt lat="-29.763746" lon="24.347424"><ele>1041.0</ele></trkpt>
      <trkpt lat="-29.764062" lon="24.346948"><ele>1040.3</ele></trkpt>
      <trkpt lat="-29.764377" lon="24.346469"><ele>1039.8</ele></trkpt>
      <trkpt lat="-29.764689" lon="24.345983"><ele>1039.4</ele></trkpt>
      <trkpt lat="-29.764999" lon="24.345493"><ele>1039.3</ele></trkpt>
      <trkpt lat="-29.765307" lon="24.344997"><ele>1039.4</ele></trkpt>
      <trkpt lat="-29.765613" lon="24.344495"><ele>1039.6</ele></trkpt>
      <trkpt lat="-29.765917" lon="24.343987"><ele>1040.1</ele></trkpt>
      <trkpt lat="-29.766219" lon="24.343472"><ele>1040.8</ele></trkpt>
      <trkpt lat="-29.766519" lon="24.342952"><ele>1041.6</ele></trkpt>
      <trkpt lat="-29.766818" lon="24.342425"><ele>1042.6</ele></trkpt>
      <trkpt lat="-29.767115" lon="24.341891"><ele>1043.8</ele></trkpt>
      <trkpt lat="-29.767410" lon="24.341350"><ele>1045.1</ele></trkpt>
      <trkpt lat="-29.767705" lon="24.340804"><ele>1046.6</ele></trkpt>
      <trkpt lat="-29.767998" lon="24.340250"><ele>1048.2</ele></trkpt>
      <trkpt lat="-29.768291" lon="24.339690"><ele>1049.9</ele></trkpt>
      <trkpt lat="-29.768584" lon="24.339124"><ele>1051.7</ele></trkpt>
      <trkpt lat="-29.768876" lon="24.338552"><ele>1053.5</ele></trkpt>
      <trkpt lat="-29.769169" lon="24.337974"><ele>1055.5</ele></trkpt>
      <trkpt lat="-29.769462" lon="24.337390"><ele>1057.4</ele></trkpt>
      <trkpt lat="-29.769756" lon="24.336800"><ele>1059.4</ele></trkpt>
      <trkpt lat="-29.770051" lon="24.336206"><ele>1061.4</ele></trkpt>
      <trkpt lat="-29.770348" lon="24.335606"><ele>1063.3</ele></trkpt>
      <trkpt lat="-29.770646" lon="24.335003"><ele>1065.2</ele></trkpt>
      <trkpt lat="-29.770947" lon="24.334395"><ele>1067.1</ele></trkpt>
      <trkpt lat="-29.771250" lon="24.333784"><ele>1068.9</ele></trkpt>
      <trkpt lat="-29.771556" lon="24.333171"><ele>1070.7</ele></trkpt>
      <trkpt lat="-29.771866" lon="24.332554"><ele>1072.4</ele></trkpt>
      <trkpt lat="-29.772179" lon="24.331936"><ele>1073.9</ele></trkpt>
      <trkpt lat="-29.772496" lon="24.331317"><ele>1075.4</ele></trkpt>
      <trkpt lat="-29.772817" lon="24.330698"><ele>1076.7</ele></trkpt>
      <trkpt lat="-29.773144" lon="24.330078"><ele>1078.0</ele></trkpt>
      <trkpt lat="-29.773475" lon="24.329460"><ele>1079.1</ele></trkpt>
      <trkpt lat="-29.773812" lon="24.328843"><ele>1080.1</ele></trkpt>
      <trkpt lat="-29.774154" lon="24.328228"><ele>1081.0</ele></trkpt>
      <trkpt lat="-29.774503" lon="24.327617"><ele>1081.8</ele></trkpt>
      <trkpt lat="-29.774858" lon="24.327010"><ele>1082.5</ele></trkpt>
      <trkpt lat="-29.775220" lon="24.326407"><ele>1083.1</ele></trkpt>
      <trkpt lat="-29.775589" lon="24.325811"><ele>1083.6</ele></trkpt>
      <trkpt lat="-29.775965" lon="24.325221"><ele>1084.0</ele></trkpt>
      <trkpt lat="-29.776349" lon="24.324639"><ele>1084.4</ele></trkpt>
      <trkpt lat="-29.776740" lon="24.324065"><ele>1084.7</ele></trkpt>
      <trkpt lat="-29.777139" lon="24.323500"><ele>1085.0</ele></trkpt>
      <trkpt lat="-29.777547" lon="24.322946"><ele>1085.2</ele></trkpt>
      <trkpt lat="-29.777963" lon="24.322403"><ele>1085.5</ele></trkpt>
      <trkpt lat="-29.778387" lon="24.321872"><ele>1085.7</ele></trkpt>
      <trkpt lat="-29.778820" lon="24.321354"><ele>1086.0</ele></trkpt>
      <trkpt lat="-29.779262" lon="24.320850"><ele>1086.4</ele></trkpt>
      <trkpt lat="-29.779712" lon="24.320362"><ele>1086.8</ele></trkpt>
      <trkpt lat="-29.780172" lon="24.319889"><ele>1087.3</ele></trkpt>
      <trkpt lat="-29.780640" lon="24.319433"><ele>1087.9</ele></trkpt>
      <trkpt lat="-29.781117" lon="24.318995"><ele>1088.7</ele></trkpt>
      <trkpt lat="-29.781603" lon="24.318575"><ele>1089.6</ele></trkpt>
      <trkpt lat="-29.782097" lon="24.318175"><ele>1090.6</ele></trkpt>
      <trkpt lat="-29.782601" lon="24.317795"><ele>1091.8</ele></trkpt>
      <trkpt lat="-29.783113" lon="24.317437"><ele>1093.2</ele></trkpt>
      <trkpt lat="-29.783633" lon="24.317101"><ele>1094.8</ele></trkpt>
      <trkpt lat="-29.784162" lon="24.316787"><ele>1096.6</ele></trkpt>
      <trkpt lat="-29.784699" lon="24.316497"><ele>1098.5</ele></trkpt>
      <trkpt lat="-29.785245" lon="24.316232"><ele>1100.8</ele></trkpt>
      <trkpt lat="-29.785797" lon="24.315991"><ele>1103.2</ele></trkpt>
      <trkpt lat="-29.786358" lon="24.315777"><ele>1105.9</ele></trkpt>
      <trkpt lat="-29.786925" lon="24.315588"><ele>1108.7</ele></trkpt>
      <trkpt lat="-29.787500" lon="24.315427"><ele>1111.8</ele></trkpt>
      <trkpt lat="-29.788081" lon="24.315292"><ele>1115.2</ele></trkpt>
      <trkpt lat="-29.788668" lon="24.315186"><ele>1118.7</ele></trkpt>
      <trkpt lat="-29.789261" lon="24.315108"><ele>1122.4</ele></trkpt>
      <trkpt lat="-29.789860" lon="24.315059"><ele>1126.3</ele></trkpt>
      <trkpt lat="-29.790464" lon="24.315040"><ele>1130.4</ele></trkpt>
      <trkpt lat="-29.791072" lon="24.315049"><ele>1134.6</ele></trkpt>
      <trkpt lat="-29.791685" lon="24.315089"><ele>1139.0</ele></trkpt>
      <trkpt lat="-29.792301" lon="24.315158"><ele>1143.5</ele></trkpt>
      <trkpt lat="-29.792921" lon="24.315257"><ele>1148.0</ele></trkpt>
      <trkpt lat="-29.793544" lon="24.315387"><ele>1152.7</ele></trkpt>
      <trkpt lat="-29.794169" lon="24.315547"><ele>1157.4</ele></trkpt>
      <trkpt lat="-29.794796" lon="24.315737"><ele>1162.2</ele></trkpt>
      <trkpt lat="-29.795425" lon="24.315957"><ele>1166.9</ele></trkpt>
      <trkpt lat="-29.796054" lon="24.316208"><ele>1171.6</ele></trkpt>
      <trkpt lat="-29.796684" lon="24.316488"><ele>1176.3</ele></trkpt>
      <trkpt lat="-29.797314" lon="24.316798"><ele>1180.9</ele></trkpt>
      <trkpt lat="-29.797943" lon="24.317138"><ele>1185.5</ele></trkpt>
      <trkpt lat="-29.798571" lon="24.317506"><ele>1189.9</ele></trkpt>
      <trkpt lat="-29.799197" lon="24.317903"><ele>1194.1</ele></trkpt>
      <trkpt lat="-29.799821" lon="24.318329"><ele>1198.2</ele></trkpt>
      <trkpt lat="-29.800442" lon="24.318782"><ele>1202.1</ele></trkpt>
      <trkpt lat="-29.801060" lon="24.319262"><ele>1205.8</ele></trkpt>
      <trkpt lat="-29.801674" lon="24.319768"><ele>1209.3</ele></trkpt>
      <trkpt lat="-29.802285" lon="24.320301"><ele>1212.6</ele></trkpt>
      <trkpt lat="-29.802890" lon="24.320859"><ele>1215.6</ele></trkpt>
      <trkpt lat="-29.803491" lon="24.321441"><ele>1218.3</ele></trkpt>
      <trkpt lat="-29.804085" lon="24.322047"><ele>1220.7</ele></trkpt>
      <trkpt lat="-29.804674" lon="24.322675"><ele>1222.9</ele></trkpt>
      <trkpt lat="-29.805257" lon="24.323326"><ele>1224.7</ele></trkpt>
      <trkpt lat="-29.805832" lon="24.323997"><ele>1226.3</ele></trkpt>
      <trkpt lat="-29.806401" lon="24.324689"><ele>1227.6</ele></trkpt>
      <trkpt lat="-29.806962" lon="24.325399"><ele>1228.5</ele></trkpt>
      <trkpt lat="-29.807514" lon="24.326128"><ele>1229.2</ele></trkpt>
      <trkpt lat="-29.808059" lon="24.326873"><ele>1229.6</ele></trkpt>
      <trkpt lat="-29.808595" lon="24.327634"><ele>1229.7</ele></trkpt>
      <trkpt lat="-29.809123" lon="24.328410"><ele>1229.5</ele></trkpt>
      <trkpt lat="-29.809641" lon="24.329199"><ele>1229.1</ele></trkpt>
      <trkpt lat="-29.810150" lon="24.330001"><ele>1228.4</ele></trkpt>
      <trkpt lat="-29.810650" lon="24.330813"><ele>1227.5</ele></trkpt>
      <trkpt lat="-29.811139" lon="24.331636"><ele>1226.4</ele></trkpt>
      <trkpt lat="-29.811620" lon="24.332467"><ele>1225.0</ele></trkpt>
      <trkpt lat="-29.812090" lon="24.333306"><ele>1223.5</ele></trkpt>
      <trkpt lat="-29.812550" lon="24.334150"><ele>1221.8</ele></trkpt>
      <trkpt lat="-29.813000" lon="24.335000"><ele>1220.0</ele></trkpt>
      <trkpt lat="-29.813440" lon="24.335853"><ele>1218.1</ele></trkpt>
      <trkpt lat="-29.813870" lon="24.336709"><ele>1216.0</ele></trkpt>
      <trkpt lat="-29.814290" lon="24.337566"><ele>1213.9</ele></trkpt>
      <trkpt lat="-29.814699" lon="24.338423"><ele>1211.7</ele></trkpt>
      <trkpt lat="-29.815099" lon="24.339278"><ele>1209.5</ele></trkpt>
      <trkpt lat="-29.815489" lon="24.340131"><ele>1207.2</ele></trkpt>
      <trkpt lat="-29.815869" lon="24.340980"><ele>1205.0</ele></trkpt>
      <trkpt lat="-29.816240" lon="24.341824"><ele>1202.8</ele></trkpt>
      <trkpt lat="-29.816601" lon="24.342662"><ele>1200.6</ele></trkpt>
      <trkpt lat="-29.816953" lon="24.343492"><ele>1198.4</ele></trkpt>
      <trkpt lat="-29.817296" lon="24.344314"><ele>1196.3</ele></trkpt>
      <trkpt lat="-29.817630" lon="24.345127"><ele>1194.3</ele></trkpt>
      <trkpt lat="-29.817956" lon="24.345928"><ele>1192.4</ele></trkpt>
      <trkpt lat="-29.818274" lon="24.346718"><ele>1190.5</ele></trkpt>
      <trkpt lat="-29.818584" lon="24.347496"><ele>1188.7</ele></trkpt>
      <trkpt lat="-29.818887" lon="24.348259"><ele>1187.1</ele></trkpt>
      <trkpt lat="-29.819182" lon="24.349008"><ele>1185.5</ele></trkpt>
      <trkpt lat="-29.819471" lon="24.349742"><ele>1184.0</ele></trkpt>
      <trkpt lat="-29.819753" lon="24.350459"><ele>1182.7</ele></trkpt>
      <trkpt lat="-29.820029" lon="24.351159"><ele>1181.4</ele></trkpt>
      <trkpt lat="-29.820300" lon="24.351841"><ele>1180.2</ele></trkpt>
      <trkpt lat="-29.820566" lon="24.352504"><ele>1179.1</ele></trkpt>
      <trkpt lat="-29.820827" lon="24.353148"><ele>1178.0</ele></trkpt>
      <trkpt lat="-29.821084" lon="24.353772"><ele>1177.1</ele></trkpt>
      <trkpt lat="-29.821337" lon="24.354376"><ele>1176.1</ele></trkpt>
      <trkpt lat="-29.821587" lon="24.354958"><ele>1175.2</ele></trkpt>
      <trkpt lat="-29.821834" lon="24.355519"><ele>1174.3</ele></trkpt>
      <trkpt lat="-29.822079" lon="24.356058"><ele>1173.4</ele></trkpt>
      <trkpt lat="-29.822322" lon="24.356575"><ele>1172.6</ele></trkpt>
      <trkpt lat="-29.822563" lon="24.357070"><ele>1171.6</ele></trkpt>
      <trkpt lat="-29.822804" lon="24.357542"><ele>1170.7</ele></trkpt>
      <trkpt lat="-29.823044" lon="24.357990"><ele>1169.6</ele></trkpt>
      <trkpt lat="-29.823284" lon="24.358416"><ele>1168.5</ele></trkpt>
      <trkpt lat="-29.823525" lon="24.358819"><ele>1167.3</ele></trkpt>
      <trkpt lat="-29.823766" lon="24.359198"><ele>1166.0</ele></trkpt>
      <trkpt lat="-29.824009" lon="24.359555"><ele>1164.6</ele></trkpt>
      <trkpt lat="-29.824254" lon="24.359888"><ele>1163.1</ele></trkpt>
      <trkpt lat="-29.824501" lon="24.360198"><ele>1161.4</ele></trkpt>
      <trkpt lat="-29.824751" lon="24.360486"><ele>1159.5</ele></trkpt>
      <trkpt lat="-29.825004" lon="24.360751"><ele>1157.5</ele></trkpt>
      <trkpt lat="-29.825260" lon="24.360995"><ele>1155.3</ele></trkpt>
      <trkpt lat="-29.825519" lon="24.361216"><ele>1152.9</ele></trkpt>
      <trkpt lat="-29.825783" lon="24.361416"><ele>1150.4</ele></trkpt>
      <trkpt lat="-29.826052" lon="24.361595"><ele>1147.6</ele></trkpt>
      <trkpt lat="-29.826325" lon="24.361753"><ele>1144.7</ele></trkpt>
      <trkpt lat="-29.826603" lon="24.361892"><ele>1141.7</ele></trkpt>
      <trkpt lat="-29.826886" lon="24.362011"><ele>1138.4</ele></trkpt>
      <trkpt lat="-29.827175" lon="24.362112"><ele>1135.0</ele></trkpt>
      <trkpt lat="-29.827470" lon="24.362194"><ele>1131.4</ele></trkpt>
      <trkpt lat="-29.827770" lon="24.362259"><ele>1127.7</ele></trkpt>
      <trkpt lat="-29.828076" lon="24.362307"><ele>1123.9</ele></trkpt>
      <trkpt lat="-29.828389" lon="24.362339"><ele>1119.9</ele></trkpt>
      <trkpt lat="-29.828708" lon="24.362356"><ele>1115.9</ele></trkpt>
      <trkpt lat="-29.829033" lon="24.362358"><ele>1111.7</ele></trkpt>
      <trkpt lat="-29.829365" lon="24.362347"><ele>1107.6</ele></trkpt>
      <trkpt lat="-29.829703" lon="24.362323"><ele>1103.3</ele></trkpt>
      <trkpt lat="-29.830048" lon="24.362288"><ele>1099.1</ele></trkpt>
      <trkpt lat="-29.830399" lon="24.362241"><ele>1094.8</ele></trkpt>
      <trkpt lat="-29.830757" lon="24.362184"><ele>1090.6</ele></trkpt>
      <trkpt lat="-29.831121" lon="24.362118"><ele>1086.4</ele></trkpt>
      <trkpt lat="-29.831491" lon="24.362043"><ele>1082.3</ele></trkpt>
      <trkpt lat="-29.831867" lon="24.361962"><ele>1078.3</ele></trkpt>
      <trkpt lat="-29.832250" lon="24.361873"><ele>1074.4</ele></trkpt>
      <trkpt lat="-29.832638" lon="24.361779"><ele>1070.6</ele></trkpt>
      <trkpt lat="-29.833032" lon="24.361681"><ele>1067.0</ele></trkpt>
      <trkpt lat="-29.833431" lon="24.361579"><ele>1063.5</ele></trkpt>
      <trkpt lat="-29.833836" lon="24.361474"><ele>1060.3</ele></trkpt>
      <trkpt lat="-29.834245" lon="24.361367"><ele>1057.3</ele></trkpt>
      <trkpt lat="-29.834659" lon="24.361259"><ele>1054.5</ele></trkpt>
      <trkpt lat="-29.835078" lon="24.361150"><ele>1051.9</ele></trkpt>
      <trkpt lat="-29.835500" lon="24.361043"><ele>1049.6</ele></trkpt>
      <trkpt lat="-29.835927" lon="24.360937"><ele>1047.6</ele></trkpt>
      <trkpt lat="-29.836357" lon="24.360833"><ele>1045.8</ele></trkpt>
      <trkpt lat="-29.836789" lon="24.360733"><ele>1044.3</ele></trkpt>
      <trkpt lat="-29.837225" lon="24.360637"><ele>1043.1</ele></trkpt>
      <trkpt lat="-29.837663" lon="24.360545"><ele>1042.2</ele></trkpt>
      <trkpt lat="-29.838103" lon="24.360458"><ele>1041.5</ele></trkpt>
      <trkpt lat="-29.838544" lon="24.360378"><ele>1041.1</ele></trkpt>
      <trkpt lat="-29.838987" lon="24.360305"><ele>1041.0</ele></trkpt>
      <trkpt lat="-29.839430" lon="24.360238"><ele>1041.2</ele></trkpt>
      <trkpt lat="-29.839874" lon="24.360180"><ele>1041.6</ele></trkpt>
      <trkpt lat="-29.840318" lon="24.360131"><ele>1042.2</ele></trkpt>
      <trkpt lat="-29.840761" lon="24.360090"><ele>1043.0</ele></trkpt>
      <trkpt lat="-29.841204" lon="24.360059"><ele>1044.1</ele></trkpt>
      <trkpt lat="-29.841645" lon="24.360038"><ele>1045.3</ele></trkpt>
      <trkpt lat="-29.842084" lon="24.360027"><ele>1046.7</ele></trkpt>
      <trkpt lat="-29.842522" lon="24.360027"><ele>1048.3</ele></trkpt>
      <trkpt lat="-29.842957" lon="24.360039"><ele>1049.9</ele></trkpt>
      <trkpt lat="-29.843390" lon="24.360061"><ele>1051.7</ele></trkpt>
      <trkpt lat="-29.843819" lon="24.360096"><ele>1053.5</ele></trkpt>
      <trkpt lat="-29.844245" lon="24.360142"><ele>1055.5</ele></trkpt>
      <trkpt lat="-29.844667" lon="24.360200"><ele>1057.4</ele></trkpt>
      <trkpt lat="-29.845085" lon="24.360270"><ele>1059.3</ele></trkpt>
      <trkpt lat="-29.845498" lon="24.360353"><ele>1061.3</ele></trkpt>
      <trkpt lat="-29.845907" lon="24.360448"><ele>1063.1</ele></trkpt>
      <trkpt lat="-29.846311" lon="24.360555"><ele>1065.0</ele></trkpt>
      <trkpt lat="-29.846710" lon="24.360675"><ele>1066.7</ele></trkpt>
      <trkpt lat="-29.847103" lon="24.360807"><ele>1068.4</ele></trkpt>
      <trkpt lat="-29.847491" lon="24.360951"><ele>1069.9</ele></trkpt>
      <trkpt lat="-29.847873" lon="24.361107"><ele>1071.3</ele></trkpt>
      <trkpt lat="-29.848248" lon="24.361274"><ele>1072.5</ele></trkpt>
      <trkpt lat="-29.848618" lon="24.361454"><ele>1073.6</ele></trkpt>
      <trkpt lat="-29.848982" lon="24.361645"><ele>1074.5</ele></trkpt>
      <trkpt lat="-29.849340" lon="24.361847"><ele>1075.2</ele></trkpt>
      <trkpt lat="-29.849691" lon="24.362060"><ele>1075.8</ele></trkpt>
      <trkpt lat="-29.850036" lon="24.362283"><ele>1076.1</ele></trkpt>
      <trkpt lat="-29.850374" lon="24.362517"><ele>1076.2</ele></trkpt>
      <trkpt lat="-29.850707" lon="24.362760"><ele>1076.2</ele></trkpt>
      <trkpt lat="-29.851033" lon="24.363013"><ele>1075.9</ele></trkpt>
      <trkpt lat="-29.851353" lon="24.363275"><ele>1075.5</ele></trkpt>
      <trkpt lat="-29.851667" lon="24.363546"><ele>1074.9</ele></trkpt>
      <trkpt lat="-29.851976" lon="24.363825"><ele>1074.1</ele></trkpt>
      <trkpt lat="-29.852279" lon="24.364111"><ele>1073.1</ele></trkpt>
      <trkpt lat="-29.852576" lon="24.364405"><ele>1071.9</ele></trkpt>
      <trkpt lat="-29.852869" lon="24.364705"><ele>1070.7</ele></trkpt>
      <trkpt lat="-29.853156" lon="24.365012"><ele>1069.3</ele></trkpt>
      <trkpt lat="-29.853439" lon="24.365324"><ele>1067.7</ele></trkpt>
      <trkpt lat="-29.853717" lon="24.365642"><ele>1066.1</ele></trkpt>
      <trkpt lat="-29.853992" lon="24.365964"><ele>1064.4</ele></trkpt>
      <trkpt lat="-29.854263" lon="24.366291"><ele>1062.6</ele></trkpt>
      <trkpt lat="-29.854530" lon="24.366621"><ele>1060.8</ele></trkpt>
      <trkpt lat="-29.854795" lon="24.366954"><ele>1058.9</ele></trkpt>
      <trkpt lat="-29.855058" lon="24.367290"><ele>1057.1</ele></trkpt>
      <trkpt lat="-29.855318" lon="24.367629"><ele>1055.2</ele></trkpt>
      <trkpt lat="-29.855577" lon="24.367969"><ele>1053.4</ele></trkpt>
      <trkpt lat="-29.855836" lon="24.368310"><ele>1051.6</ele></trkpt>
      <trkpt lat="-29.856093" lon="24.368652"><ele>1049.8</ele></trkpt>
      <trkpt lat="-29.856351" lon="24.368994"><ele>1048.2</ele></trkpt>
      <trkpt lat="-29.856609" lon="24.369336"><ele>1046.6</ele></trkpt>
      <trkpt lat="-29.856868" lon="24.369678"><ele>1045.1</ele></trkpt>
      <trkpt lat="-29.857129" lon="24.370019"><ele>1043.7</ele></trkpt>
      <trkpt lat="-29.857392" lon="24.370358"><ele>1042.4</ele></trkpt>
      <trkpt lat="-29.857658" lon="24.370696"><ele>1041.2</ele></trkpt>
      <trkpt lat="-29.857927" lon="24.371032"><ele>1040.2</ele></trkpt>
      <trkpt lat="-29.858200" lon="24.371365"><ele>1039.3</ele></trkpt>
      <trkpt lat="-29.858477" lon="24.371696"><ele>1038.5</ele></trkpt>
      <trkpt lat="-29.858759" lon="24.372024"><ele>1037.8</ele></trkpt>
      <trkpt lat="-29.859047" lon="24.372349"><ele>1037.3</ele></trkpt>
      <trkpt lat="-29.859340" lon="24.372671"><ele>1036.8</ele></trkpt>
      <trkpt lat="-29.859640" lon="24.372989"><ele>1036.5</ele></trkpt>
      <trkpt lat="-29.859948" lon="24.373304"><ele>1036.3</ele></trkpt>
      <trkpt lat="-29.860262" lon="24.373614"><ele>1036.2</ele></trkpt>
      <trkpt lat="-29.860585" lon="24.373922"><ele>1036.1</ele></trkpt>
      <trkpt lat="-29.860917" lon="24.374225"><ele>1036.1</ele></trkpt>
      <trkpt lat="-29.861257" lon="24.374524"><ele>1036.2</ele></trkpt>
      <trkpt lat="-29.861607" lon="24.374820"><ele>1036.3</ele></trkpt>
      <trkpt lat="-29.861967" lon="24.375111"><ele>1036.4</ele></trkpt>
      <trkpt lat="-29.862337" lon="24.375399"><ele>1036.5</ele></trkpt>
      <trkpt lat="-29.862717" lon="24.375683"><ele>1036.6</ele></trkpt>
      <trkpt lat="-29.863109" lon="24.375964"><ele>1036.7</ele></trkpt>
      <trkpt lat="-29.863512" lon="24.376241"><ele>1036.7</ele></trkpt>
      <trkpt lat="-29.863927" lon="24.376515"><ele>1036.6</ele></trkpt>
      <trkpt lat="-29.864353" lon="24.376786"><ele>1036.5</ele></trkpt>
      <trkpt lat="-29.864792" lon="24.377055"><ele>1036.2</ele></trkpt>
      <trkpt lat="-29.865242" lon="24.377320"><ele>1035.8</ele></trkpt>
      <trkpt lat="-29.865706" lon="24.377584"><ele>1035.3</ele></trkpt>
      <trkpt lat="-29.866181" lon="24.377845"><ele>1034.6</ele></trkpt>
      <trkpt lat="-29.866670" lon="24.378105"><ele>1033.7</ele></trkpt>
      <trkpt lat="-29.867171" lon="24.378364"><ele>1032.7</ele></trkpt>
      <trkpt lat="-29.867685" lon="24.378622"><ele>1031.5</ele></trkpt>
      <trkpt lat="-29.868211" lon="24.378879"><ele>1030.1</ele></trkpt>
      <trkpt lat="-29.868750" lon="24.379137"><ele>1028.4</ele></trkpt>
      <trkpt lat="-29.869301" lon="24.379394"><ele>1026.6</ele></trkpt>
      <trkpt lat="-29.869865" lon="24.379653"><ele>1024.6</ele></trkpt>
      <trkpt lat="-29.870441" lon="24.379912"><ele>1022.4</ele></trkpt>
      <trkpt lat="-29.871029" lon="24.380174"><ele>1019.9</ele></trkpt>
      <trkpt lat="-29.871629" lon="24.380437"><ele>1017.3</ele></trkpt>
      <trkpt lat="-29.872239" lon="24.380704"><ele>1014.5</ele></trkpt>
      <trkpt lat="-29.872861" lon="24.380973"><ele>1011.5</ele></trkpt>
      <trkpt lat="-29.873493" lon="24.381246"><ele>1008.3</ele></trkpt>
      <trkpt lat="-29.874136" lon="24.381523"><ele>1005.0</ele></trkpt>
      <trkpt lat="-29.874788" lon="24.381805"><ele>1001.5</ele></trkpt>
      <trkpt lat="-29.875449" lon="24.382092"><ele>997.9</ele></trkpt>
      <trkpt lat="-29.876119" lon="24.382384"><ele>994.2</ele></trkpt>
      <trkpt lat="-29.876797" lon="24.382682"><ele>990.4</ele></trkpt>
      <trkpt lat="-29.877482" lon="24.382987"><ele>986.6</ele></trkpt>
      <trkpt lat="-29.878174" lon="24.383299"><ele>982.7</ele></trkpt>
      <trkpt lat="-29.878871" lon="24.383618"><ele>978.8</ele></trkpt>
      <trkpt lat="-29.879575" lon="24.383945"><ele>974.9</ele></trkpt>
      <trkpt lat="-29.880282" lon="24.384281"><ele>971.1</ele></trkpt>
      <trkpt lat="-29.880994" lon="24.384625"><ele>967.3</ele></trkpt>
      <trkpt lat="-29.881708" lon="24.384978"><ele>963.6</ele></trkpt>
      <trkpt lat="-29.882424" lon="24.385341"><ele>960.0</ele></trkpt>
      <trkpt lat="-29.883142" lon="24.385713"><ele>956.5</ele></trkpt>
      <trkpt lat="-29.883860" lon="24.386096"><ele>953.2</ele></trkpt>
      <trkpt lat="-29.884577" lon="24.386489"><ele>950.0</ele></trkpt>
      <trkpt lat="-29.885293" lon="24.386892"><ele>947.1</ele></trkpt>
      <trkpt lat="-29.886006" lon="24.387307"><ele>944.4</ele></trkpt>
      <trkpt lat="-29.886716" lon="24.387733"><ele>941.8</ele></trkpt>
      <trkpt lat="-29.887422" lon="24.388170"><ele>939.6</ele></trkpt>
      <trkpt lat="-29.888122" lon="24.388619"><ele>937.6</ele></trkpt>
      <trkpt lat="-29.888816" lon="24.389079"><ele>935.9</ele></trkpt>
      <trkpt lat="-29.889503" lon="24.389552"><ele>934.5</ele></trkpt>
      <trkpt lat="-29.890181" lon="24.390036"><ele>933.3</ele></trkpt>
      <trkpt lat="-29.890850" lon="24.390532"><ele>932.5</ele></trkpt>
      <trkpt lat="-29.891509" lon="24.391041"><ele>932.0</ele></trkpt>
      <trkpt lat="-29.892156" lon="24.391561"><ele>931.7</ele></trkpt>
      <trkpt lat="-29.892791" lon="24.392093"><ele>931.8</ele></trkpt>
      <trkpt lat="-29.893413" lon="24.392637"><ele>932.2</ele></trkpt>
      <trkpt lat="-29.894021" lon="24.393193"><ele>932.9</ele></trkpt>
      <trkpt lat="-29.894613" lon="24.393760"><ele>933.8</ele></trkpt>
      <trkpt lat="-29.895189" lon="24.394339"><ele>935.0</ele></trkpt>
      <trkpt lat="-29.895748" lon="24.394929"><ele>936.5</ele></trkpt>
      <trkpt lat="-29.896290" lon="24.395530"><ele>938.3</ele></trkpt>
      <trkpt lat="-29.896812" lon="24.396142"><ele>940.2</ele></trkpt>
      <trkpt lat="-29.897315" lon="24.396765"><ele>942.4</ele></trkpt>
      <trkpt lat="-29.897797" lon="24.397397"><ele>944.8</ele></trkpt>
      <trkpt lat="-29.898258" lon="24.398039"><ele>947.4</ele></trkpt>
      <trkpt lat="-29.898697" lon="24.398691"><ele>950.1</ele></trkpt>
      <trkpt lat="-29.899114" lon="24.399352"><ele>953.0</ele></trkpt>
      <trkpt lat="-29.899507" lon="24.400021"><ele>956.0</ele></trkpt>
      <trkpt lat="-29.899875" lon="24.400698"><ele>959.0</ele></trkpt>
      <trkpt lat="-29.900219" lon="24.401384"><ele>962.2</ele></trkpt>
      <trkpt lat="-29.900538" lon="24.402076"><ele>965.4</ele></trkpt>
      <trkpt lat="-29.900831" lon="24.402774"><ele>968.6</ele></trkpt>
      <trkpt lat="-29.901097" lon="24.403479"><ele>971.9</ele></trkpt>
      <trkpt lat="-29.901337" lon="24.404190"><ele>975.1</ele></trkpt>
      <trkpt lat="-29.901550" lon="24.404905"><ele>978.3</ele></trkpt>
      <trkpt lat="-29.901734" lon="24.405625"><ele>981.5</ele></trkpt>
      <trkpt lat="-29.901891" lon="24.406348"><ele>984.7</ele></trkpt>
      <trkpt lat="-29.902020" lon="24.407075"><ele>987.7</ele></trkpt>
      <trkpt lat="-29.902121" lon="24.407804"><ele>990.7</ele></trkpt>
      <trkpt lat="-29.902192" lon="24.408535"><ele>993.6</ele></trkpt>
      <trkpt lat="-29.902236" lon="24.409267"><ele>996.3</ele></trkpt>
      <trkpt lat="-29.902250" lon="24.410000"><ele>999.0</ele></trkpt>
      <trkpt lat="-29.902236" lon="24.410733"><ele>1001.6</ele></trkpt>
      <trkpt lat="-29.902192" lon="24.411465"><ele>1004.0</ele></trkpt>
      <trkpt lat="-29.902121" lon="24.412196"><ele>1006.3</ele></trkpt>
      <trkpt lat="-29.902020" lon="24.412925"><ele>1008.6</ele></trkpt>
      <trkpt lat="-29.901891" lon="24.413652"><ele>1010.7</ele></trkpt>
      <trkpt lat="-29.901734" lon="24.414375"><ele>1012.7</ele></trkpt>
      <trkpt lat="-29.901550" lon="24.415095"><ele>1014.6</ele></trkpt>
      <trkpt lat="-29.901337" lon="24.415810"><ele>1016.4</ele></trkpt>
      <trkpt lat="-29.901097" lon="24.416521"><ele>1018.2</ele></trkpt>
      <trkpt lat="-29.900831" lon="24.417226"><ele>1019.9</ele></trkpt>
      <trkpt lat="-29.900538" lon="24.417924"><ele>1021.5</ele></trkpt>
      <trkpt lat="-29.900219" lon="24.418616"><ele>1023.1</ele></trkpt>
      <trkpt lat="-29.899875" lon="24.419302"><ele>1024.7</ele></trkpt>
      <trkpt lat="-29.899507" lon="24.419979"><ele>1026.2</ele></trkpt>
      <trkpt lat="-29.899114" lon="24.420648"><ele>1027.8</ele></trkpt>
      <trkpt lat="-29.898697" lon="24.421309"><ele>1029.4</ele></trkpt>
      <trkpt lat="-29.898258" lon="24.421961"><ele>1031.0</ele></trkpt>
      <trkpt lat="-29.897797" lon="24.422603"><ele>1032.7</ele></trkpt>
      <trkpt lat="-29.897315" lon="24.423235"><ele>1034.5</ele></trkpt>
      <trkpt lat="-29.896812" lon="24.423858"><ele>1036.3</ele></trkpt>
      <trkpt lat="-29.896290" lon="24.424470"><ele>1038.3</ele></trkpt>
      <trkpt lat="-29.895748" lon="24.425071"><ele>1040.3</ele></trkpt>
      <trkpt lat="-29.895189" lon="24.425661"><ele>1042.5</ele></trkpt>
      <trkpt lat="-29.894613" lon="24.426240"><ele>1044.8</ele></trkpt>
      <trkpt lat="-29.894021" lon="24.426807"><ele>1047.3</ele></trkpt>
      <trkpt lat="-29.893413" lon="24.427363"><ele>1049.9</ele></trkpt>
      <trkpt lat="-29.892791" lon="24.427907"><ele>1052.7</ele></trkpt>
      <trkpt lat="-29.892156" lon="24.428439"><ele>1055.6</ele></trkpt>
      <trkpt lat="-29.891509" lon="24.428959"><ele>1058.7</ele></trkpt>
      <trkpt lat="-29.890850" lon="24.429468"><ele>1061.9</ele></trkpt>
      <trkpt lat="-29.890181" lon="24.429964"><ele>1065.3</ele></trkpt>
      <trkpt lat="-29.889503" lon="24.430448"><ele>1068.9</ele></trkpt>
      <trkpt lat="-29.888816" lon="24.430921"><ele>1072.5</ele></trkpt>
      <trkpt lat="-29.888122" lon="24.431381"><ele>1076.3</ele></trkpt>
      <trkpt lat="-29.887422" lon="24.431830"><ele>1080.3</ele></trkpt>
      <trkpt lat="-29.886716" lon="24.432267"><ele>1084.3</ele></trkpt>
      <trkpt lat="-29.886006" lon="24.432693"><ele>1088.5</ele></trkpt>
      <trkpt lat="-29.885293" lon="24.433108"><ele>1092.7</ele></trkpt>
      <trkpt lat="-29.884577" lon="24.433511"><ele>1097.0</ele></trkpt>
      <trkpt lat="-29.883860" lon="24.433904"><ele>1101.3</ele></trkpt>
      <trkpt lat="-29.883142" lon="24.434287"><ele>1105.6</ele></trkpt>
      <trkpt lat="-29.882424" lon="24.434659"><ele>1110.0</ele></trkpt>
      <trkpt lat="-29.881708" lon="24.435022"><ele>1114.3</ele></trkpt>
      <trkpt lat="-29.880994" lon="24.435375"><ele>1118.6</ele></trkpt>
      <trkpt lat="-29.880282" lon="24.435719"><ele>1122.8</ele></trkpt>
      <trkpt lat="-29.879575" lon="24.436055"><ele>1126.9</ele></trkpt>
      <trkpt lat="-29.878871" lon="24.436382"><ele>1130.9</ele></trkpt>
      <trkpt lat="-29.878174" lon="24.436701"><ele>1134.8</ele></trkpt>
      <trkpt lat="-29.877482" lon="24.437013"><ele>1138.6</ele></trkpt>
      <trkpt lat="-29.876797" lon="24.437318"><ele>1142.1</ele></trkpt>
      <trkpt lat="-29.876119" lon="24.437616"><ele>1145.5</ele></trkpt>
      <trkpt lat="-29.875449" lon="24.437908"><ele>1148.6</ele></trkpt>
      <trkpt lat="-29.874788" lon="24.438195"><ele>1151.5</ele></trkpt>
      <trkpt lat="-29.874136" lon="24.438477"><ele>1154.2</ele></trkpt>
      <trkpt lat="-29.873493" lon="24.438754"><ele>1156.6</ele></trkpt>
      <trkpt lat="-29.872861" lon="24.439027"><ele>1158.8</ele></trkpt>
      <trkpt lat="-29.872239" lon="24.439296"><ele>1160.7</ele></trkpt>
      <trkpt lat="-29.871629" lon="24.439563"><ele>1162.3</ele></trkpt>
      <trkpt lat="-29.871029" lon="24.439826"><ele>1163.6</ele></trkpt>
      <trkpt lat="-29.870441" lon="24.440088"><ele>1164.6</ele></trkpt>
      <trkpt lat="-29.869865" lon="24.440347"><ele>1165.3</ele></trkpt>
      <trkpt lat="-29.869301" lon="24.440606"><ele>1165.8</ele></trkpt>
      <trkpt lat="-29.868750" lon="24.440863"><ele>1165.9</ele></trkpt>
      <trkpt lat="-29.868211" lon="24.441121"><ele>1165.8</ele></trkpt>
      <trkpt lat="-29.867685" lon="24.441378"><ele>1165.4</ele></trkpt>
      <trkpt lat="-29.867171" lon="24.441636"><ele>1164.7</ele></trkpt>
      <trkpt lat="-29.866670" lon="24.441895"><ele>1163.8</ele></trkpt>
      <trkpt lat="-29.866181" lon="24.442155"><ele>1162.7</ele></trkpt>
      <trkpt lat="-29.865706" lon="24.442416"><ele>1161.4</ele></trkpt>
      <trkpt lat="-29.865242" lon="24.442680"><ele>1159.8</ele></trkpt>
      <trkpt lat="-29.864792" lon="24.442945"><ele>1158.1</ele></trkpt>
      <trkpt lat="-29.864353" lon="24.443214"><ele>1156.3</ele></trkpt>
      <trkpt lat="-29.863927" lon="24.443485"><ele>1154.3</ele></trkpt>
      <trkpt lat="-29.863512" lon="24.443759"><ele>1152.2</ele></trkpt>
      <trkpt lat="-29.863109" lon="24.444036"><ele>1150.0</ele></trkpt>
      <trkpt lat="-29.862717" lon="24.444317"><ele>1147.8</ele></trkpt>
      <trkpt lat="-29.862337" lon="24.444601"><ele>1145.5</ele></trkpt>
      <trkpt lat="-29.861967" lon="24.444889"><ele>1143.2</ele></trkpt>
      <trkpt lat="-29.861607" lon="24.445180"><ele>1140.9</ele></trkpt>
      <trkpt lat="-29.861257" lon="24.445476"><ele>1138.6</ele></trkpt>
      <trkpt lat="-29.860917" lon="24.445775"><ele>1136.5</ele></trkpt>
      <trkpt lat="-29.860585" lon="24.446078"><ele>1134.3</ele></trkpt>
      <trkpt lat="-29.860262" lon="24.446386"><ele>1132.3</ele></trkpt>
      <trkpt lat="-29.859948" lon="24.446696"><ele>1130.4</ele></trkpt>
      <trkpt lat="-29.859640" lon="24.447011"><ele>1128.6</ele></trkpt>
      <trkpt lat="-29.859340" lon="24.447329"><ele>1127.0</ele></trkpt>
      <trkpt lat="-29.859047" lon="24.447651"><ele>1125.5</ele></trkpt>
      <trkpt lat="-29.858759" lon="24.447976"><ele>1124.2</ele></trkpt>
      <trkpt lat="-29.858477" lon="24.448304"><ele>1123.1</ele></trkpt>
      <trkpt lat="-29.858200" lon="24.448635"><ele>1122.1</ele></trkpt>
      <trkpt lat="-29.857927" lon="24.448968"><ele>1121.4</ele></trkpt>
      <trkpt lat="-29.857658" lon="24.449304"><ele>1120.8</ele></trkpt>
      <trkpt lat="-29.857392" lon="24.449642"><ele>1120.5</ele></trkpt>
      <trkpt lat="-29.857129" lon="24.449981"><ele>1120.3</ele></trkpt>
      <trkpt lat="-29.856868" lon="24.450322"><ele>1120.3</ele></trkpt>
      <trkpt lat="-29.856609" lon="24.450664"><ele>1120.5</ele></trkpt>
      <trkpt lat="-29.856351" lon="24.451006"><ele>1120.9</ele></trkpt>
      <trkpt lat="-29.856093" lon="24.451348"><ele>1121.5</ele></trkpt>
      <trkpt lat="-29.855836" lon="24.451690"><ele>1122.2</ele></trkpt>
      <trkpt lat="-29.855577" lon="24.452031"><ele>1123.0</ele></trkpt>
      <trkpt lat="-29.855318" lon="24.452371"><ele>1124.0</ele></trkpt>
      <trkpt lat="-29.855058" lon="24.452710"><ele>1125.1</ele></trkpt>
      <trkpt lat="-29.854795" lon="24.453046"><ele>1126.2</ele></trkpt>
      <trkpt lat="-29.854530" lon="24.453379"><ele>1127.5</ele></trkpt>
      <trkpt lat="-29.854263" lon="24.453709"><ele>1128.8</ele></trkpt>
      <trkpt lat="-29.853992" lon="24.454036"><ele>1130.2</ele></trkpt>
      <trkpt lat="-29.853717" lon="24.454358"><ele>1131.6</ele></trkpt>
      <trkpt lat="-29.853439" lon="24.454676"><ele>1133.0</ele></trkpt>
      <trkpt lat="-29.853156" lon="24.454988"><ele>1134.4</ele></trkpt>
      <trkpt lat="-29.852869" lon="24.455295"><ele>1135.7</ele></trkpt>
      <trkpt lat="-29.852576" lon="24.455595"><ele>1137.1</ele></trkpt>
      <trkpt lat="-29.852279" lon="24.455889"><ele>1138.3</ele></trkpt>
      <trkpt lat="-29.851976" lon="24.456175"><ele>1139.5</ele></trkpt>
      <trkpt lat="-29.851667" lon="24.456454"><ele>1140.6</ele></trkpt>
      <trkpt lat="-29.851353" lon="24.456725"><ele>1141.6</ele></trkpt>
      <trkpt lat="-29.851033" lon="24.456987"><ele>1142.5</ele></trkpt>
      <trkpt lat="-29.850707" lon="24.457240"><ele>1143.3</ele></trkpt>
      <trkpt lat="-29.850374" lon="24.457483"><ele>1143.9</ele></trkpt>
      <trkpt lat="-29.850036" lon="24.457717"><ele>1144.4</ele></trkpt>
      <trkpt lat="-29.849691" lon="24.457940"><ele>1144.8</ele></trkpt>
      <trkpt lat="-29.849340" lon="24.458153"><ele>1145.1</ele></trkpt>
      <trkpt lat="-29.848982" lon="24.458355"><ele>1145.2</ele></trkpt>
      <trkpt lat="-29.848618" lon="24.458546"><ele>1145.2</ele></trkpt>
      <trkpt lat="-29.848248" lon="24.458726"><ele>1145.1</ele></trkpt>
      <trkpt lat="-29.847873" lon="24.458893"><ele>1144.8</ele></trkpt>
      <trkpt lat="-29.847491" lon="24.459049"><ele>1144.5</ele></trkpt>
      <trkpt lat="-29.847103" lon="24.459193"><ele>1144.0</ele></trkpt>
      <trkpt lat="-29.846710" lon="24.459325"><ele>1143.5</ele></trkpt>
      <trkpt lat="-29.846311" lon="24.459445"><ele>1142.9</ele></trkpt>
      <trkpt lat="-29.845907" lon="24.459552"><ele>1142.2</ele></trkpt>
      <trkpt lat="-29.845498" lon="24.459647"><ele>1141.5</ele></trkpt>
      <trkpt lat="-29.845085" lon="24.459730"><ele>1140.8</ele></trkpt>
      <trkpt lat="-29.844667" lon="24.459800"><ele>1140.0</ele></trkpt>
      <trkpt lat="-29.844245" lon="24.459858"><ele>1139.3</ele></trkpt>
      <trkpt lat="-29.843819" lon="24.459904"><ele>1138.6</ele></trkpt>
      <trkpt lat="-29.843390" lon="24.459939"><ele>1137.9</ele></trkpt>
      <trkpt lat="-29.842957" lon="24.459961"><ele>1137.3</ele></trkpt>
      <trkpt lat="-29.842522" lon="24.459973"><ele>1136.8</ele></trkpt>
      <trkpt lat="-29.842084" lon="24.459973"><ele>1136.4</ele></trkpt>
      <trkpt lat="-29.841645" lon="24.459962"><ele>1136.1</ele></trkpt>
      <trkpt lat="-29.841204" lon="24.459941"><ele>1135.9</ele></trkpt>
      <trkpt lat="-29.840761" lon="24.459910"><ele>1135.9</ele></trkpt>
      <trkpt lat="-29.840318" lon="24.459869"><ele>1136.1</ele></trkpt>
      <trkpt lat="-29.839874" lon="24.459820"><ele>1136.4</ele></trkpt>
      <trkpt lat="-29.839430" lon="24.459762"><ele>1136.8</ele></trkpt>
      <trkpt lat="-29.838987" lon="24.459695"><ele>1137.5</ele></trkpt>
      <trkpt lat="-29.838544" lon="24.459622"><ele>1138.4</ele></trkpt>
      <trkpt lat="-29.838103" lon="24.459542"><ele>1139.4</ele></trkpt>
      <trkpt lat="-29.837663" lon="24.459455"><ele>1140.7</ele></trkpt>
      <trkpt lat="-29.837225" lon="24.459363"><ele>1142.1</ele></trkpt>
      <trkpt lat="-29.836789" lon="24.459267"><ele>1143.8</ele></trkpt>
      <trkpt lat="-29.836357" lon="24.459167"><ele>1145.6</ele></trkpt>
      <trkpt lat="-29.835927" lon="24.459063"><ele>1147.6</ele></trkpt>
      <trkpt lat="-29.835500" lon="24.458957"><ele>1149.8</ele></trkpt>
      <trkpt lat="-29.835078" lon="24.458850"><ele>1152.1</ele></trkpt>
      <trkpt lat="-29.834659" lon="24.458741"><ele>1154.6</ele></trkpt>
      <trkpt lat="-29.834245" lon="24.458633"><ele>1157.2</ele></trkpt>
      <trkpt lat="-29.833836" lon="24.458526"><ele>1160.0</ele></trkpt>
      <trkpt lat="-29.833431" lon="24.458421"><ele>1162.8</ele></trkpt>
      <trkpt lat="-29.833032" lon="24.458319"><ele>1165.7</ele></trkpt>
      <trkpt lat="-29.832638" lon="24.458221"><ele>1168.6</ele></trkpt>
      <trkpt lat="-29.832250" lon="24.458127"><ele>1171.6</ele></trkpt>
      <trkpt lat="-29.831867" lon="24.458038"><ele>1174.6</ele></trkpt>
      <trkpt lat="-29.831491" lon="24.457957"><ele>1177.6</ele></trkpt>
      <trkpt lat="-29.831121" lon="24.457882"><ele>1180.6</ele></trkpt>
      <trkpt lat="-29.830757" lon="24.457816"><ele>1183.5</ele></trkpt>
      <trkpt lat="-29.830399" lon="24.457759"><ele>1186.3</ele></trkpt>
      <trkpt lat="-29.830048" lon="24.457712"><ele>1188.9</ele></trkpt>
      <trkpt lat="-29.829703" lon="24.457677"><ele>1191.5</ele></trkpt>
      <trkpt lat="-29.829365" lon="24.457653"><ele>1193.9</ele></trkpt>
      <trkpt lat="-29.829033" lon="24.457642"><ele>1196.1</ele></trkpt>
      <trkpt lat="-29.828708" lon="24.457644"><ele>1198.1</ele></trkpt>
      <trkpt lat="-29.828389" lon="24.457661"><ele>1199.9</ele></trkpt>
      <trkpt lat="-29.828076" lon="24.457693"><ele>1201.5</ele></trkpt>
      <trkpt lat="-29.827770" lon="24.457741"><ele>1202.8</ele></trkpt>
      <trkpt lat="-29.827470" lon="24.457806"><ele>1203.9</ele></trkpt>
      <trkpt lat="-29.827175" lon="24.457888"><ele>1204.7</ele></trkpt>
      <trkpt lat="-29.826886" lon="24.457989"><ele>1205.2</ele></trkpt>
      <trkpt lat="-29.826603" lon="24.458108"><ele>1205.4</ele></trkpt>
      <trkpt lat="-29.826325" lon="24.458247"><ele>1205.3</ele></trkpt>
      <trkpt lat="-29.826052" lon="24.458405"><ele>1204.9</ele></trkpt>
      <trkpt lat="-29.825783" lon="24.458584"><ele>1204.2</ele></trkpt>
      <trkpt lat="-29.825519" lon="24.458784"><ele>1203.2</ele></trkpt>
      <trkpt lat="-29.825260" lon="24.459005"><ele>1201.9</ele></trkpt>
      <trkpt lat="-29.825004" lon="24.459249"><ele>1200.3</ele></trkpt>
      <trkpt lat="-29.824751" lon="24.459514"><ele>1198.5</ele></trkpt>
      <trkpt lat="-29.824501" lon="24.459802"><ele>1196.3</ele></trkpt>
      <trkpt lat="-29.824254" lon="24.460112"><ele>1194.0</ele></trkpt>
      <trkpt lat="-29.824009" lon="24.460445"><ele>1191.3</ele></trkpt>
      <trkpt lat="-29.823766" lon="24.460802"><ele>1188.5</ele></trkpt>
      <trkpt lat="-29.823525" lon="24.461181"><ele>1185.4</ele></trkpt>
      <trkpt lat="-29.823284" lon="24.461584"><ele>1182.2</ele></trkpt>
      <trkpt lat="-29.823044" lon="24.462010"><ele>1178.8</ele></trkpt>
      <trkpt lat="-29.822804" lon="24.462458"><ele>1175.2</ele></trkpt>
      <trkpt lat="-29.822563" lon="24.462930"><ele>1171.5</ele></trkpt>
      <trkpt lat="-29.822322" lon="24.463425"><ele>1167.7</ele></trkpt>
      <trkpt lat="-29.822079" lon="24.463942"><ele>1163.8</ele></trkpt>
      <trkpt lat="-29.821834" lon="24.464481"><ele>1159.9</ele></trkpt>
      <trkpt lat="-29.821587" lon="24.465042"><ele>1155.9</ele></trkpt>
      <trkpt lat="-29.821337" lon="24.465624"><ele>1151.9</ele></trkpt>
      <trkpt lat="-29.821084" lon="24.466228"><ele>1147.9</ele></trkpt>
      <trkpt lat="-29.820827" lon="24.466852"><ele>1144.0</ele></trkpt>
      <trkpt lat="-29.820566" lon="24.467496"><ele>1140.0</ele></trkpt>
      <trkpt lat="-29.820300" lon="24.468159"><ele>1136.2</ele></trkpt>
      <trkpt lat="-29.820029" lon="24.468841"><ele>1132.4</ele></trkpt>
      <trkpt lat="-29.819753" lon="24.469541"><ele>1128.7</ele></trkpt>
      <trkpt lat="-29.819471" lon="24.470258"><ele>1125.0</ele></trkpt>
      <trkpt lat="-29.819182" lon="24.470992"><ele>1121.5</ele></trkpt>
      <trkpt lat="-29.818887" lon="24.471741"><ele>1118.2</ele></trkpt>
      <trkpt lat="-29.818584" lon="24.472504"><ele>1114.9</ele></trkpt>
      <trkpt lat="-29.818274" lon="24.473282"><ele>1111.8</ele></trkpt>
      <trkpt lat="-29.817956" lon="24.474072"><ele>1108.8</ele></trkpt>
      <trkpt lat="-29.817630" lon="24.474873"><ele>1105.9</ele></trkpt>
      <trkpt lat="-29.817296" lon="24.475686"><ele>1103.2</ele></trkpt>
      <trkpt lat="-29.816953" lon="24.476508"><ele>1100.6</ele></trkpt>
      <trkpt lat="-29.816601" lon="24.477338"><ele>1098.2</ele></trkpt>
      <trkpt lat="-29.816240" lon="24.478176"><ele>1095.8</ele></trkpt>
      <trkpt lat="-29.815869" lon="24.479020"><ele>1093.6</ele></trkpt>
      <trkpt lat="-29.815489" lon="24.479869"><ele>1091.5</ele></trkpt>
      <trkpt lat="-29.815099" lon="24.480722"><ele>1089.4</ele></trkpt>
      <trkpt lat="-29.814699" lon="24.481577"><ele>1087.4</ele></trkpt>
      <trkpt lat="-29.814290" lon="24.482434"><ele>1085.5</ele></trkpt>
      <trkpt lat="-29.813870" lon="24.483291"><ele>1083.7</ele></trkpt>
      <trkpt lat="-29.813440" lon="24.484147"><ele>1081.8</ele></trkpt>
      <trkpt lat="-29.813000" lon="24.485000"><ele>1080.0</ele></trkpt>
    </trkseg>
  </trk>
</gpx>
