<?xml version="1.0" encoding="UTF-8"?>
<gpx creator="StravaGPX" version="1.1" xmlns="http://www.topografix.com/GPX/1/1" xmlns:xsi="http://www.w3.org/2001/XMLSchema-instance" xsi:schemaLocation="http://www.topografix.com/GPX/1/1 http://www.topografix.com/GPX/1/1/gpx.xsd">
 <metadata>
  <name>ligloop dag 2</name>
  <author>
   <name>Hennie Smit</name>
   <link href="https://www.strava.com/athletes/19289146"/>
  </author>
  <copyright author="OpenStreetMap contributors">
   <year>2020</year>
   <license>https://www.openstreetmap.org/copyright</license>
  </copyright>
  <link href="https://www.strava.com/routes/3281720238726309030"/>
 </metadata>
 <trk>
  <name>ligloop dag 2</name>
  <link href="https://www.strava.com/routes/3281720238726309030"/>
  <type>running</type>
  <trkseg>
   <trkpt lat="-29.807840000000002" lon="24.418640000000003">
    <ele>1101.8000000000002</ele>
   </trkpt>
   <trkpt lat="-29.80833" lon="24.418650000000003">
    <ele>1102.75</ele>
   </trkpt>
   <trkpt lat="-29.808560000000003" lon="24.418680000000002">
    <ele>1105.04</ele>
   </trkpt>
   <trkpt lat="-29.80863" lon="24.41879">
    <ele>1104.5800000000002</ele>
   </trkpt>
   <trkpt lat="-29.808670000000003" lon="24.4189">
    <ele>1104.15</ele>
   </trkpt>
   <trkpt lat="-29.8087" lon="24.419040000000003">
    <ele>1103.38</ele>
   </trkpt>
   <trkpt lat="-29.808650000000004" lon="24.41918">
    <ele>1102.65</ele>
   </trkpt>
   <trkpt lat="-29.808560000000003" lon="24.419300000000003">
    <ele>1101.7100000000003</ele>
   </trkpt>
   <trkpt lat="-29.808460000000004" lon="24.41938">
    <ele>1101.6200000000001</ele>
   </trkpt>
   <trkpt lat="-29.807904999947848" lon="24.41935999988708">
    <ele>1103.9800000000002</ele>
   </trkpt>
   <trkpt lat="-29.807350000000003" lon="24.419340000000002">
    <ele>1102.84</ele>
   </trkpt>
   <trkpt lat="-29.8073" lon="24.419480000000004">
    <ele>1102.64</ele>
   </trkpt>
   <trkpt lat="-29.807360000000003" lon="24.41964">
    <ele>1104.26</ele>
   </trkpt>
   <trkpt lat="-29.807900000000004" lon="24.419620000000002">
    <ele>1104.51</ele>
   </trkpt>
   <trkpt lat="-29.80844" lon="24.41965">
    <ele>1102.14</ele>
   </trkpt>
   <trkpt lat="-29.80891" lon="24.419610000000002">
    <ele>1103.73</ele>
   </trkpt>
   <trkpt lat="-29.80901" lon="24.419600000000003">
    <ele>1106.94</ele>
   </trkpt>
   <trkpt lat="-29.809050000000003" lon="24.41956">
    <ele>1106.94</ele>
   </trkpt>
   <trkpt lat="-29.809070000000002" lon="24.41926">
    <ele>1106.8200000000002</ele>
   </trkpt>
   <trkpt lat="-29.80918" lon="24.418870000000002">
    <ele>1106.92</ele>
   </trkpt>
   <trkpt lat="-29.80917" lon="24.41888">
    <ele>1103.91</ele>
   </trkpt>
   <trkpt lat="-29.80946" lon="24.41844">
    <ele>1107.15</ele>
   </trkpt>
   <trkpt lat="-29.809956669537836" lon="24.417820006186865">
    <ele>1107.94</ele>
   </trkpt>
   <trkpt lat="-29.810453336181787" lon="24.417200006215307">
    <ele>1110.53</ele>
   </trkpt>
   <trkpt lat="-29.810950000000002" lon="24.416580000000003">
    <ele>1111.39</ele>
   </trkpt>
   <trkpt lat="-29.81031500172932" lon="24.415904995728994">
    <ele>1109.1100000000001</ele>
   </trkpt>
   <trkpt lat="-29.809680000000004" lon="24.41523">
    <ele>1107.1000000000001</ele>
   </trkpt>
   <trkpt lat="-29.809113336957246" lon="24.41592334118439">
    <ele>1102.71</ele>
   </trkpt>
   <trkpt lat="-29.808546670295524" lon="24.41661667451155">
    <ele>1102.0700000000002</ele>
   </trkpt>
   <trkpt lat="-29.807980000000004" lon="24.41731">
    <ele>1103.6200000000001</ele>
   </trkpt>
   <trkpt lat="-29.807540000000003" lon="24.416880000000003">
    <ele>1100.18</ele>
   </trkpt>
   <trkpt lat="-29.806950000000004" lon="24.416290000000004">
    <ele>1099.91</ele>
   </trkpt>
   <trkpt lat="-29.806910000000002" lon="24.416110000000003">
    <ele>1099.46</ele>
   </trkpt>
   <trkpt lat="-29.80684" lon="24.41609">
    <ele>1099.46</ele>
   </trkpt>
   <trkpt lat="-29.806770000000004" lon="24.41609">
    <ele>1099.46</ele>
   </trkpt>
   <trkpt lat="-29.80618" lon="24.415470000000003">
    <ele>1097.3200000000002</ele>
   </trkpt>
   <trkpt lat="-29.80617" lon="24.41543">
    <ele>1097.29</ele>
   </trkpt>
   <trkpt lat="-29.805604296964628" lon="24.41613573822974">
    <ele>1096.6299999999999</ele>
   </trkpt>
   <trkpt lat="-29.80503859018" lon="24.41684146847644">
    <ele>1096.03</ele>
   </trkpt>
   <trkpt lat="-29.804472879646234" lon="24.41754719074032">
    <ele>1095.4400000000003</ele>
   </trkpt>
   <trkpt lat="-29.803907165363466" lon="24.4182529050216">
    <ele>1095.0000000000002</ele>
   </trkpt>
   <trkpt lat="-29.803341447331817" lon="24.4189586113205">
    <ele>1094.54</ele>
   </trkpt>
   <trkpt lat="-29.802775725551424" lon="24.41966430963724">
    <ele>1093.5700000000002</ele>
   </trkpt>
   <trkpt lat="-29.802210000000002" lon="24.420370000000002">
    <ele>1093.01</ele>
   </trkpt>
   <trkpt lat="-29.802200000000003" lon="24.42039">
    <ele>1092.09</ele>
   </trkpt>
   <trkpt lat="-29.801720000976708" lon="24.420890002361812">
    <ele>1090.03</ele>
   </trkpt>
   <trkpt lat="-29.801240000000004" lon="24.421390000000002">
    <ele>1088.74</ele>
   </trkpt>
   <trkpt lat="-29.800595001964986" lon="24.420684995557874">
    <ele>1092.14</ele>
   </trkpt>
   <trkpt lat="-29.799950000000003" lon="24.419980000000002">
    <ele>1095.0000000000002</ele>
   </trkpt>
   <trkpt lat="-29.799640000000004" lon="24.419900000000002">
    <ele>1094.81</ele>
   </trkpt>
   <trkpt lat="-29.799350000000004" lon="24.419420000000002">
    <ele>1093.89</ele>
   </trkpt>
   <trkpt lat="-29.79886" lon="24.418950000000002">
    <ele>1093.16</ele>
   </trkpt>
   <trkpt lat="-29.798406669978224" lon="24.41828666065517">
    <ele>1092.75</ele>
   </trkpt>
   <trkpt lat="-29.797953336644625" lon="24.417623327321536">
    <ele>1092.3700000000001</ele>
   </trkpt>
   <trkpt lat="-29.797500000000003" lon="24.416960000000003">
    <ele>1095.1000000000001</ele>
   </trkpt>
   <trkpt lat="-29.79707" lon="24.416490000000003">
    <ele>1093.02</ele>
   </trkpt>
   <trkpt lat="-29.796735000676573" lon="24.41608999874968">
    <ele>1094.21</ele>
   </trkpt>
   <trkpt lat="-29.796400000000002" lon="24.41569">
    <ele>1093.0600000000002</ele>
   </trkpt>
   <trkpt lat="-29.79595000158708" lon="24.415034997014406">
    <ele>1092.26</ele>
   </trkpt>
   <trkpt lat="-29.795500000000004" lon="24.41438">
    <ele>1091.0900000000001</ele>
   </trkpt>
   <trkpt lat="-29.795070002267856" lon="24.413599996608998">
    <ele>1092.03</ele>
   </trkpt>
   <trkpt lat="-29.79464" lon="24.412820000000004">
    <ele>1092.91</ele>
   </trkpt>
   <trkpt lat="-29.794100000000004" lon="24.412090000000003">
    <ele>1092.94</ele>
   </trkpt>
   <trkpt lat="-29.79363500030393" lon="24.411779998521048">
    <ele>1095.7100000000003</ele>
   </trkpt>
   <trkpt lat="-29.793170000000003" lon="24.41147">
    <ele>1091.75</ele>
   </trkpt>
   <trkpt lat="-29.79266" lon="24.41103">
    <ele>1093.07</ele>
   </trkpt>
   <trkpt lat="-29.79229" lon="24.410390000000003">
    <ele>1092.99</ele>
   </trkpt>
   <trkpt lat="-29.79201" lon="24.40943">
    <ele>1093.07</ele>
   </trkpt>
   <trkpt lat="-29.791955001775996" lon="24.408739999426583">
    <ele>1093.93</ele>
   </trkpt>
   <trkpt lat="-29.791900000000002" lon="24.408050000000003">
    <ele>1093.89</ele>
   </trkpt>
   <trkpt lat="-29.791610000000002" lon="24.407750000000004">
    <ele>1096.12</ele>
   </trkpt>
   <trkpt lat="-29.79109319977083" lon="24.408536388875262">
    <ele>1091.94</ele>
   </trkpt>
   <trkpt lat="-29.790576394887896" lon="24.409322769628922">
    <ele>1090.23</ele>
   </trkpt>
   <trkpt lat="-29.790059585351347" lon="24.410109142261156">
    <ele>1077.8300000000002</ele>
   </trkpt>
   <trkpt lat="-29.789542771161322" lon="24.410895506772146">
    <ele>1077.8100000000002</ele>
   </trkpt>
   <trkpt lat="-29.789025952317967" lon="24.41168186316207">
    <ele>1089.7100000000003</ele>
   </trkpt>
   <trkpt lat="-29.788509128821428" lon="24.412468211431115">
    <ele>1091.55</ele>
   </trkpt>
   <trkpt lat="-29.78799230067185" lon="24.41325455157946">
    <ele>1093.3300000000002</ele>
   </trkpt>
   <trkpt lat="-29.78747546786939" lon="24.41404088360728">
    <ele>1090.99</ele>
   </trkpt>
   <trkpt lat="-29.78695863041418" lon="24.41482720751476">
    <ele>1093.9500000000003</ele>
   </trkpt>
   <trkpt lat="-29.786441788306373" lon="24.41561352330209">
    <ele>1092.7</ele>
   </trkpt>
   <trkpt lat="-29.785924941546103" lon="24.416399830969432">
    <ele>1093.9800000000002</ele>
   </trkpt>
   <trkpt lat="-29.785408090133526" lon="24.417186130516978">
    <ele>1092.97</ele>
   </trkpt>
   <trkpt lat="-29.784891234068787" lon="24.417972421944906">
    <ele>1093.07</ele>
   </trkpt>
   <trkpt lat="-29.784374373352023" lon="24.418758705253396">
    <ele>1096.0400000000002</ele>
   </trkpt>
   <trkpt lat="-29.783857507983388" lon="24.41954498044263">
    <ele>1097.1399999999999</ele>
   </trkpt>
   <trkpt lat="-29.783340637963025" lon="24.420331247512785">
    <ele>1096.33</ele>
   </trkpt>
   <trkpt lat="-29.78282376329108" lon="24.42111750646405">
    <ele>1099.8300000000002</ele>
   </trkpt>
   <trkpt lat="-29.782306883967696" lon="24.421903757296597">
    <ele>1096.0700000000002</ele>
   </trkpt>
   <trkpt lat="-29.78179" lon="24.422690000000003">
    <ele>1098.74</ele>
   </trkpt>
   <trkpt lat="-29.781930000000003" lon="24.42283">
    <ele>1098.3</ele>
   </trkpt>
   <trkpt lat="-29.782490000000003" lon="24.4233">
    <ele>1099.72</ele>
   </trkpt>
   <trkpt lat="-29.783190002473216" lon="24.42387665857848">
    <ele>1101.3600000000001</ele>
   </trkpt>
   <trkpt lat="-29.783890002444316" lon="24.424453325221204">
    <ele>1103.04</ele>
   </trkpt>
   <trkpt lat="-29.78459" lon="24.425030000000003">
    <ele>1103.95</ele>
   </trkpt>
   <trkpt lat="-29.785273335851528" lon="24.42561332533324">
    <ele>1105.0900000000001</ele>
   </trkpt>
   <trkpt lat="-29.785956669142646" lon="24.426196658630403">
    <ele>1105.78</ele>
   </trkpt>
   <trkpt lat="-29.786640000000002" lon="24.42678">
    <ele>1106.99</ele>
   </trkpt>
   <trkpt lat="-29.787140001241877" lon="24.427193329167817">
    <ele>1108.03</ele>
   </trkpt>
   <trkpt lat="-29.78764000119819" lon="24.42760666246499">
    <ele>1109.51</ele>
   </trkpt>
   <trkpt lat="-29.788140000000002" lon="24.428020000000004">
    <ele>1111.0600000000002</ele>
   </trkpt>
   <trkpt lat="-29.788770000000003" lon="24.428630000000002">
    <ele>1113.04</ele>
   </trkpt>
   <trkpt lat="-29.789445001147424" lon="24.429174996348532">
    <ele>1114.3899999999999</ele>
   </trkpt>
   <trkpt lat="-29.79012" lon="24.429720000000003">
    <ele>1118.05</ele>
   </trkpt>
   <trkpt lat="-29.79052" lon="24.42998">
    <ele>1117.8400000000001</ele>
   </trkpt>
   <trkpt lat="-29.79079" lon="24.43014">
    <ele>1119.13</ele>
   </trkpt>
   <trkpt lat="-29.791140000000002" lon="24.430020000000003">
    <ele>1115.7400000000002</ele>
   </trkpt>
   <trkpt lat="-29.791560000000004" lon="24.429620000000003">
    <ele>1114.3</ele>
   </trkpt>
   <trkpt lat="-29.791980000000002" lon="24.42911">
    <ele>1110.89</ele>
   </trkpt>
   <trkpt lat="-29.792520000000003" lon="24.428590000000003">
    <ele>1112.16</ele>
   </trkpt>
   <trkpt lat="-29.793120000000002" lon="24.42819">
    <ele>1109.96</ele>
   </trkpt>
   <trkpt lat="-29.793730000000004" lon="24.427940000000003">
    <ele>1107.8300000000002</ele>
   </trkpt>
   <trkpt lat="-29.794610000000002" lon="24.4278">
    <ele>1106.44</ele>
   </trkpt>
   <trkpt lat="-29.795350000013716" lon="24.427705000705156">
    <ele>1101.69</ele>
   </trkpt>
   <trkpt lat="-29.796090000000003" lon="24.42761">
    <ele>1100.5800000000002</ele>
   </trkpt>
   <trkpt lat="-29.796605000069636" lon="24.427754999251015">
    <ele>1098.0400000000002</ele>
   </trkpt>
   <trkpt lat="-29.797120000000003" lon="24.4279">
    <ele>1096.5800000000002</ele>
   </trkpt>
   <trkpt lat="-29.797790000000003" lon="24.42817">
    <ele>1098.68</ele>
   </trkpt>
   <trkpt lat="-29.798520000000003" lon="24.428230000000003">
    <ele>1095.65</ele>
   </trkpt>
   <trkpt lat="-29.79876" lon="24.42854">
    <ele>1098.97</ele>
   </trkpt>
   <trkpt lat="-29.799120000000002" lon="24.42867">
    <ele>1094.97</ele>
   </trkpt>
   <trkpt lat="-29.799270000000003" lon="24.428800000000003">
    <ele>1096.0800000000002</ele>
   </trkpt>
   <trkpt lat="-29.799380000000003" lon="24.428960000000004">
    <ele>1095.58</ele>
   </trkpt>
   <trkpt lat="-29.799480000000003" lon="24.429160000000003">
    <ele>1096.47</ele>
   </trkpt>
   <trkpt lat="-29.799590000000002" lon="24.429430000000004">
    <ele>1098.16</ele>
   </trkpt>
   <trkpt lat="-29.799680000000002" lon="24.42958">
    <ele>1098.73</ele>
   </trkpt>
   <trkpt lat="-29.799760000000003" lon="24.429620000000003">
    <ele>1098.18</ele>
   </trkpt>
   <trkpt lat="-29.799920000000004" lon="24.4296">
    <ele>1096.8999999999999</ele>
   </trkpt>
   <trkpt lat="-29.80007" lon="24.429550000000003">
    <ele>1097.05</ele>
   </trkpt>
   <trkpt lat="-29.80018" lon="24.429470000000002">
    <ele>1096.8600000000001</ele>
   </trkpt>
   <trkpt lat="-29.800570000000004" lon="24.429190000000002">
    <ele>1094.2</ele>
   </trkpt>
   <trkpt lat="-29.800660000000004" lon="24.42901">
    <ele>1093.88</ele>
   </trkpt>
   <trkpt lat="-29.800620000000002" lon="24.42875">
    <ele>1092.6</ele>
   </trkpt>
   <trkpt lat="-29.800520000000002" lon="24.428600000000003">
    <ele>1091.89</ele>
   </trkpt>
   <trkpt lat="-29.800430000000002" lon="24.428510000000003">
    <ele>1091.96</ele>
   </trkpt>
   <trkpt lat="-29.800200000000004" lon="24.428440000000002">
    <ele>1092.0400000000002</ele>
   </trkpt>
   <trkpt lat="-29.799780000000002" lon="24.42836">
    <ele>1092.77</ele>
   </trkpt>
   <trkpt lat="-29.79934" lon="24.428490000000004">
    <ele>1095.9800000000002</ele>
   </trkpt>
   <trkpt lat="-29.799170000000004" lon="24.42855">
    <ele>1094.8300000000002</ele>
   </trkpt>
   <trkpt lat="-29.799010000000003" lon="24.428580000000004">
    <ele>1095.3700000000001</ele>
   </trkpt>
   <trkpt lat="-29.798790000000004" lon="24.428500000000003">
    <ele>1098.0800000000002</ele>
   </trkpt>
   <trkpt lat="-29.79866" lon="24.428340000000002">
    <ele>1096.74</ele>
   </trkpt>
   <trkpt lat="-29.798630000000003" lon="24.42817">
    <ele>1094.75</ele>
   </trkpt>
   <trkpt lat="-29.798430000000003" lon="24.428120000000003">
    <ele>1095.5600000000002</ele>
   </trkpt>
   <trkpt lat="-29.798040000000004" lon="24.428140000000003">
    <ele>1098.0800000000002</ele>
   </trkpt>
   <trkpt lat="-29.797780000000003" lon="24.428060000000002">
    <ele>1097.52</ele>
   </trkpt>
   <trkpt lat="-29.797390000000004" lon="24.427940000000003">
    <ele>1095.72</ele>
   </trkpt>
   <trkpt lat="-29.79708" lon="24.427840000000003">
    <ele>1097.3000000000002</ele>
   </trkpt>
   <trkpt lat="-29.796660000000003" lon="24.4277">
    <ele>1098.0400000000002</ele>
   </trkpt>
   <trkpt lat="-29.796270000000003" lon="24.42761">
    <ele>1099.1000000000001</ele>
   </trkpt>
   <trkpt lat="-29.79605" lon="24.42754">
    <ele>1100.4900000000002</ele>
   </trkpt>
   <trkpt lat="-29.795370000000002" lon="24.427590000000002">
    <ele>1101.17</ele>
   </trkpt>
   <trkpt lat="-29.79464" lon="24.427750000000003">
    <ele>1105.4</ele>
   </trkpt>
   <trkpt lat="-29.79418000001276" lon="24.42783000036972">
    <ele>1105.7400000000002</ele>
   </trkpt>
   <trkpt lat="-29.793720000000004" lon="24.42791">
    <ele>1107.07</ele>
   </trkpt>
   <trkpt lat="-29.79314" lon="24.428220000000003">
    <ele>1109.96</ele>
   </trkpt>
   <trkpt lat="-29.792530000000003" lon="24.42864">
    <ele>1112.3200000000002</ele>
   </trkpt>
   <trkpt lat="-29.79202" lon="24.429160000000003">
    <ele>1111.48</ele>
   </trkpt>
   <trkpt lat="-29.791600000000003" lon="24.429650000000002">
    <ele>1114.72</ele>
   </trkpt>
   <trkpt lat="-29.79116" lon="24.43006">
    <ele>1115.8000000000002</ele>
   </trkpt>
   <trkpt lat="-29.7908" lon="24.430180000000004">
    <ele>1119.0800000000002</ele>
   </trkpt>
   <trkpt lat="-29.79052" lon="24.429940000000002">
    <ele>1117.8300000000002</ele>
   </trkpt>
   <trkpt lat="-29.790070000000004" lon="24.429630000000003">
    <ele>1117.71</ele>
   </trkpt>
   <trkpt lat="-29.79005" lon="24.429660000000002">
    <ele>1117.5900000000001</ele>
   </trkpt>
   <trkpt lat="-29.789410001019537" lon="24.429144996724244">
    <ele>1113.99</ele>
   </trkpt>
   <trkpt lat="-29.788770000000003" lon="24.428630000000002">
    <ele>1113.04</ele>
   </trkpt>
   <trkpt lat="-29.788140000000002" lon="24.428020000000004">
    <ele>1111.0600000000002</ele>
   </trkpt>
   <trkpt lat="-29.787640001329304" lon="24.427606662573375">
    <ele>1109.51</ele>
   </trkpt>
   <trkpt lat="-29.787140001373004" lon="24.427193329276204">
    <ele>1108.03</ele>
   </trkpt>
   <trkpt lat="-29.786640000000002" lon="24.42678">
    <ele>1106.99</ele>
   </trkpt>
   <trkpt lat="-29.785956669269407" lon="24.42619665873862">
    <ele>1105.78</ele>
   </trkpt>
   <trkpt lat="-29.785273335978296" lon="24.425613325441457">
    <ele>1105.0900000000001</ele>
   </trkpt>
   <trkpt lat="-29.78459" lon="24.425030000000003">
    <ele>1103.95</ele>
   </trkpt>
   <trkpt lat="-29.78392500342725" lon="24.424479989050436">
    <ele>1103.39</ele>
   </trkpt>
   <trkpt lat="-29.783260004578313" lon="24.42392998540796">
    <ele>1102.12</ele>
   </trkpt>
   <trkpt lat="-29.78259500345328" lon="24.423379989072306">
    <ele>1099.72</ele>
   </trkpt>
   <trkpt lat="-29.781930000000003" lon="24.42283">
    <ele>1098.3</ele>
   </trkpt>
   <trkpt lat="-29.781720000000004" lon="24.422620000000002">
    <ele>1099.2900000000002</ele>
   </trkpt>
   <trkpt lat="-29.781820000000003" lon="24.422480000000004">
    <ele>1098.97</ele>
   </trkpt>
   <trkpt lat="-29.781830000000003" lon="24.42247">
    <ele>1098.94</ele>
   </trkpt>
   <trkpt lat="-29.782340008465024" lon="24.42172001528208">
    <ele>1098.0500000000002</ele>
   </trkpt>
   <trkpt lat="-29.78285001269785" lon="24.420970022923015">
    <ele>1097.3300000000002</ele>
   </trkpt>
   <trkpt lat="-29.783360012698363" lon="24.420220022922635">
    <ele>1096.42</ele>
   </trkpt>
   <trkpt lat="-29.783870008466412" lon="24.419470015280766">
    <ele>1095.8100000000002</ele>
   </trkpt>
   <trkpt lat="-29.784380000000002" lon="24.41872">
    <ele>1095.16</ele>
   </trkpt>
   <trkpt lat="-29.78490626685109" lon="24.417920029446098">
    <ele>1094.2200000000003</ele>
   </trkpt>
   <trkpt lat="-29.785432528886794" lon="24.417120050481074">
    <ele>1093.51</ele>
   </trkpt>
   <trkpt lat="-29.785958786106956" lon="24.41632006310475">
    <ele>1093.44</ele>
   </trkpt>
   <trkpt lat="-29.786485038511408" lon="24.415520067316923">
    <ele>1093.34</ele>
   </trkpt>
   <trkpt lat="-29.78701128610001" lon="24.41472006311741">
    <ele>1093.5000000000002</ele>
   </trkpt>
   <trkpt lat="-29.78753752887262" lon="24.413920050506018">
    <ele>1093.4700000000003</ele>
   </trkpt>
   <trkpt lat="-29.78806376682906" lon="24.413120029482556">
    <ele>1093.31</ele>
   </trkpt>
   <trkpt lat="-29.788590000000003" lon="24.41232">
    <ele>1092.5600000000002</ele>
   </trkpt>
   <trkpt lat="-29.789060000000003" lon="24.41165">
    <ele>1092.2500000000002</ele>
   </trkpt>
   <trkpt lat="-29.789580004613093" lon="24.41086667481312">
    <ele>1092.29</ele>
   </trkpt>
   <trkpt lat="-29.790100004608668" lon="24.410083341486597">
    <ele>1092.3500000000001</ele>
   </trkpt>
   <trkpt lat="-29.790620000000004" lon="24.4093">
    <ele>1092.3</ele>
   </trkpt>
   <trkpt lat="-29.79110500229565" lon="24.40851500384151">
    <ele>1092.53</ele>
   </trkpt>
   <trkpt lat="-29.791590000000003" lon="24.40773">
    <ele>1093.1000000000001</ele>
   </trkpt>
   <trkpt lat="-29.791700000000002" lon="24.40782">
    <ele>1093.0900000000001</ele>
   </trkpt>
   <trkpt lat="-29.791790000000002" lon="24.407860000000003">
    <ele>1093.1000000000001</ele>
   </trkpt>
   <trkpt lat="-29.791890000000002" lon="24.407960000000003">
    <ele>1093.1000000000001</ele>
   </trkpt>
   <trkpt lat="-29.791960000000003" lon="24.408130000000003">
    <ele>1093.24</ele>
   </trkpt>
   <trkpt lat="-29.791970000000003" lon="24.40893">
    <ele>1093.22</ele>
   </trkpt>
   <trkpt lat="-29.79202" lon="24.40942">
    <ele>1093.44</ele>
   </trkpt>
   <trkpt lat="-29.792060000000003" lon="24.409530000000004">
    <ele>1093.44</ele>
   </trkpt>
   <trkpt lat="-29.792060000000003" lon="24.409560000000003">
    <ele>1093.45</ele>
   </trkpt>
   <trkpt lat="-29.792260000000002" lon="24.410230000000002">
    <ele>1093.44</ele>
   </trkpt>
   <trkpt lat="-29.792430000000003" lon="24.41055">
    <ele>1093.25</ele>
   </trkpt>
   <trkpt lat="-29.792450000000002" lon="24.410570000000003">
    <ele>1093.25</ele>
   </trkpt>
   <trkpt lat="-29.792550000000002" lon="24.410770000000003">
    <ele>1093.25</ele>
   </trkpt>
   <trkpt lat="-29.792740000000002" lon="24.41101">
    <ele>1093.44</ele>
   </trkpt>
   <trkpt lat="-29.793110000000002" lon="24.41138">
    <ele>1093.6200000000001</ele>
   </trkpt>
   <trkpt lat="-29.793300000000002" lon="24.411550000000002">
    <ele>1093.6200000000001</ele>
   </trkpt>
   <trkpt lat="-29.79373000026641" lon="24.411829998778213">
    <ele>1093.89</ele>
   </trkpt>
   <trkpt lat="-29.79416" lon="24.412110000000002">
    <ele>1093.8300000000002</ele>
   </trkpt>
   <trkpt lat="-29.794520000000002" lon="24.412640000000003">
    <ele>1093.6200000000001</ele>
   </trkpt>
   <trkpt lat="-29.794790000771716" lon="24.413069998960687">
    <ele>1093.5000000000002</ele>
   </trkpt>
   <trkpt lat="-29.795060000000003" lon="24.413500000000003">
    <ele>1093.43</ele>
   </trkpt>
   <trkpt lat="-29.795180000000002" lon="24.413660000000004">
    <ele>1093.43</ele>
   </trkpt>
   <trkpt lat="-29.795260000000003" lon="24.413880000000002">
    <ele>1093.43</ele>
   </trkpt>
   <trkpt lat="-29.795540000000003" lon="24.41438">
    <ele>1093.31</ele>
   </trkpt>
   <trkpt lat="-29.795885001095492" lon="24.414904998278534">
    <ele>1093.2700000000002</ele>
   </trkpt>
   <trkpt lat="-29.79623" lon="24.41543">
    <ele>1093.38</ele>
   </trkpt>
   <trkpt lat="-29.79654000060786" lon="24.415819998836348">
    <ele>1093.52</ele>
   </trkpt>
   <trkpt lat="-29.796850000000003" lon="24.416210000000003">
    <ele>1093.69</ele>
   </trkpt>
   <trkpt lat="-29.797010000000004" lon="24.41634">
    <ele>1093.7400000000002</ele>
   </trkpt>
   <trkpt lat="-29.797290000000004" lon="24.416670000000003">
    <ele>1093.8000000000002</ele>
   </trkpt>
   <trkpt lat="-29.79756" lon="24.417050000000003">
    <ele>1093.9</ele>
   </trkpt>
   <trkpt lat="-29.797940000000004" lon="24.41766">
    <ele>1093.76</ele>
   </trkpt>
   <trkpt lat="-29.798225000638443" lon="24.418074998803732">
    <ele>1093.5000000000002</ele>
   </trkpt>
   <trkpt lat="-29.798510000000004" lon="24.418490000000002">
    <ele>1093.45</ele>
   </trkpt>
   <trkpt lat="-29.798810000000003" lon="24.418870000000002">
    <ele>1093.5700000000002</ele>
   </trkpt>
   <trkpt lat="-29.79934" lon="24.41938">
    <ele>1093.68</ele>
   </trkpt>
   <trkpt lat="-29.799480000000003" lon="24.419580000000003">
    <ele>1093.6200000000001</ele>
   </trkpt>
   <trkpt lat="-29.799640000000004" lon="24.419870000000003">
    <ele>1093.34</ele>
   </trkpt>
   <trkpt lat="-29.7997" lon="24.41994">
    <ele>1093.34</ele>
   </trkpt>
   <trkpt lat="-29.799740000000003" lon="24.419970000000003">
    <ele>1093.34</ele>
   </trkpt>
   <trkpt lat="-29.799860000000002" lon="24.419890000000002">
    <ele>1093.1399999999999</ele>
   </trkpt>
   <trkpt lat="-29.799910000000004" lon="24.419880000000003">
    <ele>1093.1399999999999</ele>
   </trkpt>
   <trkpt lat="-29.79998" lon="24.41993">
    <ele>1092.97</ele>
   </trkpt>
   <trkpt lat="-29.800320000000003" lon="24.42038">
    <ele>1092.14</ele>
   </trkpt>
   <trkpt lat="-29.80069000055661" lon="24.42077999847137">
    <ele>1092.29</ele>
   </trkpt>
   <trkpt lat="-29.801060000000003" lon="24.421180000000003">
    <ele>1091.51</ele>
   </trkpt>
   <trkpt lat="-29.801360000000003" lon="24.421480000000003">
    <ele>1091.4</ele>
   </trkpt>
   <trkpt lat="-29.80193667047614" lon="24.42076667491644">
    <ele>1090.24</ele>
   </trkpt>
   <trkpt lat="-29.802513337122175" lon="24.420053341608767">
    <ele>1093.7100000000003</ele>
   </trkpt>
   <trkpt lat="-29.80309" lon="24.419340000000002">
    <ele>1094.3200000000002</ele>
   </trkpt>
   <trkpt lat="-29.80353500081687" lon="24.419814997852388">
    <ele>1093.88</ele>
   </trkpt>
   <trkpt lat="-29.803980000000003" lon="24.42029">
    <ele>1095.0600000000002</ele>
   </trkpt>
   <trkpt lat="-29.80459" lon="24.42048">
    <ele>1097.28</ele>
   </trkpt>
   <trkpt lat="-29.804930000000002" lon="24.42031">
    <ele>1098.6200000000001</ele>
   </trkpt>
   <trkpt lat="-29.805370000000003" lon="24.42011">
    <ele>1101.1200000000001</ele>
   </trkpt>
   <trkpt lat="-29.805770000000003" lon="24.419700000000002">
    <ele>1101.04</ele>
   </trkpt>
   <trkpt lat="-29.806375001837154" lon="24.41900000424252">
    <ele>1103.3700000000001</ele>
   </trkpt>
   <trkpt lat="-29.806980000000003" lon="24.418300000000002">
    <ele>1102.91</ele>
   </trkpt>
   <trkpt lat="-29.807035002561676" lon="24.419124999543776">
    <ele>1101.2</ele>
   </trkpt>
   <trkpt lat="-29.807090000000002" lon="24.419950000000004">
    <ele>1102.0700000000002</ele>
   </trkpt>
   <trkpt lat="-29.807830000000003" lon="24.42003">
    <ele>1105.0</ele>
   </trkpt>
   <trkpt lat="-29.807820000000003" lon="24.41964">
    <ele>1104.93</ele>
   </trkpt>
   <trkpt lat="-29.807380000000002" lon="24.419620000000002">
    <ele>1104.26</ele>
   </trkpt>
   <trkpt lat="-29.80731" lon="24.419480000000004">
    <ele>1102.64</ele>
   </trkpt>
   <trkpt lat="-29.807350000000003" lon="24.41938">
    <ele>1102.84</ele>
   </trkpt>
   <trkpt lat="-29.807530000000003" lon="24.419390000000003">
    <ele>1105.02</ele>
   </trkpt>
   <trkpt lat="-29.808380000000003" lon="24.419430000000002">
    <ele>1102.06</ele>
   </trkpt>
   <trkpt lat="-29.808500000000002" lon="24.419400000000003">
    <ele>1101.34</ele>
   </trkpt>
   <trkpt lat="-29.808580000000003" lon="24.419330000000002">
    <ele>1101.7100000000003</ele>
   </trkpt>
   <trkpt lat="-29.808680000000003" lon="24.419210000000003">
    <ele>1102.8500000000001</ele>
   </trkpt>
   <trkpt lat="-29.808730000000004" lon="24.419030000000003">
    <ele>1103.39</ele>
   </trkpt>
   <trkpt lat="-29.80872" lon="24.418820000000004">
    <ele>1103.91</ele>
   </trkpt>
   <trkpt lat="-29.808600000000002" lon="24.418650000000003">
    <ele>1105.0</ele>
   </trkpt>
   <trkpt lat="-29.807910000000003" lon="24.418550000000003">
    <ele>1101.3600000000001</ele>
   </trkpt>
  </trkseg>
 </trk>
</gpx>
