<?xml version="1.0" encoding="UTF-8"?>
<gpx creator="StravaGPX" version="1.1" xmlns="http://www.topografix.com/GPX/1/1" xmlns:xsi="http://www.w3.org/2001/XMLSchema-instance" xsi:schemaLocation="http://www.topografix.com/GPX/1/1 http://www.topografix.com/GPX/1/1/gpx.xsd">
 <metadata>
  <name>Ligloop Dag 3</name>
  <author>
   <name>Anné van Zyl</name>
   <link href="https://www.strava.com/athletes/19135595"/>
  </author>
  <copyright author="OpenStreetMap contributors">
   <year>2020</year>
   <license>https://www.openstreetmap.org/copyright</license>
  </copyright>
  <link href="https://www.strava.com/routes/3468537277647801852"/>
 </metadata>
 <wpt lat="-29.7827" lon="24.44749">
  <name>Waterpunt</name>
  <desc></desc>
  <sym>Water Source</sym>
  <type>Water Source</type>
 </wpt>
 <wpt lat="-29.78177" lon="24.42266">
  <name>Waterpunt</name>
  <desc></desc>
  <sym>Water Source</sym>
  <type>Water Source</type>
 </wpt>
 <trk>
  <name>Ligloop Dag 3</name>
  <link href="https://www.strava.com/routes/3468537277647801852"/>
  <type>running</type>
  <trkseg>
   <trkpt lat="-29.79877" lon="24.445770000000003">
    <ele>1118.49</ele>
   </trkpt>
   <trkpt lat="-29.798720000000003" lon="24.445860000000003">
    <ele>1118.5500000000002</ele>
   </trkpt>
   <trkpt lat="-29.798460000000002" lon="24.44631">
    <ele>1119.01</ele>
   </trkpt>
   <trkpt lat="-29.798000000000002" lon="24.446800000000003">
    <ele>1118.2</ele>
   </trkpt>
   <trkpt lat="-29.797466670811847" lon="24.44754334127673">
    <ele>1118.56</ele>
   </trkpt>
   <trkpt lat="-29.796933337464925" lon="24.44828667462886">
    <ele>1121.07</ele>
   </trkpt>
   <trkpt lat="-29.796400000000002" lon="24.44903">
    <ele>1123.3300000000002</ele>
   </trkpt>
   <trkpt lat="-29.79615" lon="24.449240000000003">
    <ele>1122.1000000000001</ele>
   </trkpt>
   <trkpt lat="-29.795520000000003" lon="24.44997">
    <ele>1122.8700000000001</ele>
   </trkpt>
   <trkpt lat="-29.79512333548892" lon="24.450500004146505">
    <ele>1123.2900000000002</ele>
   </trkpt>
   <trkpt lat="-29.794726668863756" lon="24.451030004091013">
    <ele>1124.8200000000002</ele>
   </trkpt>
   <trkpt lat="-29.794330000000002" lon="24.45156">
    <ele>1126.43</ele>
   </trkpt>
   <trkpt lat="-29.794050000000002" lon="24.45229">
    <ele>1127.49</ele>
   </trkpt>
   <trkpt lat="-29.793965003572115" lon="24.453265000886088">
    <ele>1129.55</ele>
   </trkpt>
   <trkpt lat="-29.79388" lon="24.454240000000002">
    <ele>1129.48</ele>
   </trkpt>
   <trkpt lat="-29.79353200978312" lon="24.455046011199894">
    <ele>1129.7700000000002</ele>
   </trkpt>
   <trkpt lat="-29.793184014677063" lon="24.455852016794033">
    <ele>1129.98</ele>
   </trkpt>
   <trkpt lat="-29.792836014681953" lon="24.456658016782445">
    <ele>1131.0</ele>
   </trkpt>
   <trkpt lat="-29.79248800979787" lon="24.45746401116517">
    <ele>1131.1</ele>
   </trkpt>
   <trkpt lat="-29.792140000000003" lon="24.458270000000002">
    <ele>1130.3500000000001</ele>
   </trkpt>
   <trkpt lat="-29.792130000000004" lon="24.4583">
    <ele>1130.41</ele>
   </trkpt>
   <trkpt lat="-29.7921" lon="24.458360000000003">
    <ele>1130.7</ele>
   </trkpt>
   <trkpt lat="-29.791990000000002" lon="24.458470000000002">
    <ele>1131.3500000000001</ele>
   </trkpt>
   <trkpt lat="-29.791770000000003" lon="24.457700000000003">
    <ele>1130.8400000000001</ele>
   </trkpt>
   <trkpt lat="-29.791560004744888" lon="24.45690666336927">
    <ele>1131.52</ele>
   </trkpt>
   <trkpt lat="-29.791350004753326" lon="24.4561133300679">
    <ele>1132.7500000000002</ele>
   </trkpt>
   <trkpt lat="-29.791140000000002" lon="24.45532">
    <ele>1135.61</ele>
   </trkpt>
   <trkpt lat="-29.790860000000002" lon="24.454480000000004">
    <ele>1136.56</ele>
   </trkpt>
   <trkpt lat="-29.79051" lon="24.45372">
    <ele>1135.4700000000003</ele>
   </trkpt>
   <trkpt lat="-29.790280000000003" lon="24.45334">
    <ele>1134.05</ele>
   </trkpt>
   <trkpt lat="-29.789920000000002" lon="24.45287">
    <ele>1132.49</ele>
   </trkpt>
   <trkpt lat="-29.789700000000003" lon="24.452640000000002">
    <ele>1131.0600000000002</ele>
   </trkpt>
   <trkpt lat="-29.789120000000004" lon="24.452150000000003">
    <ele>1129.43</ele>
   </trkpt>
   <trkpt lat="-29.78862" lon="24.45182">
    <ele>1127.8600000000001</ele>
   </trkpt>
   <trkpt lat="-29.787922002501528" lon="24.451413988687328">
    <ele>1124.5</ele>
   </trkpt>
   <trkpt lat="-29.78722400376261" lon="24.451007983037254">
    <ele>1122.91</ele>
   </trkpt>
   <trkpt lat="-29.7865260037833" lon="24.45060198304955">
    <ele>1121.2300000000002</ele>
   </trkpt>
   <trkpt lat="-29.78582800256365" lon="24.450195988723983">
    <ele>1120.7600000000002</ele>
   </trkpt>
   <trkpt lat="-29.785130000000002" lon="24.449790000000004">
    <ele>1122.36</ele>
   </trkpt>
   <trkpt lat="-29.78465500022958" lon="24.449494998539482">
    <ele>1123.0300000000002</ele>
   </trkpt>
   <trkpt lat="-29.784180000000003" lon="24.4492">
    <ele>1123.5700000000002</ele>
   </trkpt>
   <trkpt lat="-29.783700000000003" lon="24.44875">
    <ele>1124.53</ele>
   </trkpt>
   <trkpt lat="-29.78329" lon="24.448320000000002">
    <ele>1125.6200000000001</ele>
   </trkpt>
   <trkpt lat="-29.783" lon="24.447950000000002">
    <ele>1126.42</ele>
   </trkpt>
   <trkpt lat="-29.78271" lon="24.447490000000002">
    <ele>1127.2000000000003</ele>
   </trkpt>
   <trkpt lat="-29.78271" lon="24.447480000000002">
    <ele>1127.16</ele>
   </trkpt>
   <trkpt lat="-29.782930000000004" lon="24.44734">
    <ele>1125.21</ele>
   </trkpt>
   <trkpt lat="-29.78308" lon="24.446820000000002">
    <ele>1125.21</ele>
   </trkpt>
   <trkpt lat="-29.783160000000002" lon="24.446170000000002">
    <ele>1126.06</ele>
   </trkpt>
   <trkpt lat="-29.78346" lon="24.445610000000002">
    <ele>1126.06</ele>
   </trkpt>
   <trkpt lat="-29.783500000000004" lon="24.445570000000004">
    <ele>1126.06</ele>
   </trkpt>
   <trkpt lat="-29.783250000000002" lon="24.44527">
    <ele>1126.21</ele>
   </trkpt>
   <trkpt lat="-29.78328" lon="24.444850000000002">
    <ele>1128.8400000000001</ele>
   </trkpt>
   <trkpt lat="-29.783420000000003" lon="24.444180000000003">
    <ele>1125.97</ele>
   </trkpt>
   <trkpt lat="-29.783630000000002" lon="24.443990000000003">
    <ele>1125.5300000000002</ele>
   </trkpt>
   <trkpt lat="-29.78346" lon="24.443720000000003">
    <ele>1125.7</ele>
   </trkpt>
   <trkpt lat="-29.78366" lon="24.44357">
    <ele>1127.3200000000002</ele>
   </trkpt>
   <trkpt lat="-29.78385" lon="24.443880000000004">
    <ele>1127.96</ele>
   </trkpt>
   <trkpt lat="-29.784290000000002" lon="24.44367">
    <ele>1126.93</ele>
   </trkpt>
   <trkpt lat="-29.784480000000002" lon="24.443630000000002">
    <ele>1125.92</ele>
   </trkpt>
   <trkpt lat="-29.784670000000002" lon="24.443700000000003">
    <ele>1125.92</ele>
   </trkpt>
   <trkpt lat="-29.785210000000003" lon="24.44394">
    <ele>1127.07</ele>
   </trkpt>
   <trkpt lat="-29.785510000000002" lon="24.44405">
    <ele>1127.27</ele>
   </trkpt>
   <trkpt lat="-29.785690000000002" lon="24.444160000000004">
    <ele>1127.34</ele>
   </trkpt>
   <trkpt lat="-29.78591" lon="24.444490000000002">
    <ele>1127.3000000000002</ele>
   </trkpt>
   <trkpt lat="-29.785700000000002" lon="24.44499">
    <ele>1128.9</ele>
   </trkpt>
   <trkpt lat="-29.786060000000003" lon="24.445220000000003">
    <ele>1128.9</ele>
   </trkpt>
   <trkpt lat="-29.786350000000002" lon="24.445520000000002">
    <ele>1129.99</ele>
   </trkpt>
   <trkpt lat="-29.78658" lon="24.445890000000002">
    <ele>1129.99</ele>
   </trkpt>
   <trkpt lat="-29.786920000000002" lon="24.446060000000003">
    <ele>1129.72</ele>
   </trkpt>
   <trkpt lat="-29.78732" lon="24.4461">
    <ele>1129.5300000000002</ele>
   </trkpt>
   <trkpt lat="-29.78807" lon="24.44573">
    <ele>1128.09</ele>
   </trkpt>
   <trkpt lat="-29.788385000481505" lon="24.445350001270473">
    <ele>1127.3600000000001</ele>
   </trkpt>
   <trkpt lat="-29.788700000000002" lon="24.44497">
    <ele>1127.0600000000002</ele>
   </trkpt>
   <trkpt lat="-29.789205001048302" lon="24.444465002459268">
    <ele>1126.2500000000002</ele>
   </trkpt>
   <trkpt lat="-29.789710000000003" lon="24.44396">
    <ele>1125.99</ele>
   </trkpt>
   <trkpt lat="-29.790180000000003" lon="24.44346">
    <ele>1125.91</ele>
   </trkpt>
   <trkpt lat="-29.790160000000004" lon="24.44349">
    <ele>1125.91</ele>
   </trkpt>
   <trkpt lat="-29.790465000812723" lon="24.443040001296456">
    <ele>1125.91</ele>
   </trkpt>
   <trkpt lat="-29.790770000000002" lon="24.442590000000003">
    <ele>1125.91</ele>
   </trkpt>
   <trkpt lat="-29.790950000000002" lon="24.442040000000002">
    <ele>1123.9800000000002</ele>
   </trkpt>
   <trkpt lat="-29.79144500157986" lon="24.441390003227987">
    <ele>1123.9800000000002</ele>
   </trkpt>
   <trkpt lat="-29.791940000000004" lon="24.44074">
    <ele>1123.9800000000002</ele>
   </trkpt>
   <trkpt lat="-29.791520000000002" lon="24.440350000000002">
    <ele>1125.5300000000002</ele>
   </trkpt>
   <trkpt lat="-29.791800001944246" lon="24.439630002030885">
    <ele>1126.6200000000001</ele>
   </trkpt>
   <trkpt lat="-29.792080000000002" lon="24.438910000000003">
    <ele>1129.71</ele>
   </trkpt>
   <trkpt lat="-29.792180000000002" lon="24.43851">
    <ele>1128.68</ele>
   </trkpt>
   <trkpt lat="-29.792360000000002" lon="24.43812">
    <ele>1128.0400000000002</ele>
   </trkpt>
   <trkpt lat="-29.792460000000002" lon="24.437980000000003">
    <ele>1128.89</ele>
   </trkpt>
   <trkpt lat="-29.792640000000002" lon="24.437920000000002">
    <ele>1128.21</ele>
   </trkpt>
   <trkpt lat="-29.793210000000002" lon="24.437900000000003">
    <ele>1128.5800000000002</ele>
   </trkpt>
   <trkpt lat="-29.793460000000003" lon="24.43822">
    <ele>1125.2000000000003</ele>
   </trkpt>
   <trkpt lat="-29.793956668567326" lon="24.437716671669115">
    <ele>1125.2000000000003</ele>
   </trkpt>
   <trkpt lat="-29.79445333522803" lon="24.437213338341895">
    <ele>1124.97</ele>
   </trkpt>
   <trkpt lat="-29.794950000000004" lon="24.43671">
    <ele>1124.97</ele>
   </trkpt>
   <trkpt lat="-29.79519" lon="24.436030000000002">
    <ele>1124.0400000000002</ele>
   </trkpt>
   <trkpt lat="-29.795270000000002" lon="24.435930000000003">
    <ele>1124.0400000000002</ele>
   </trkpt>
   <trkpt lat="-29.795420000000004" lon="24.43579">
    <ele>1124.0400000000002</ele>
   </trkpt>
   <trkpt lat="-29.7953" lon="24.435620000000004">
    <ele>1125.8700000000001</ele>
   </trkpt>
   <trkpt lat="-29.795460000000002" lon="24.434980000000003">
    <ele>1131.01</ele>
   </trkpt>
   <trkpt lat="-29.795550000000002" lon="24.434790000000003">
    <ele>1132.74</ele>
   </trkpt>
   <trkpt lat="-29.795830000000002" lon="24.43446">
    <ele>1129.67</ele>
   </trkpt>
   <trkpt lat="-29.79595" lon="24.434260000000002">
    <ele>1128.47</ele>
   </trkpt>
   <trkpt lat="-29.79621000133473" lon="24.433675001414596">
    <ele>1124.36</ele>
   </trkpt>
   <trkpt lat="-29.796470000000003" lon="24.433090000000004">
    <ele>1121.46</ele>
   </trkpt>
   <trkpt lat="-29.796580000000002" lon="24.43289">
    <ele>1123.5300000000002</ele>
   </trkpt>
   <trkpt lat="-29.796870000000002" lon="24.43249">
    <ele>1123.6000000000001</ele>
   </trkpt>
   <trkpt lat="-29.79698" lon="24.432270000000003">
    <ele>1123.04</ele>
   </trkpt>
   <trkpt lat="-29.797155000950077" lon="24.431775000786583">
    <ele>1122.8700000000001</ele>
   </trkpt>
   <trkpt lat="-29.797330000000002" lon="24.43128">
    <ele>1121.16</ele>
   </trkpt>
   <trkpt lat="-29.797430000000002" lon="24.43109">
    <ele>1121.55</ele>
   </trkpt>
   <trkpt lat="-29.797710000000002" lon="24.430780000000002">
    <ele>1120.43</ele>
   </trkpt>
   <trkpt lat="-29.797800000000002" lon="24.430560000000003">
    <ele>1121.66</ele>
   </trkpt>
   <trkpt lat="-29.79783" lon="24.43034">
    <ele>1123.5900000000001</ele>
   </trkpt>
   <trkpt lat="-29.797780000000003" lon="24.430120000000002">
    <ele>1126.26</ele>
   </trkpt>
   <trkpt lat="-29.797300000000003" lon="24.429370000000002">
    <ele>1124.74</ele>
   </trkpt>
   <trkpt lat="-29.797150000000002" lon="24.42922">
    <ele>1124.73</ele>
   </trkpt>
   <trkpt lat="-29.796960000000002" lon="24.42913">
    <ele>1122.7</ele>
   </trkpt>
   <trkpt lat="-29.796680000000002" lon="24.429080000000003">
    <ele>1121.39</ele>
   </trkpt>
   <trkpt lat="-29.79643" lon="24.429080000000003">
    <ele>1124.5800000000002</ele>
   </trkpt>
   <trkpt lat="-29.796300000000002" lon="24.42902">
    <ele>1124.2800000000002</ele>
   </trkpt>
   <trkpt lat="-29.795920000000002" lon="24.42854">
    <ele>1119.2900000000002</ele>
   </trkpt>
   <trkpt lat="-29.795740000000002" lon="24.428430000000002">
    <ele>1118.26</ele>
   </trkpt>
   <trkpt lat="-29.795550000000002" lon="24.428400000000003">
    <ele>1119.8799999999999</ele>
   </trkpt>
   <trkpt lat="-29.79508000012059" lon="24.428505000475518">
    <ele>1125.51</ele>
   </trkpt>
   <trkpt lat="-29.794610000000002" lon="24.428610000000003">
    <ele>1125.39</ele>
   </trkpt>
   <trkpt lat="-29.793830000000003" lon="24.42866">
    <ele>1124.65</ele>
   </trkpt>
   <trkpt lat="-29.793650000000003" lon="24.428710000000002">
    <ele>1123.3200000000002</ele>
   </trkpt>
   <trkpt lat="-29.793290000000002" lon="24.42886">
    <ele>1120.6100000000001</ele>
   </trkpt>
   <trkpt lat="-29.793110000000002" lon="24.42895">
    <ele>1122.3700000000001</ele>
   </trkpt>
   <trkpt lat="-29.792820000000003" lon="24.42913">
    <ele>1123.71</ele>
   </trkpt>
   <trkpt lat="-29.792520000000003" lon="24.42939">
    <ele>1125.3200000000002</ele>
   </trkpt>
   <trkpt lat="-29.792140000000003" lon="24.42988">
    <ele>1125.41</ele>
   </trkpt>
   <trkpt lat="-29.79201" lon="24.43007">
    <ele>1124.3700000000001</ele>
   </trkpt>
   <trkpt lat="-29.79172" lon="24.430660000000003">
    <ele>1123.04</ele>
   </trkpt>
   <trkpt lat="-29.79153" lon="24.431510000000003">
    <ele>1128.3500000000001</ele>
   </trkpt>
   <trkpt lat="-29.791520000000002" lon="24.43173">
    <ele>1129.1</ele>
   </trkpt>
   <trkpt lat="-29.791510000000002" lon="24.432270000000003">
    <ele>1128.88</ele>
   </trkpt>
   <trkpt lat="-29.79144" lon="24.43248">
    <ele>1129.16</ele>
   </trkpt>
   <trkpt lat="-29.791330000000002" lon="24.432660000000002">
    <ele>1129.4</ele>
   </trkpt>
   <trkpt lat="-29.79117" lon="24.43277">
    <ele>1129.0800000000002</ele>
   </trkpt>
   <trkpt lat="-29.790960000000002" lon="24.4328">
    <ele>1128.51</ele>
   </trkpt>
   <trkpt lat="-29.790670000000002" lon="24.432760000000002">
    <ele>1129.5700000000002</ele>
   </trkpt>
   <trkpt lat="-29.790490000000002" lon="24.4327">
    <ele>1129.44</ele>
   </trkpt>
   <trkpt lat="-29.79031" lon="24.43259">
    <ele>1130.22</ele>
   </trkpt>
   <trkpt lat="-29.790200000000002" lon="24.43242">
    <ele>1130.64</ele>
   </trkpt>
   <trkpt lat="-29.79014" lon="24.43221">
    <ele>1129.3000000000002</ele>
   </trkpt>
   <trkpt lat="-29.790100000000002" lon="24.43173">
    <ele>1124.47</ele>
   </trkpt>
   <trkpt lat="-29.790000000000003" lon="24.431530000000002">
    <ele>1122.67</ele>
   </trkpt>
   <trkpt lat="-29.789830000000002" lon="24.43137">
    <ele>1124.13</ele>
   </trkpt>
   <trkpt lat="-29.78965" lon="24.43128">
    <ele>1126.3500000000001</ele>
   </trkpt>
   <trkpt lat="-29.789460000000002" lon="24.43126">
    <ele>1126.77</ele>
   </trkpt>
   <trkpt lat="-29.789270000000002" lon="24.43128">
    <ele>1128.56</ele>
   </trkpt>
   <trkpt lat="-29.78891" lon="24.43137">
    <ele>1123.65</ele>
   </trkpt>
   <trkpt lat="-29.788420000000002" lon="24.43146">
    <ele>1122.2500000000002</ele>
   </trkpt>
   <trkpt lat="-29.78764000042998" lon="24.43185500315764">
    <ele>1127.41</ele>
   </trkpt>
   <trkpt lat="-29.78686" lon="24.432250000000003">
    <ele>1125.8700000000001</ele>
   </trkpt>
   <trkpt lat="-29.786710000000003" lon="24.432280000000002">
    <ele>1126.64</ele>
   </trkpt>
   <trkpt lat="-29.786540000000002" lon="24.432180000000002">
    <ele>1124.57</ele>
   </trkpt>
   <trkpt lat="-29.786420000000003" lon="24.43202">
    <ele>1123.1200000000001</ele>
   </trkpt>
   <trkpt lat="-29.786240000000003" lon="24.43195">
    <ele>1123.5300000000002</ele>
   </trkpt>
   <trkpt lat="-29.785670000000003" lon="24.431980000000003">
    <ele>1126.0800000000002</ele>
   </trkpt>
   <trkpt lat="-29.785480000000003" lon="24.43202">
    <ele>1126.43</ele>
   </trkpt>
   <trkpt lat="-29.785300000000003" lon="24.432160000000003">
    <ele>1125.95</ele>
   </trkpt>
   <trkpt lat="-29.784840000000003" lon="24.43277">
    <ele>1127.37</ele>
   </trkpt>
   <trkpt lat="-29.784740000000003" lon="24.432850000000002">
    <ele>1128.97</ele>
   </trkpt>
   <trkpt lat="-29.784550000000003" lon="24.43286">
    <ele>1129.13</ele>
   </trkpt>
   <trkpt lat="-29.784530000000004" lon="24.43286">
    <ele>1129.13</ele>
   </trkpt>
   <trkpt lat="-29.78420500128179" lon="24.432254997858514">
    <ele>1123.7700000000002</ele>
   </trkpt>
   <trkpt lat="-29.783880000000003" lon="24.43165">
    <ele>1126.5500000000002</ele>
   </trkpt>
   <trkpt lat="-29.783120000000004" lon="24.431330000000003">
    <ele>1127.8100000000002</ele>
   </trkpt>
   <trkpt lat="-29.78224" lon="24.43137">
    <ele>1126.5900000000001</ele>
   </trkpt>
   <trkpt lat="-29.781380000000002" lon="24.431130000000003">
    <ele>1124.03</ele>
   </trkpt>
   <trkpt lat="-29.780780000000004" lon="24.430840000000003">
    <ele>1123.28</ele>
   </trkpt>
   <trkpt lat="-29.780365000720604" lon="24.43042499835259">
    <ele>1121.2300000000002</ele>
   </trkpt>
   <trkpt lat="-29.779950000000003" lon="24.430010000000003">
    <ele>1118.75</ele>
   </trkpt>
   <trkpt lat="-29.77970000135648" lon="24.42940999850721">
    <ele>1118.98</ele>
   </trkpt>
   <trkpt lat="-29.779450000000004" lon="24.428810000000002">
    <ele>1116.3500000000001</ele>
   </trkpt>
   <trkpt lat="-29.77938000166549" lon="24.42813999930956">
    <ele>1111.97</ele>
   </trkpt>
   <trkpt lat="-29.779310000000002" lon="24.427470000000003">
    <ele>1113.1100000000001</ele>
   </trkpt>
   <trkpt lat="-29.77947500222828" lon="24.426705001136636">
    <ele>1111.2900000000002</ele>
   </trkpt>
   <trkpt lat="-29.779640000000004" lon="24.42594">
    <ele>1109.0</ele>
   </trkpt>
   <trkpt lat="-29.780085001070994" lon="24.4254050023847">
    <ele>1106.7600000000002</ele>
   </trkpt>
   <trkpt lat="-29.780530000000002" lon="24.424870000000002">
    <ele>1105.7700000000002</ele>
   </trkpt>
   <trkpt lat="-29.78091500074877" lon="24.42441000182532">
    <ele>1103.1000000000001</ele>
   </trkpt>
   <trkpt lat="-29.7813" lon="24.42395">
    <ele>1101.92</ele>
   </trkpt>
   <trkpt lat="-29.781765000725926" lon="24.423525001931502">
    <ele>1101.4</ele>
   </trkpt>
   <trkpt lat="-29.782230000000002" lon="24.4231">
    <ele>1100.44</ele>
   </trkpt>
   <trkpt lat="-29.78177" lon="24.42266">
    <ele>1098.96</ele>
   </trkpt>
   <trkpt lat="-29.78228688419808" lon="24.421871652220073">
    <ele>1096.29</ele>
   </trkpt>
   <trkpt lat="-29.78280376371993" lon="24.42108329629988">
    <ele>1099.75</ele>
   </trkpt>
   <trkpt lat="-29.7833206385654" lon="24.420294932239237">
    <ele>1096.0700000000002</ele>
   </trkpt>
   <trkpt lat="-29.78383750873435" lon="24.41950656003797">
    <ele>1097.1200000000001</ele>
   </trkpt>
   <trkpt lat="-29.78435437422663" lon="24.418718179695887">
    <ele>1096.0</ele>
   </trkpt>
   <trkpt lat="-29.78487123504209" lon="24.417929791212824">
    <ele>1092.99</ele>
   </trkpt>
   <trkpt lat="-29.785388091180593" lon="24.417141394588587">
    <ele>1092.96</ele>
   </trkpt>
   <trkpt lat="-29.78590494264199" lon="24.416352989822997">
    <ele>1093.97</ele>
   </trkpt>
   <trkpt lat="-29.786421789426132" lon="24.415564576915877">
    <ele>1092.84</ele>
   </trkpt>
   <trkpt lat="-29.78693863153288" lon="24.414776155867045">
    <ele>1093.9800000000002</ele>
   </trkpt>
   <trkpt lat="-29.78745546896208" lon="24.41398772667631">
    <ele>1092.12</ele>
   </trkpt>
   <trkpt lat="-29.78797230171358" lon="24.41319928934351">
    <ele>1093.32</ele>
   </trkpt>
   <trkpt lat="-29.78848912978725" lon="24.412410843868454">
    <ele>1091.8600000000001</ele>
   </trkpt>
   <trkpt lat="-29.789005953182933" lon="24.41162239025096">
    <ele>1089.45</ele>
   </trkpt>
   <trkpt lat="-29.78952277190049" lon="24.41083392849085">
    <ele>1076.92</ele>
   </trkpt>
   <trkpt lat="-29.79003958593977" lon="24.41004545858795">
    <ele>1077.92</ele>
   </trkpt>
   <trkpt lat="-29.790556395300623" lon="24.409256980542064">
    <ele>1090.5900000000001</ele>
   </trkpt>
   <trkpt lat="-29.791073199982907" lon="24.408468494353016">
    <ele>1092.0800000000002</ele>
   </trkpt>
   <trkpt lat="-29.791590000000003" lon="24.407680000000003">
    <ele>1096.0</ele>
   </trkpt>
   <trkpt lat="-29.791590000000003" lon="24.40773">
    <ele>1093.1000000000001</ele>
   </trkpt>
   <trkpt lat="-29.791700000000002" lon="24.40782">
    <ele>1093.0900000000001</ele>
   </trkpt>
   <trkpt lat="-29.791790000000002" lon="24.407860000000003">
    <ele>1093.1000000000001</ele>
   </trkpt>
   <trkpt lat="-29.791890000000002" lon="24.407960000000003">
    <ele>1093.1000000000001</ele>
   </trkpt>
   <trkpt lat="-29.791960000000003" lon="24.408130000000003">
    <ele>1093.24</ele>
   </trkpt>
   <trkpt lat="-29.791970000000003" lon="24.40893">
    <ele>1093.22</ele>
   </trkpt>
   <trkpt lat="-29.79202" lon="24.40942">
    <ele>1093.52</ele>
   </trkpt>
   <trkpt lat="-29.792260000000002" lon="24.410230000000002">
    <ele>1093.44</ele>
   </trkpt>
   <trkpt lat="-29.792550000000002" lon="24.410770000000003">
    <ele>1093.25</ele>
   </trkpt>
   <trkpt lat="-29.792740000000002" lon="24.41101">
    <ele>1093.44</ele>
   </trkpt>
   <trkpt lat="-29.793110000000002" lon="24.41138">
    <ele>1093.6200000000001</ele>
   </trkpt>
   <trkpt lat="-29.793300000000002" lon="24.411550000000002">
    <ele>1093.6200000000001</ele>
   </trkpt>
   <trkpt lat="-29.79373000026641" lon="24.411829998778213">
    <ele>1093.89</ele>
   </trkpt>
   <trkpt lat="-29.79416" lon="24.412110000000002">
    <ele>1093.8300000000002</ele>
   </trkpt>
   <trkpt lat="-29.794520000000002" lon="24.412640000000003">
    <ele>1093.6200000000001</ele>
   </trkpt>
   <trkpt lat="-29.794790000771716" lon="24.413069998960687">
    <ele>1093.5000000000002</ele>
   </trkpt>
   <trkpt lat="-29.795060000000003" lon="24.413500000000003">
    <ele>1093.43</ele>
   </trkpt>
   <trkpt lat="-29.795180000000002" lon="24.413660000000004">
    <ele>1093.43</ele>
   </trkpt>
   <trkpt lat="-29.795260000000003" lon="24.413880000000002">
    <ele>1093.43</ele>
   </trkpt>
   <trkpt lat="-29.795540000000003" lon="24.41438">
    <ele>1093.31</ele>
   </trkpt>
   <trkpt lat="-29.795885001095492" lon="24.414904998278534">
    <ele>1093.2700000000002</ele>
   </trkpt>
   <trkpt lat="-29.79623" lon="24.41543">
    <ele>1093.38</ele>
   </trkpt>
   <trkpt lat="-29.79654000060786" lon="24.415819998836348">
    <ele>1093.52</ele>
   </trkpt>
   <trkpt lat="-29.796850000000003" lon="24.416210000000003">
    <ele>1093.69</ele>
   </trkpt>
   <trkpt lat="-29.797010000000004" lon="24.41634">
    <ele>1093.7400000000002</ele>
   </trkpt>
   <trkpt lat="-29.797290000000004" lon="24.416670000000003">
    <ele>1093.8000000000002</ele>
   </trkpt>
   <trkpt lat="-29.79756" lon="24.417050000000003">
    <ele>1093.9</ele>
   </trkpt>
   <trkpt lat="-29.797940000000004" lon="24.41766">
    <ele>1093.76</ele>
   </trkpt>
   <trkpt lat="-29.798320000000004" lon="24.418210000000002">
    <ele>1093.5000000000002</ele>
   </trkpt>
   <trkpt lat="-29.798810000000003" lon="24.418870000000002">
    <ele>1093.5700000000002</ele>
   </trkpt>
   <trkpt lat="-29.79934" lon="24.41938">
    <ele>1093.68</ele>
   </trkpt>
   <trkpt lat="-29.799480000000003" lon="24.419580000000003">
    <ele>1093.6200000000001</ele>
   </trkpt>
   <trkpt lat="-29.799640000000004" lon="24.419870000000003">
    <ele>1093.34</ele>
   </trkpt>
   <trkpt lat="-29.7997" lon="24.41994">
    <ele>1093.34</ele>
   </trkpt>
   <trkpt lat="-29.799740000000003" lon="24.419970000000003">
    <ele>1093.34</ele>
   </trkpt>
   <trkpt lat="-29.799860000000002" lon="24.419890000000002">
    <ele>1093.1399999999999</ele>
   </trkpt>
   <trkpt lat="-29.799910000000004" lon="24.419880000000003">
    <ele>1093.1399999999999</ele>
   </trkpt>
   <trkpt lat="-29.79998" lon="24.41993">
    <ele>1092.97</ele>
   </trkpt>
   <trkpt lat="-29.800320000000003" lon="24.42038">
    <ele>1092.14</ele>
   </trkpt>
   <trkpt lat="-29.800530000000002" lon="24.42059">
    <ele>1092.29</ele>
   </trkpt>
   <trkpt lat="-29.800710000000002" lon="24.420800000000003">
    <ele>1092.29</ele>
   </trkpt>
   <trkpt lat="-29.801360000000003" lon="24.421480000000003">
    <ele>1091.4</ele>
   </trkpt>
   <trkpt lat="-29.80138" lon="24.421450000000004">
    <ele>1091.42</ele>
   </trkpt>
   <trkpt lat="-29.80139" lon="24.42144">
    <ele>1091.43</ele>
   </trkpt>
   <trkpt lat="-29.8017850009566" lon="24.420925002087735">
    <ele>1092.02</ele>
   </trkpt>
   <trkpt lat="-29.802180000000003" lon="24.42041">
    <ele>1092.84</ele>
   </trkpt>
   <trkpt lat="-29.802635001180793" lon="24.419845002595547">
    <ele>1093.3700000000001</ele>
   </trkpt>
   <trkpt lat="-29.80309" lon="24.41928">
    <ele>1094.51</ele>
   </trkpt>
   <trkpt lat="-29.80358000116669" lon="24.41980999752217">
    <ele>1095.3600000000001</ele>
   </trkpt>
   <trkpt lat="-29.804070000000003" lon="24.420340000000003">
    <ele>1096.17</ele>
   </trkpt>
   <trkpt lat="-29.804280000000002" lon="24.420460000000002">
    <ele>1096.7</ele>
   </trkpt>
   <trkpt lat="-29.804450000000003" lon="24.42048">
    <ele>1096.91</ele>
   </trkpt>
   <trkpt lat="-29.805100000000003" lon="24.420330000000003">
    <ele>1098.5800000000002</ele>
   </trkpt>
   <trkpt lat="-29.805310000000002" lon="24.4202">
    <ele>1099.0300000000002</ele>
   </trkpt>
   <trkpt lat="-29.805640000000004" lon="24.41991">
    <ele>1099.8700000000001</ele>
   </trkpt>
   <trkpt lat="-29.80609" lon="24.419420000000002">
    <ele>1100.72</ele>
   </trkpt>
   <trkpt lat="-29.806540001373648" lon="24.4188500023736">
    <ele>1104.5</ele>
   </trkpt>
   <trkpt lat="-29.806990000000003" lon="24.418280000000003">
    <ele>1103.25</ele>
   </trkpt>
   <trkpt lat="-29.807060003016062" lon="24.419174999386723">
    <ele>1101.2</ele>
   </trkpt>
   <trkpt lat="-29.80713" lon="24.420070000000003">
    <ele>1102.87</ele>
   </trkpt>
   <trkpt lat="-29.807890000000004" lon="24.4201">
    <ele>1105.6000000000001</ele>
   </trkpt>
   <trkpt lat="-29.807930000000002" lon="24.419710000000002">
    <ele>1104.6299999999999</ele>
   </trkpt>
   <trkpt lat="-29.807910000000003" lon="24.419700000000002">
    <ele>1104.8</ele>
   </trkpt>
   <trkpt lat="-29.807380000000002" lon="24.419590000000003">
    <ele>1103.93</ele>
   </trkpt>
   <trkpt lat="-29.80732" lon="24.41944">
    <ele>1102.45</ele>
   </trkpt>
   <trkpt lat="-29.807370000000002" lon="24.419300000000003">
    <ele>1103.2300000000002</ele>
   </trkpt>
   <trkpt lat="-29.807530000000003" lon="24.41936">
    <ele>1104.8300000000002</ele>
   </trkpt>
   <trkpt lat="-29.807985000161878" lon="24.41937499993707">
    <ele>1104.19</ele>
   </trkpt>
   <trkpt lat="-29.80844" lon="24.419390000000003">
    <ele>1101.89</ele>
   </trkpt>
   <trkpt lat="-29.808550000000004" lon="24.41937">
    <ele>1101.34</ele>
   </trkpt>
   <trkpt lat="-29.808650000000004" lon="24.419290000000004">
    <ele>1102.51</ele>
   </trkpt>
   <trkpt lat="-29.80872" lon="24.419130000000003">
    <ele>1103.04</ele>
   </trkpt>
   <trkpt lat="-29.808740000000004" lon="24.418960000000002">
    <ele>1103.64</ele>
   </trkpt>
   <trkpt lat="-29.8087" lon="24.41881">
    <ele>1104.09</ele>
   </trkpt>
   <trkpt lat="-29.808560000000003" lon="24.41863">
    <ele>1105.05</ele>
   </trkpt>
   <trkpt lat="-29.807840000000002" lon="24.41862">
    <ele>1101.8000000000002</ele>
   </trkpt>
  </trkseg>
 </trk>
</gpx>
