<?xml version="1.0" encoding="UTF-8"?>
<gpx creator="StravaGPX" version="1.1" xmlns="http://www.topografix.com/GPX/1/1" xmlns:xsi="http://www.w3.org/2001/XMLSchema-instance" xsi:schemaLocation="http://www.topografix.com/GPX/1/1 http://www.topografix.com/GPX/1/1/gpx.xsd">
 <trk>
  <name>Morning Ride</name>
  <type>cycling</type>
  <trkseg>
   <trkpt lat="-29.8076610" lon="24.4193950">
    <ele>1105.6</ele>
   </trkpt>
   <trkpt lat="-29.8076170" lon="24.4193930">
    <ele>1105.7</ele>
   </trkpt>
   <trkpt lat="-29.8075760" lon="24.4193890">
    <ele>1105.7</ele>
   </trkpt>
   <trkpt lat="-29.8075380" lon="24.4193810">
    <ele>1105.5</ele>
   </trkpt>
   <trkpt lat="-29.8075000" lon="24.4193690">
    <ele>1105.2</ele>
   </trkpt>
   <trkpt lat="-29.8074630" lon="24.4193670">
    <ele>1104.8</ele>
   </trkpt>
   <trkpt lat="-29.8074230" lon="24.4193690">
    <ele>1104.4</ele>
   </trkpt>
   <trkpt lat="-29.8073910" lon="24.4193820">
    <ele>1104.4</ele>
   </trkpt>
   <trkpt lat="-29.8073610" lon="24.4194020">
    <ele>1104.5</ele>
   </trkpt>
   <trkpt lat="-29.8073340" lon="24.4194210">
    <ele>1104.5</ele>
   </trkpt>
   <trkpt lat="-29.8073070" lon="24.4194470">
    <ele>1104.5</ele>
   </trkpt>
   <trkpt lat="-29.8072990" lon="24.4194590">
    <ele>1104.6</ele>
   </trkpt>
   <trkpt lat="-29.8072970" lon="24.4194800">
    <ele>1104.6</ele>
   </trkpt>
   <trkpt lat="-29.8072980" lon="24.4194970">
    <ele>1104.6</ele>
   </trkpt>
   <trkpt lat="-29.8072980" lon="24.4195040">
    <ele>1104.6</ele>
   </trkpt>
   <trkpt lat="-29.8072950" lon="24.4195090">
    <ele>1104.6</ele>
   </trkpt>
   <trkpt lat="-29.8072960" lon="24.4195140">
    <ele>1104.6</ele>
   </trkpt>
   <trkpt lat="-29.8072980" lon="24.4195260">
    <ele>1104.6</ele>
   </trkpt>
   <trkpt lat="-29.8073030" lon="24.4195370">
    <ele>1104.6</ele>
   </trkpt>
   <trkpt lat="-29.8073100" lon="24.4195460">
    <ele>1104.6</ele>
   </trkpt>
   <trkpt lat="-29.8073200" lon="24.4195540">
    <ele>1104.6</ele>
   </trkpt>
   <trkpt lat="-29.8073290" lon="24.4195610">
    <ele>1104.6</ele>
   </trkpt>
   <trkpt lat="-29.8073400" lon="24.4195660">
    <ele>1104.6</ele>
   </trkpt>
   <trkpt lat="-29.8073510" lon="24.4195730">
    <ele>1104.6</ele>
   </trkpt>
   <trkpt lat="-29.8073610" lon="24.4195800">
    <ele>1104.6</ele>
   </trkpt>
   <trkpt lat="-29.8073680" lon="24.4195830">
    <ele>1104.6</ele>
   </trkpt>
   <trkpt lat="-29.8073810" lon="24.4195890">
    <ele>1104.6</ele>
   </trkpt>
   <trkpt lat="-29.8073810" lon="24.4195920">
    <ele>1104.6</ele>
   </trkpt>
   <trkpt lat="-29.8073900" lon="24.4195950">
    <ele>1104.7</ele>
   </trkpt>
   <trkpt lat="-29.8073960" lon="24.4195920">
    <ele>1104.7</ele>
   </trkpt>
   <trkpt lat="-29.8074000" lon="24.4195930">
    <ele>1104.7</ele>
   </trkpt>
   <trkpt lat="-29.8073990" lon="24.4195920">
    <ele>1104.7</ele>
   </trkpt>
   <trkpt lat="-29.8073990" lon="24.4195920">
    <ele>1104.7</ele>
   </trkpt>
   <trkpt lat="-29.8073990" lon="24.4195920">
    <ele>1104.7</ele>
   </trkpt>
   <trkpt lat="-29.8073990" lon="24.4195920">
    <ele>1104.7</ele>
   </trkpt>
   <trkpt lat="-29.8073990" lon="24.4195920">
    <ele>1104.7</ele>
   </trkpt>
   <trkpt lat="-29.8073990" lon="24.4195920">
    <ele>1104.7</ele>
   </trkpt>
   <trkpt lat="-29.8075050" lon="24.4195960">
    <ele>1104.7</ele>
   </trkpt>
   <trkpt lat="-29.8075430" lon="24.4195980">
    <ele>1104.7</ele>
   </trkpt>
   <trkpt lat="-29.8075940" lon="24.4196030">
    <ele>1104.8</ele>
   </trkpt>
   <trkpt lat="-29.8076390" lon="24.4196070">
    <ele>1104.8</ele>
   </trkpt>
   <trkpt lat="-29.8076910" lon="24.4196110">
    <ele>1104.9</ele>
   </trkpt>
   <trkpt lat="-29.8077550" lon="24.4196150">
    <ele>1104.9</ele>
   </trkpt>
   <trkpt lat="-29.8078300" lon="24.4196220">
    <ele>1105.0</ele>
   </trkpt>
   <trkpt lat="-29.8079060" lon="24.4196260">
    <ele>1105.1</ele>
   </trkpt>
   <trkpt lat="-29.8079910" lon="24.4196270">
    <ele>1105.2</ele>
   </trkpt>
   <trkpt lat="-29.8080770" lon="24.4196290">
    <ele>1105.3</ele>
   </trkpt>
   <trkpt lat="-29.8081610" lon="24.4196270">
    <ele>1105.5</ele>
   </trkpt>
   <trkpt lat="-29.8082440" lon="24.4196330">
    <ele>1105.6</ele>
   </trkpt>
   <trkpt lat="-29.8083360" lon="24.4196400">
    <ele>1105.8</ele>
   </trkpt>
   <trkpt lat="-29.8084290" lon="24.4196500">
    <ele>1105.9</ele>
   </trkpt>
   <trkpt lat="-29.8085210" lon="24.4196700">
    <ele>1106.1</ele>
   </trkpt>
   <trkpt lat="-29.8086140" lon="24.4196840">
    <ele>1106.3</ele>
   </trkpt>
   <trkpt lat="-29.8087070" lon="24.4196860">
    <ele>1106.5</ele>
   </trkpt>
   <trkpt lat="-29.8087940" lon="24.4196800">
    <ele>1106.7</ele>
   </trkpt>
   <trkpt lat="-29.8088680" lon="24.4196660">
    <ele>1106.8</ele>
   </trkpt>
   <trkpt lat="-29.8089350" lon="24.4196370">
    <ele>1106.9</ele>
   </trkpt>
   <trkpt lat="-29.8089920" lon="24.4195890">
    <ele>1106.9</ele>
   </trkpt>
   <trkpt lat="-29.8090340" lon="24.4195210">
    <ele>1106.9</ele>
   </trkpt>
   <trkpt lat="-29.8090460" lon="24.4194420">
    <ele>1106.9</ele>
   </trkpt>
   <trkpt lat="-29.8090500" lon="24.4193500">
    <ele>1106.9</ele>
   </trkpt>
   <trkpt lat="-29.8090530" lon="24.4192540">
    <ele>1106.9</ele>
   </trkpt>
   <trkpt lat="-29.8090660" lon="24.4191570">
    <ele>1106.9</ele>
   </trkpt>
   <trkpt lat="-29.8090920" lon="24.4190580">
    <ele>1106.9</ele>
   </trkpt>
   <trkpt lat="-29.8091220" lon="24.4189640">
    <ele>1106.9</ele>
   </trkpt>
   <trkpt lat="-29.8091590" lon="24.4188680">
    <ele>1107.0</ele>
   </trkpt>
   <trkpt lat="-29.8091980" lon="24.4187690">
    <ele>1107.1</ele>
   </trkpt>
   <trkpt lat="-29.8092500" lon="24.4186840">
    <ele>1107.2</ele>
   </trkpt>
   <trkpt lat="-29.8093060" lon="24.4186130">
    <ele>1107.3</ele>
   </trkpt>
   <trkpt lat="-29.8093650" lon="24.4185470">
    <ele>1107.5</ele>
   </trkpt>
   <trkpt lat="-29.8094320" lon="24.4184810">
    <ele>1107.6</ele>
   </trkpt>
   <trkpt lat="-29.8095000" lon="24.4184180">
    <ele>1107.7</ele>
   </trkpt>
   <trkpt lat="-29.8095590" lon="24.4183600">
    <ele>1107.8</ele>
   </trkpt>
   <trkpt lat="-29.8096100" lon="24.4183050">
    <ele>1107.9</ele>
   </trkpt>
   <trkpt lat="-29.8096570" lon="24.4182520">
    <ele>1107.9</ele>
   </trkpt>
   <trkpt lat="-29.8097010" lon="24.4181980">
    <ele>1108.0</ele>
   </trkpt>
   <trkpt lat="-29.8097390" lon="24.4181460">
    <ele>1108.0</ele>
   </trkpt>
   <trkpt lat="-29.8097860" lon="24.4180860">
    <ele>1108.1</ele>
   </trkpt>
   <trkpt lat="-29.8098400" lon="24.4180180">
    <ele>1108.1</ele>
   </trkpt>
   <trkpt lat="-29.8099010" lon="24.4179460">
    <ele>1108.2</ele>
   </trkpt>
   <trkpt lat="-29.8099650" lon="24.4178680">
    <ele>1108.3</ele>
   </trkpt>
   <trkpt lat="-29.8100320" lon="24.4177860">
    <ele>1108.4</ele>
   </trkpt>
   <trkpt lat="-29.8101020" lon="24.4176970">
    <ele>1108.6</ele>
   </trkpt>
   <trkpt lat="-29.8101740" lon="24.4176090">
    <ele>1108.7</ele>
   </trkpt>
   <trkpt lat="-29.8102450" lon="24.4175230">
    <ele>1108.8</ele>
   </trkpt>
   <trkpt lat="-29.8103190" lon="24.4174340">
    <ele>1108.8</ele>
   </trkpt>
   <trkpt lat="-29.8103970" lon="24.4173380">
    <ele>1109.0</ele>
   </trkpt>
   <trkpt lat="-29.8104780" lon="24.4172400">
    <ele>1109.2</ele>
   </trkpt>
   <trkpt lat="-29.8105610" lon="24.4171400">
    <ele>1109.5</ele>
   </trkpt>
   <trkpt lat="-29.8106430" lon="24.4170370">
    <ele>1109.8</ele>
   </trkpt>
   <trkpt lat="-29.8107330" lon="24.4169330">
    <ele>1110.1</ele>
   </trkpt>
   <trkpt lat="-29.8108210" lon="24.4168260">
    <ele>1110.3</ele>
   </trkpt>
   <trkpt lat="-29.8109140" lon="24.4167160">
    <ele>1110.6</ele>
   </trkpt>
   <trkpt lat="-29.8110040" lon="24.4166060">
    <ele>1110.7</ele>
   </trkpt>
   <trkpt lat="-29.8110900" lon="24.4165020">
    <ele>1110.9</ele>
   </trkpt>
   <trkpt lat="-29.8111770" lon="24.4163990">
    <ele>1111.1</ele>
   </trkpt>
   <trkpt lat="-29.8112650" lon="24.4162900">
    <ele>1111.3</ele>
   </trkpt>
   <trkpt lat="-29.8113530" lon="24.4161800">
    <ele>1111.5</ele>
   </trkpt>
   <trkpt lat="-29.8114360" lon="24.4160740">
    <ele>1111.7</ele>
   </trkpt>
   <trkpt lat="-29.8115110" lon="24.4159810">
    <ele>1111.8</ele>
   </trkpt>
   <trkpt lat="-29.8115770" lon="24.4158980">
    <ele>1112.0</ele>
   </trkpt>
   <trkpt lat="-29.8116360" lon="24.4158320">
    <ele>1112.1</ele>
   </trkpt>
   <trkpt lat="-29.8116790" lon="24.4157820">
    <ele>1112.1</ele>
   </trkpt>
   <trkpt lat="-29.8117180" lon="24.4157350">
    <ele>1112.2</ele>
   </trkpt>
   <trkpt lat="-29.8117580" lon="24.4156860">
    <ele>1112.2</ele>
   </trkpt>
   <trkpt lat="-29.8118030" lon="24.4156300">
    <ele>1112.2</ele>
   </trkpt>
   <trkpt lat="-29.8118460" lon="24.4155760">
    <ele>1112.3</ele>
   </trkpt>
   <trkpt lat="-29.8118950" lon="24.4155110">
    <ele>1112.3</ele>
   </trkpt>
   <trkpt lat="-29.8119510" lon="24.4154450">
    <ele>1112.4</ele>
   </trkpt>
   <trkpt lat="-29.8120100" lon="24.4153740">
    <ele>1112.4</ele>
   </trkpt>
   <trkpt lat="-29.8120720" lon="24.4152990">
    <ele>1112.4</ele>
   </trkpt>
   <trkpt lat="-29.8121370" lon="24.4152180">
    <ele>1112.5</ele>
   </trkpt>
   <trkpt lat="-29.8122040" lon="24.4151310">
    <ele>1112.4</ele>
   </trkpt>
   <trkpt lat="-29.8122790" lon="24.4150380">
    <ele>1112.3</ele>
   </trkpt>
   <trkpt lat="-29.8123580" lon="24.4149430">
    <ele>1112.2</ele>
   </trkpt>
   <trkpt lat="-29.8124330" lon="24.4148520">
    <ele>1112.1</ele>
   </trkpt>
   <trkpt lat="-29.8125080" lon="24.4147620">
    <ele>1112.0</ele>
   </trkpt>
   <trkpt lat="-29.8125870" lon="24.4146700">
    <ele>1111.9</ele>
   </trkpt>
   <trkpt lat="-29.8126670" lon="24.4145690">
    <ele>1111.9</ele>
   </trkpt>
   <trkpt lat="-29.8127450" lon="24.4144670">
    <ele>1111.8</ele>
   </trkpt>
   <trkpt lat="-29.8128240" lon="24.4143700">
    <ele>1111.8</ele>
   </trkpt>
   <trkpt lat="-29.8128990" lon="24.4142770">
    <ele>1111.8</ele>
   </trkpt>
   <trkpt lat="-29.8129700" lon="24.4141870">
    <ele>1111.8</ele>
   </trkpt>
   <trkpt lat="-29.8130410" lon="24.4141040">
    <ele>1111.8</ele>
   </trkpt>
   <trkpt lat="-29.8131020" lon="24.4140300">
    <ele>1111.8</ele>
   </trkpt>
   <trkpt lat="-29.8131520" lon="24.4139700">
    <ele>1111.8</ele>
   </trkpt>
   <trkpt lat="-29.8131940" lon="24.4139180">
    <ele>1111.7</ele>
   </trkpt>
   <trkpt lat="-29.8132210" lon="24.4138830">
    <ele>1111.7</ele>
   </trkpt>
   <trkpt lat="-29.8132450" lon="24.4138650">
    <ele>1111.7</ele>
   </trkpt>
   <trkpt lat="-29.8132520" lon="24.4138620">
    <ele>1111.7</ele>
   </trkpt>
   <trkpt lat="-29.8132590" lon="24.4138600">
    <ele>1111.7</ele>
   </trkpt>
   <trkpt lat="-29.8132910" lon="24.4138530">
    <ele>1111.8</ele>
   </trkpt>
   <trkpt lat="-29.8133360" lon="24.4138790">
    <ele>1111.7</ele>
   </trkpt>
   <trkpt lat="-29.8133670" lon="24.4139270">
    <ele>1111.9</ele>
   </trkpt>
   <trkpt lat="-29.8133960" lon="24.4139670">
    <ele>1112.0</ele>
   </trkpt>
   <trkpt lat="-29.8134340" lon="24.4140120">
    <ele>1112.1</ele>
   </trkpt>
   <trkpt lat="-29.8134780" lon="24.4140660">
    <ele>1112.3</ele>
   </trkpt>
   <trkpt lat="-29.8135330" lon="24.4141230">
    <ele>1112.5</ele>
   </trkpt>
   <trkpt lat="-29.8135940" lon="24.4141880">
    <ele>1112.6</ele>
   </trkpt>
   <trkpt lat="-29.8136590" lon="24.4142540">
    <ele>1112.8</ele>
   </trkpt>
   <trkpt lat="-29.8137180" lon="24.4143180">
    <ele>1113.0</ele>
   </trkpt>
   <trkpt lat="-29.8137820" lon="24.4143880">
    <ele>1113.1</ele>
   </trkpt>
   <trkpt lat="-29.8138510" lon="24.4144590">
    <ele>1113.3</ele>
   </trkpt>
   <trkpt lat="-29.8139150" lon="24.4145310">
    <ele>1113.5</ele>
   </trkpt>
   <trkpt lat="-29.8139790" lon="24.4145980">
    <ele>1113.7</ele>
   </trkpt>
   <trkpt lat="-29.8140360" lon="24.4146590">
    <ele>1113.9</ele>
   </trkpt>
   <trkpt lat="-29.8140890" lon="24.4147160">
    <ele>1114.1</ele>
   </trkpt>
   <trkpt lat="-29.8141380" lon="24.4147680">
    <ele>1114.2</ele>
   </trkpt>
   <trkpt lat="-29.8141890" lon="24.4148240">
    <ele>1114.4</ele>
   </trkpt>
   <trkpt lat="-29.8142440" lon="24.4148790">
    <ele>1114.6</ele>
   </trkpt>
   <trkpt lat="-29.8142920" lon="24.4149350">
    <ele>1114.7</ele>
   </trkpt>
   <trkpt lat="-29.8143390" lon="24.4149850">
    <ele>1114.8</ele>
   </trkpt>
   <trkpt lat="-29.8143810" lon="24.4150320">
    <ele>1114.9</ele>
   </trkpt>
   <trkpt lat="-29.8144190" lon="24.4150710">
    <ele>1115.1</ele>
   </trkpt>
   <trkpt lat="-29.8144600" lon="24.4151070">
    <ele>1115.2</ele>
   </trkpt>
   <trkpt lat="-29.8145100" lon="24.4151450">
    <ele>1115.4</ele>
   </trkpt>
   <trkpt lat="-29.8145580" lon="24.4151910">
    <ele>1115.6</ele>
   </trkpt>
   <trkpt lat="-29.8146070" lon="24.4152380">
    <ele>1115.8</ele>
   </trkpt>
   <trkpt lat="-29.8146640" lon="24.4152630">
    <ele>1116.0</ele>
   </trkpt>
   <trkpt lat="-29.8147180" lon="24.4152590">
    <ele>1116.2</ele>
   </trkpt>
   <trkpt lat="-29.8147770" lon="24.4152260">
    <ele>1116.2</ele>
   </trkpt>
   <trkpt lat="-29.8148250" lon="24.4151670">
    <ele>1116.2</ele>
   </trkpt>
   <trkpt lat="-29.8148710" lon="24.4150970">
    <ele>1116.2</ele>
   </trkpt>
   <trkpt lat="-29.8149260" lon="24.4150220">
    <ele>1116.2</ele>
   </trkpt>
   <trkpt lat="-29.8149860" lon="24.4149460">
    <ele>1116.2</ele>
   </trkpt>
   <trkpt lat="-29.8150490" lon="24.4148670">
    <ele>1116.3</ele>
   </trkpt>
   <trkpt lat="-29.8151110" lon="24.4147860">
    <ele>1116.3</ele>
   </trkpt>
   <trkpt lat="-29.8151740" lon="24.4147100">
    <ele>1116.3</ele>
   </trkpt>
   <trkpt lat="-29.8152370" lon="24.4146340">
    <ele>1116.4</ele>
   </trkpt>
   <trkpt lat="-29.8153000" lon="24.4145540">
    <ele>1116.4</ele>
   </trkpt>
   <trkpt lat="-29.8153640" lon="24.4144710">
    <ele>1116.4</ele>
   </trkpt>
   <trkpt lat="-29.8154270" lon="24.4143910">
    <ele>1116.5</ele>
   </trkpt>
   <trkpt lat="-29.8154910" lon="24.4143060">
    <ele>1116.5</ele>
   </trkpt>
   <trkpt lat="-29.8155570" lon="24.4142150">
    <ele>1116.6</ele>
   </trkpt>
   <trkpt lat="-29.8156180" lon="24.4141280">
    <ele>1116.7</ele>
   </trkpt>
   <trkpt lat="-29.8156740" lon="24.4140430">
    <ele>1116.7</ele>
   </trkpt>
   <trkpt lat="-29.8157290" lon="24.4139640">
    <ele>1116.8</ele>
   </trkpt>
   <trkpt lat="-29.8157730" lon="24.4138890">
    <ele>1116.9</ele>
   </trkpt>
   <trkpt lat="-29.8158140" lon="24.4138060">
    <ele>1117.0</ele>
   </trkpt>
   <trkpt lat="-29.8158610" lon="24.4137140">
    <ele>1117.0</ele>
   </trkpt>
   <trkpt lat="-29.8159080" lon="24.4136140">
    <ele>1117.0</ele>
   </trkpt>
   <trkpt lat="-29.8159550" lon="24.4135170">
    <ele>1117.1</ele>
   </trkpt>
   <trkpt lat="-29.8159990" lon="24.4134190">
    <ele>1117.1</ele>
   </trkpt>
   <trkpt lat="-29.8160400" lon="24.4133240">
    <ele>1117.1</ele>
   </trkpt>
   <trkpt lat="-29.8160770" lon="24.4132290">
    <ele>1117.1</ele>
   </trkpt>
   <trkpt lat="-29.8161100" lon="24.4131370">
    <ele>1117.2</ele>
   </trkpt>
   <trkpt lat="-29.8161400" lon="24.4130550">
    <ele>1117.2</ele>
   </trkpt>
   <trkpt lat="-29.8161630" lon="24.4129910">
    <ele>1117.2</ele>
   </trkpt>
   <trkpt lat="-29.8161730" lon="24.4129540">
    <ele>1117.2</ele>
   </trkpt>
   <trkpt lat="-29.8161790" lon="24.4129370">
    <ele>1117.2</ele>
   </trkpt>
   <trkpt lat="-29.8161810" lon="24.4129350">
    <ele>1117.2</ele>
   </trkpt>
   <trkpt lat="-29.8161760" lon="24.4129410">
    <ele>1117.2</ele>
   </trkpt>
   <trkpt lat="-29.8161760" lon="24.4129450">
    <ele>1117.2</ele>
   </trkpt>
   <trkpt lat="-29.8161710" lon="24.4129380">
    <ele>1117.2</ele>
   </trkpt>
   <trkpt lat="-29.8161660" lon="24.4129450">
    <ele>1117.2</ele>
   </trkpt>
   <trkpt lat="-29.8161640" lon="24.4129580">
    <ele>1117.3</ele>
   </trkpt>
   <trkpt lat="-29.8161670" lon="24.4129700">
    <ele>1117.3</ele>
   </trkpt>
   <trkpt lat="-29.8161750" lon="24.4129780">
    <ele>1117.3</ele>
   </trkpt>
   <trkpt lat="-29.8161850" lon="24.4129750">
    <ele>1117.3</ele>
   </trkpt>
   <trkpt lat="-29.8161980" lon="24.4129710">
    <ele>1117.3</ele>
   </trkpt>
   <trkpt lat="-29.8162130" lon="24.4129650">
    <ele>1117.4</ele>
   </trkpt>
   <trkpt lat="-29.8162270" lon="24.4129620">
    <ele>1117.4</ele>
   </trkpt>
   <trkpt lat="-29.8162330" lon="24.4129610">
    <ele>1117.4</ele>
   </trkpt>
   <trkpt lat="-29.8162440" lon="24.4129600">
    <ele>1117.4</ele>
   </trkpt>
   <trkpt lat="-29.8162630" lon="24.4129590">
    <ele>1117.5</ele>
   </trkpt>
   <trkpt lat="-29.8162720" lon="24.4129570">
    <ele>1117.5</ele>
   </trkpt>
   <trkpt lat="-29.8162950" lon="24.4129600">
    <ele>1117.5</ele>
   </trkpt>
   <trkpt lat="-29.8163070" lon="24.4129670">
    <ele>1117.6</ele>
   </trkpt>
   <trkpt lat="-29.8163210" lon="24.4129710">
    <ele>1117.8</ele>
   </trkpt>
   <trkpt lat="-29.8163360" lon="24.4129780">
    <ele>1118.0</ele>
   </trkpt>
   <trkpt lat="-29.8163500" lon="24.4129790">
    <ele>1118.1</ele>
   </trkpt>
   <trkpt lat="-29.8163610" lon="24.4129820">
    <ele>1118.3</ele>
   </trkpt>
   <trkpt lat="-29.8163690" lon="24.4129880">
    <ele>1118.4</ele>
   </trkpt>
   <trkpt lat="-29.8163810" lon="24.4129920">
    <ele>1118.6</ele>
   </trkpt>
   <trkpt lat="-29.8163920" lon="24.4129980">
    <ele>1118.7</ele>
   </trkpt>
   <trkpt lat="-29.8164000" lon="24.4130020">
    <ele>1118.8</ele>
   </trkpt>
   <trkpt lat="-29.8164110" lon="24.4130080">
    <ele>1119.0</ele>
   </trkpt>
   <trkpt lat="-29.8164290" lon="24.4130120">
    <ele>1119.2</ele>
   </trkpt>
   <trkpt lat="-29.8164400" lon="24.4130180">
    <ele>1119.4</ele>
   </trkpt>
   <trkpt lat="-29.8164510" lon="24.4130250">
    <ele>1119.6</ele>
   </trkpt>
   <trkpt lat="-29.8164720" lon="24.4130350">
    <ele>1120.0</ele>
   </trkpt>
   <trkpt lat="-29.8164810" lon="24.4130370">
    <ele>1120.1</ele>
   </trkpt>
   <trkpt lat="-29.8164900" lon="24.4130400">
    <ele>1120.3</ele>
   </trkpt>
   <trkpt lat="-29.8165040" lon="24.4130480">
    <ele>1120.6</ele>
   </trkpt>
   <trkpt lat="-29.8165160" lon="24.4130540">
    <ele>1120.8</ele>
   </trkpt>
   <trkpt lat="-29.8165280" lon="24.4130610">
    <ele>1121.1</ele>
   </trkpt>
   <trkpt lat="-29.8165400" lon="24.4130680">
    <ele>1121.3</ele>
   </trkpt>
   <trkpt lat="-29.8165490" lon="24.4130700">
    <ele>1121.5</ele>
   </trkpt>
   <trkpt lat="-29.8165580" lon="24.4130730">
    <ele>1121.7</ele>
   </trkpt>
   <trkpt lat="-29.8165630" lon="24.4130740">
    <ele>1121.8</ele>
   </trkpt>
   <trkpt lat="-29.8165740" lon="24.4130780">
    <ele>1122.1</ele>
   </trkpt>
   <trkpt lat="-29.8165770" lon="24.4130790">
    <ele>1122.2</ele>
   </trkpt>
   <trkpt lat="-29.8165860" lon="24.4130860">
    <ele>1122.4</ele>
   </trkpt>
   <trkpt lat="-29.8165950" lon="24.4130890">
    <ele>1122.6</ele>
   </trkpt>
   <trkpt lat="-29.8166050" lon="24.4130920">
    <ele>1122.9</ele>
   </trkpt>
   <trkpt lat="-29.8166140" lon="24.4130950">
    <ele>1123.1</ele>
   </trkpt>
   <trkpt lat="-29.8166200" lon="24.4131000">
    <ele>1123.3</ele>
   </trkpt>
   <trkpt lat="-29.8166290" lon="24.4131060">
    <ele>1123.6</ele>
   </trkpt>
   <trkpt lat="-29.8166370" lon="24.4131080">
    <ele>1123.8</ele>
   </trkpt>
   <trkpt lat="-29.8166460" lon="24.4131120">
    <ele>1124.0</ele>
   </trkpt>
   <trkpt lat="-29.8166510" lon="24.4131170">
    <ele>1124.2</ele>
   </trkpt>
   <trkpt lat="-29.8166580" lon="24.4131200">
    <ele>1124.4</ele>
   </trkpt>
   <trkpt lat="-29.8166640" lon="24.4131240">
    <ele>1124.6</ele>
   </trkpt>
   <trkpt lat="-29.8166800" lon="24.4131290">
    <ele>1125.0</ele>
   </trkpt>
   <trkpt lat="-29.8166870" lon="24.4131320">
    <ele>1125.2</ele>
   </trkpt>
   <trkpt lat="-29.8166930" lon="24.4131340">
    <ele>1125.3</ele>
   </trkpt>
   <trkpt lat="-29.8167000" lon="24.4131370">
    <ele>1125.5</ele>
   </trkpt>
   <trkpt lat="-29.8167110" lon="24.4131420">
    <ele>1125.8</ele>
   </trkpt>
   <trkpt lat="-29.8167190" lon="24.4131420">
    <ele>1126.0</ele>
   </trkpt>
   <trkpt lat="-29.8167290" lon="24.4131470">
    <ele>1126.3</ele>
   </trkpt>
   <trkpt lat="-29.8167480" lon="24.4131520">
    <ele>1126.7</ele>
   </trkpt>
   <trkpt lat="-29.8167560" lon="24.4131530">
    <ele>1126.9</ele>
   </trkpt>
   <trkpt lat="-29.8167650" lon="24.4131550">
    <ele>1127.2</ele>
   </trkpt>
   <trkpt lat="-29.8167730" lon="24.4131540">
    <ele>1127.2</ele>
   </trkpt>
   <trkpt lat="-29.8167810" lon="24.4131530">
    <ele>1127.3</ele>
   </trkpt>
   <trkpt lat="-29.8167960" lon="24.4131530">
    <ele>1127.4</ele>
   </trkpt>
   <trkpt lat="-29.8168200" lon="24.4131530">
    <ele>1127.5</ele>
   </trkpt>
   <trkpt lat="-29.8168280" lon="24.4131530">
    <ele>1127.6</ele>
   </trkpt>
   <trkpt lat="-29.8168360" lon="24.4131540">
    <ele>1127.6</ele>
   </trkpt>
   <trkpt lat="-29.8168440" lon="24.4131550">
    <ele>1127.7</ele>
   </trkpt>
   <trkpt lat="-29.8168580" lon="24.4131540">
    <ele>1127.8</ele>
   </trkpt>
   <trkpt lat="-29.8168690" lon="24.4131530">
    <ele>1127.8</ele>
   </trkpt>
   <trkpt lat="-29.8168790" lon="24.4131540">
    <ele>1127.8</ele>
   </trkpt>
   <trkpt lat="-29.8168910" lon="24.4131520">
    <ele>1127.9</ele>
   </trkpt>
   <trkpt lat="-29.8169030" lon="24.4131520">
    <ele>1127.9</ele>
   </trkpt>
   <trkpt lat="-29.8169230" lon="24.4131510">
    <ele>1128.0</ele>
   </trkpt>
   <trkpt lat="-29.8169340" lon="24.4131530">
    <ele>1128.0</ele>
   </trkpt>
   <trkpt lat="-29.8169440" lon="24.4131540">
    <ele>1128.0</ele>
   </trkpt>
   <trkpt lat="-29.8169570" lon="24.4131530">
    <ele>1128.1</ele>
   </trkpt>
   <trkpt lat="-29.8169710" lon="24.4131520">
    <ele>1128.1</ele>
   </trkpt>
   <trkpt lat="-29.8169930" lon="24.4131530">
    <ele>1128.1</ele>
   </trkpt>
   <trkpt lat="-29.8170030" lon="24.4131530">
    <ele>1128.1</ele>
   </trkpt>
   <trkpt lat="-29.8170120" lon="24.4131530">
    <ele>1128.1</ele>
   </trkpt>
   <trkpt lat="-29.8170260" lon="24.4131590">
    <ele>1128.1</ele>
   </trkpt>
   <trkpt lat="-29.8170370" lon="24.4131570">
    <ele>1128.1</ele>
   </trkpt>
   <trkpt lat="-29.8170460" lon="24.4131550">
    <ele>1128.2</ele>
   </trkpt>
   <trkpt lat="-29.8170530" lon="24.4131490">
    <ele>1128.2</ele>
   </trkpt>
   <trkpt lat="-29.8170680" lon="24.4131450">
    <ele>1128.2</ele>
   </trkpt>
   <trkpt lat="-29.8170760" lon="24.4131420">
    <ele>1128.2</ele>
   </trkpt>
   <trkpt lat="-29.8170970" lon="24.4131420">
    <ele>1128.2</ele>
   </trkpt>
   <trkpt lat="-29.8171060" lon="24.4131410">
    <ele>1128.2</ele>
   </trkpt>
   <trkpt lat="-29.8171160" lon="24.4131390">
    <ele>1128.2</ele>
   </trkpt>
   <trkpt lat="-29.8171400" lon="24.4131400">
    <ele>1128.2</ele>
   </trkpt>
   <trkpt lat="-29.8171530" lon="24.4131410">
    <ele>1128.3</ele>
   </trkpt>
   <trkpt lat="-29.8171540" lon="24.4131320">
    <ele>1128.3</ele>
   </trkpt>
   <trkpt lat="-29.8171690" lon="24.4131320">
    <ele>1128.3</ele>
   </trkpt>
   <trkpt lat="-29.8171850" lon="24.4131350">
    <ele>1128.3</ele>
   </trkpt>
   <trkpt lat="-29.8171990" lon="24.4131390">
    <ele>1128.3</ele>
   </trkpt>
   <trkpt lat="-29.8172130" lon="24.4131400">
    <ele>1128.3</ele>
   </trkpt>
   <trkpt lat="-29.8172270" lon="24.4131440">
    <ele>1128.4</ele>
   </trkpt>
   <trkpt lat="-29.8172410" lon="24.4131470">
    <ele>1128.4</ele>
   </trkpt>
   <trkpt lat="-29.8172550" lon="24.4131490">
    <ele>1128.4</ele>
   </trkpt>
   <trkpt lat="-29.8172680" lon="24.4131540">
    <ele>1128.5</ele>
   </trkpt>
   <trkpt lat="-29.8172900" lon="24.4131630">
    <ele>1128.5</ele>
   </trkpt>
   <trkpt lat="-29.8173000" lon="24.4131660">
    <ele>1128.5</ele>
   </trkpt>
   <trkpt lat="-29.8173100" lon="24.4131700">
    <ele>1128.6</ele>
   </trkpt>
   <trkpt lat="-29.8173210" lon="24.4131690">
    <ele>1128.6</ele>
   </trkpt>
   <trkpt lat="-29.8173310" lon="24.4131730">
    <ele>1128.6</ele>
   </trkpt>
   <trkpt lat="-29.8173440" lon="24.4131770">
    <ele>1128.6</ele>
   </trkpt>
   <trkpt lat="-29.8173650" lon="24.4131840">
    <ele>1128.7</ele>
   </trkpt>
   <trkpt lat="-29.8173730" lon="24.4131880">
    <ele>1128.7</ele>
   </trkpt>
   <trkpt lat="-29.8173810" lon="24.4131920">
    <ele>1128.7</ele>
   </trkpt>
   <trkpt lat="-29.8173940" lon="24.4131990">
    <ele>1128.7</ele>
   </trkpt>
   <trkpt lat="-29.8174070" lon="24.4132040">
    <ele>1128.8</ele>
   </trkpt>
   <trkpt lat="-29.8174280" lon="24.4132080">
    <ele>1128.8</ele>
   </trkpt>
   <trkpt lat="-29.8174370" lon="24.4132100">
    <ele>1128.8</ele>
   </trkpt>
   <trkpt lat="-29.8174450" lon="24.4132130">
    <ele>1128.8</ele>
   </trkpt>
   <trkpt lat="-29.8174580" lon="24.4132140">
    <ele>1128.9</ele>
   </trkpt>
   <trkpt lat="-29.8174720" lon="24.4132220">
    <ele>1128.9</ele>
   </trkpt>
   <trkpt lat="-29.8174860" lon="24.4132240">
    <ele>1128.9</ele>
   </trkpt>
   <trkpt lat="-29.8174990" lon="24.4132390">
    <ele>1129.0</ele>
   </trkpt>
   <trkpt lat="-29.8175130" lon="24.4132480">
    <ele>1129.0</ele>
   </trkpt>
   <trkpt lat="-29.8175260" lon="24.4132540">
    <ele>1129.0</ele>
   </trkpt>
   <trkpt lat="-29.8175400" lon="24.4132600">
    <ele>1129.1</ele>
   </trkpt>
   <trkpt lat="-29.8175530" lon="24.4132670">
    <ele>1129.1</ele>
   </trkpt>
   <trkpt lat="-29.8175670" lon="24.4132660">
    <ele>1129.1</ele>
   </trkpt>
   <trkpt lat="-29.8175810" lon="24.4132600">
    <ele>1129.2</ele>
   </trkpt>
   <trkpt lat="-29.8175940" lon="24.4132530">
    <ele>1129.2</ele>
   </trkpt>
   <trkpt lat="-29.8176070" lon="24.4132500">
    <ele>1129.2</ele>
   </trkpt>
   <trkpt lat="-29.8176220" lon="24.4132510">
    <ele>1129.2</ele>
   </trkpt>
   <trkpt lat="-29.8176360" lon="24.4132520">
    <ele>1129.3</ele>
   </trkpt>
   <trkpt lat="-29.8176470" lon="24.4132570">
    <ele>1129.3</ele>
   </trkpt>
   <trkpt lat="-29.8176570" lon="24.4132580">
    <ele>1129.3</ele>
   </trkpt>
   <trkpt lat="-29.8176660" lon="24.4132660">
    <ele>1129.3</ele>
   </trkpt>
   <trkpt lat="-29.8176780" lon="24.4132680">
    <ele>1129.3</ele>
   </trkpt>
   <trkpt lat="-29.8176950" lon="24.4132690">
    <ele>1129.4</ele>
   </trkpt>
   <trkpt lat="-29.8177170" lon="24.4132730">
    <ele>1129.4</ele>
   </trkpt>
   <trkpt lat="-29.8177260" lon="24.4132750">
    <ele>1129.4</ele>
   </trkpt>
   <trkpt lat="-29.8177350" lon="24.4132770">
    <ele>1129.4</ele>
   </trkpt>
   <trkpt lat="-29.8177540" lon="24.4132790">
    <ele>1129.4</ele>
   </trkpt>
   <trkpt lat="-29.8177630" lon="24.4132780">
    <ele>1129.5</ele>
   </trkpt>
   <trkpt lat="-29.8177720" lon="24.4132780">
    <ele>1129.5</ele>
   </trkpt>
   <trkpt lat="-29.8177860" lon="24.4132820">
    <ele>1129.5</ele>
   </trkpt>
   <trkpt lat="-29.8177990" lon="24.4132860">
    <ele>1129.5</ele>
   </trkpt>
   <trkpt lat="-29.8178140" lon="24.4132890">
    <ele>1129.5</ele>
   </trkpt>
   <trkpt lat="-29.8178270" lon="24.4132940">
    <ele>1129.5</ele>
   </trkpt>
   <trkpt lat="-29.8178410" lon="24.4132960">
    <ele>1129.6</ele>
   </trkpt>
   <trkpt lat="-29.8178540" lon="24.4133000">
    <ele>1129.6</ele>
   </trkpt>
   <trkpt lat="-29.8178660" lon="24.4133060">
    <ele>1129.6</ele>
   </trkpt>
   <trkpt lat="-29.8178770" lon="24.4133100">
    <ele>1129.6</ele>
   </trkpt>
   <trkpt lat="-29.8178870" lon="24.4133100">
    <ele>1129.6</ele>
   </trkpt>
   <trkpt lat="-29.8179090" lon="24.4133130">
    <ele>1129.7</ele>
   </trkpt>
   <trkpt lat="-29.8179170" lon="24.4133180">
    <ele>1129.7</ele>
   </trkpt>
   <trkpt lat="-29.8179250" lon="24.4133220">
    <ele>1129.7</ele>
   </trkpt>
   <trkpt lat="-29.8179380" lon="24.4133280">
    <ele>1129.7</ele>
   </trkpt>
   <trkpt lat="-29.8179580" lon="24.4133380">
    <ele>1129.8</ele>
   </trkpt>
   <trkpt lat="-29.8179790" lon="24.4133490">
    <ele>1129.8</ele>
   </trkpt>
   <trkpt lat="-29.8179870" lon="24.4133520">
    <ele>1129.8</ele>
   </trkpt>
   <trkpt lat="-29.8179940" lon="24.4133550">
    <ele>1129.8</ele>
   </trkpt>
   <trkpt lat="-29.8180050" lon="24.4133610">
    <ele>1129.8</ele>
   </trkpt>
   <trkpt lat="-29.8180140" lon="24.4133630">
    <ele>1129.7</ele>
   </trkpt>
   <trkpt lat="-29.8180230" lon="24.4133650">
    <ele>1129.7</ele>
   </trkpt>
   <trkpt lat="-29.8180320" lon="24.4133610">
    <ele>1129.7</ele>
   </trkpt>
   <trkpt lat="-29.8180400" lon="24.4133580">
    <ele>1129.7</ele>
   </trkpt>
   <trkpt lat="-29.8180450" lon="24.4133540">
    <ele>1129.7</ele>
   </trkpt>
   <trkpt lat="-29.8180510" lon="24.4133490">
    <ele>1129.7</ele>
   </trkpt>
   <trkpt lat="-29.8180580" lon="24.4133440">
    <ele>1129.7</ele>
   </trkpt>
   <trkpt lat="-29.8180680" lon="24.4133390">
    <ele>1129.7</ele>
   </trkpt>
   <trkpt lat="-29.8180760" lon="24.4133360">
    <ele>1129.7</ele>
   </trkpt>
   <trkpt lat="-29.8180880" lon="24.4133320">
    <ele>1129.7</ele>
   </trkpt>
   <trkpt lat="-29.8180940" lon="24.4133320">
    <ele>1129.7</ele>
   </trkpt>
   <trkpt lat="-29.8180990" lon="24.4133330">
    <ele>1129.7</ele>
   </trkpt>
   <trkpt lat="-29.8181050" lon="24.4133330">
    <ele>1129.7</ele>
   </trkpt>
   <trkpt lat="-29.8181100" lon="24.4133340">
    <ele>1129.7</ele>
   </trkpt>
   <trkpt lat="-29.8181150" lon="24.4133350">
    <ele>1129.7</ele>
   </trkpt>
   <trkpt lat="-29.8181210" lon="24.4133350">
    <ele>1129.7</ele>
   </trkpt>
   <trkpt lat="-29.8181260" lon="24.4133360">
    <ele>1129.7</ele>
   </trkpt>
   <trkpt lat="-29.8181140" lon="24.4133540">
    <ele>1129.7</ele>
   </trkpt>
   <trkpt lat="-29.8181090" lon="24.4133540">
    <ele>1129.7</ele>
   </trkpt>
   <trkpt lat="-29.8181030" lon="24.4133570">
    <ele>1129.7</ele>
   </trkpt>
   <trkpt lat="-29.8180980" lon="24.4133520">
    <ele>1129.7</ele>
   </trkpt>
   <trkpt lat="-29.8180950" lon="24.4133470">
    <ele>1129.7</ele>
   </trkpt>
   <trkpt lat="-29.8180910" lon="24.4133420">
    <ele>1129.7</ele>
   </trkpt>
   <trkpt lat="-29.8180880" lon="24.4133370">
    <ele>1129.7</ele>
   </trkpt>
   <trkpt lat="-29.8180840" lon="24.4133320">
    <ele>1129.7</ele>
   </trkpt>
   <trkpt lat="-29.8180800" lon="24.4133270">
    <ele>1129.7</ele>
   </trkpt>
   <trkpt lat="-29.8180770" lon="24.4133220">
    <ele>1129.7</ele>
   </trkpt>
   <trkpt lat="-29.8180730" lon="24.4133170">
    <ele>1129.7</ele>
   </trkpt>
   <trkpt lat="-29.8180540" lon="24.4132670">
    <ele>1129.8</ele>
   </trkpt>
   <trkpt lat="-29.8180340" lon="24.4132110">
    <ele>1129.8</ele>
   </trkpt>
   <trkpt lat="-29.8180160" lon="24.4131480">
    <ele>1129.8</ele>
   </trkpt>
   <trkpt lat="-29.8180000" lon="24.4130790">
    <ele>1129.8</ele>
   </trkpt>
   <trkpt lat="-29.8179910" lon="24.4130460">
    <ele>1129.8</ele>
   </trkpt>
   <trkpt lat="-29.8179730" lon="24.4129420">
    <ele>1129.8</ele>
   </trkpt>
   <trkpt lat="-29.8179700" lon="24.4128680">
    <ele>1129.7</ele>
   </trkpt>
   <trkpt lat="-29.8179700" lon="24.4127940">
    <ele>1129.7</ele>
   </trkpt>
   <trkpt lat="-29.8179730" lon="24.4127040">
    <ele>1129.6</ele>
   </trkpt>
   <trkpt lat="-29.8179800" lon="24.4126040">
    <ele>1129.4</ele>
   </trkpt>
   <trkpt lat="-29.8179980" lon="24.4124990">
    <ele>1129.5</ele>
   </trkpt>
   <trkpt lat="-29.8180200" lon="24.4123890">
    <ele>1129.4</ele>
   </trkpt>
   <trkpt lat="-29.8180510" lon="24.4122770">
    <ele>1129.3</ele>
   </trkpt>
   <trkpt lat="-29.8180900" lon="24.4121710">
    <ele>1129.1</ele>
   </trkpt>
   <trkpt lat="-29.8181290" lon="24.4120650">
    <ele>1129.7</ele>
   </trkpt>
   <trkpt lat="-29.8181640" lon="24.4119720">
    <ele>1130.4</ele>
   </trkpt>
   <trkpt lat="-29.8182020" lon="24.4118880">
    <ele>1131.0</ele>
   </trkpt>
   <trkpt lat="-29.8182410" lon="24.4118130">
    <ele>1131.6</ele>
   </trkpt>
   <trkpt lat="-29.8182770" lon="24.4117530">
    <ele>1132.0</ele>
   </trkpt>
   <trkpt lat="-29.8183020" lon="24.4117140">
    <ele>1132.3</ele>
   </trkpt>
   <trkpt lat="-29.8183240" lon="24.4116880">
    <ele>1132.6</ele>
   </trkpt>
   <trkpt lat="-29.8183300" lon="24.4116860">
    <ele>1132.6</ele>
   </trkpt>
   <trkpt lat="-29.8183230" lon="24.4116930">
    <ele>1132.7</ele>
   </trkpt>
   <trkpt lat="-29.8183170" lon="24.4117020">
    <ele>1132.8</ele>
   </trkpt>
   <trkpt lat="-29.8183200" lon="24.4117040">
    <ele>1132.8</ele>
   </trkpt>
   <trkpt lat="-29.8183300" lon="24.4116790">
    <ele>1133.0</ele>
   </trkpt>
   <trkpt lat="-29.8183260" lon="24.4116700">
    <ele>1133.0</ele>
   </trkpt>
   <trkpt lat="-29.8183200" lon="24.4116540">
    <ele>1132.9</ele>
   </trkpt>
   <trkpt lat="-29.8183120" lon="24.4116340">
    <ele>1132.9</ele>
   </trkpt>
   <trkpt lat="-29.8183040" lon="24.4116190">
    <ele>1132.8</ele>
   </trkpt>
   <trkpt lat="-29.8183020" lon="24.4116020">
    <ele>1132.8</ele>
   </trkpt>
   <trkpt lat="-29.8183010" lon="24.4115810">
    <ele>1132.7</ele>
   </trkpt>
   <trkpt lat="-29.8182950" lon="24.4115660">
    <ele>1132.7</ele>
   </trkpt>
   <trkpt lat="-29.8182930" lon="24.4115510">
    <ele>1132.6</ele>
   </trkpt>
   <trkpt lat="-29.8182830" lon="24.4115270">
    <ele>1132.4</ele>
   </trkpt>
   <trkpt lat="-29.8182810" lon="24.4115180">
    <ele>1132.3</ele>
   </trkpt>
   <trkpt lat="-29.8182790" lon="24.4115090">
    <ele>1132.2</ele>
   </trkpt>
   <trkpt lat="-29.8182640" lon="24.4114970">
    <ele>1132.0</ele>
   </trkpt>
   <trkpt lat="-29.8182520" lon="24.4114920">
    <ele>1131.8</ele>
   </trkpt>
   <trkpt lat="-29.8182400" lon="24.4114850">
    <ele>1131.7</ele>
   </trkpt>
   <trkpt lat="-29.8182210" lon="24.4114890">
    <ele>1131.4</ele>
   </trkpt>
   <trkpt lat="-29.8182110" lon="24.4114730">
    <ele>1131.4</ele>
   </trkpt>
   <trkpt lat="-29.8181950" lon="24.4114700">
    <ele>1131.4</ele>
   </trkpt>
   <trkpt lat="-29.8181810" lon="24.4114610">
    <ele>1131.3</ele>
   </trkpt>
   <trkpt lat="-29.8181650" lon="24.4114570">
    <ele>1131.3</ele>
   </trkpt>
   <trkpt lat="-29.8181510" lon="24.4114510">
    <ele>1131.3</ele>
   </trkpt>
   <trkpt lat="-29.8181370" lon="24.4114460">
    <ele>1131.3</ele>
   </trkpt>
   <trkpt lat="-29.8181230" lon="24.4114420">
    <ele>1131.3</ele>
   </trkpt>
   <trkpt lat="-29.8181100" lon="24.4114400">
    <ele>1131.3</ele>
   </trkpt>
   <trkpt lat="-29.8180970" lon="24.4114490">
    <ele>1131.3</ele>
   </trkpt>
   <trkpt lat="-29.8180850" lon="24.4114530">
    <ele>1131.2</ele>
   </trkpt>
   <trkpt lat="-29.8180700" lon="24.4114480">
    <ele>1131.2</ele>
   </trkpt>
   <trkpt lat="-29.8180550" lon="24.4114420">
    <ele>1131.2</ele>
   </trkpt>
   <trkpt lat="-29.8180400" lon="24.4114390">
    <ele>1131.2</ele>
   </trkpt>
   <trkpt lat="-29.8180260" lon="24.4114310">
    <ele>1131.2</ele>
   </trkpt>
   <trkpt lat="-29.8180120" lon="24.4114280">
    <ele>1131.2</ele>
   </trkpt>
   <trkpt lat="-29.8179990" lon="24.4114300">
    <ele>1131.1</ele>
   </trkpt>
   <trkpt lat="-29.8179780" lon="24.4114300">
    <ele>1131.1</ele>
   </trkpt>
   <trkpt lat="-29.8179690" lon="24.4114270">
    <ele>1131.1</ele>
   </trkpt>
   <trkpt lat="-29.8179610" lon="24.4114250">
    <ele>1131.1</ele>
   </trkpt>
   <trkpt lat="-29.8179390" lon="24.4114250">
    <ele>1131.1</ele>
   </trkpt>
   <trkpt lat="-29.8179300" lon="24.4114240">
    <ele>1131.1</ele>
   </trkpt>
   <trkpt lat="-29.8179220" lon="24.4114220">
    <ele>1131.1</ele>
   </trkpt>
   <trkpt lat="-29.8179010" lon="24.4114250">
    <ele>1131.0</ele>
   </trkpt>
   <trkpt lat="-29.8178940" lon="24.4114340">
    <ele>1131.0</ele>
   </trkpt>
   <trkpt lat="-29.8178860" lon="24.4114440">
    <ele>1131.0</ele>
   </trkpt>
   <trkpt lat="-29.8178640" lon="24.4114420">
    <ele>1131.0</ele>
   </trkpt>
   <trkpt lat="-29.8178560" lon="24.4114390">
    <ele>1131.0</ele>
   </trkpt>
   <trkpt lat="-29.8178480" lon="24.4114350">
    <ele>1131.0</ele>
   </trkpt>
   <trkpt lat="-29.8178380" lon="24.4114270">
    <ele>1131.0</ele>
   </trkpt>
   <trkpt lat="-29.8178270" lon="24.4114130">
    <ele>1131.0</ele>
   </trkpt>
   <trkpt lat="-29.8178130" lon="24.4113940">
    <ele>1131.0</ele>
   </trkpt>
   <trkpt lat="-29.8178060" lon="24.4113850">
    <ele>1131.0</ele>
   </trkpt>
   <trkpt lat="-29.8178000" lon="24.4113750">
    <ele>1131.0</ele>
   </trkpt>
   <trkpt lat="-29.8177950" lon="24.4113590">
    <ele>1131.0</ele>
   </trkpt>
   <trkpt lat="-29.8177910" lon="24.4113420">
    <ele>1131.0</ele>
   </trkpt>
   <trkpt lat="-29.8177900" lon="24.4113250">
    <ele>1131.0</ele>
   </trkpt>
   <trkpt lat="-29.8177890" lon="24.4113060">
    <ele>1131.0</ele>
   </trkpt>
   <trkpt lat="-29.8177880" lon="24.4112890">
    <ele>1131.0</ele>
   </trkpt>
   <trkpt lat="-29.8177860" lon="24.4112750">
    <ele>1131.0</ele>
   </trkpt>
   <trkpt lat="-29.8177900" lon="24.4112640">
    <ele>1131.0</ele>
   </trkpt>
   <trkpt lat="-29.8178000" lon="24.4112520">
    <ele>1131.1</ele>
   </trkpt>
   <trkpt lat="-29.8178090" lon="24.4112480">
    <ele>1131.1</ele>
   </trkpt>
   <trkpt lat="-29.8178250" lon="24.4112450">
    <ele>1131.1</ele>
   </trkpt>
   <trkpt lat="-29.8178410" lon="24.4112460">
    <ele>1131.1</ele>
   </trkpt>
   <trkpt lat="-29.8178610" lon="24.4112450">
    <ele>1131.1</ele>
   </trkpt>
   <trkpt lat="-29.8178710" lon="24.4112440">
    <ele>1131.1</ele>
   </trkpt>
   <trkpt lat="-29.8178800" lon="24.4112430">
    <ele>1131.1</ele>
   </trkpt>
   <trkpt lat="-29.8179030" lon="24.4112440">
    <ele>1131.1</ele>
   </trkpt>
   <trkpt lat="-29.8179140" lon="24.4112420">
    <ele>1131.1</ele>
   </trkpt>
   <trkpt lat="-29.8179240" lon="24.4112410">
    <ele>1131.2</ele>
   </trkpt>
   <trkpt lat="-29.8179380" lon="24.4112410">
    <ele>1131.2</ele>
   </trkpt>
   <trkpt lat="-29.8179520" lon="24.4112270">
    <ele>1131.2</ele>
   </trkpt>
   <trkpt lat="-29.8179660" lon="24.4112170">
    <ele>1131.2</ele>
   </trkpt>
   <trkpt lat="-29.8179690" lon="24.4111970">
    <ele>1131.2</ele>
   </trkpt>
   <trkpt lat="-29.8179720" lon="24.4111790">
    <ele>1131.2</ele>
   </trkpt>
   <trkpt lat="-29.8179720" lon="24.4111630">
    <ele>1131.2</ele>
   </trkpt>
   <trkpt lat="-29.8179710" lon="24.4111490">
    <ele>1131.2</ele>
   </trkpt>
   <trkpt lat="-29.8179730" lon="24.4111410">
    <ele>1131.2</ele>
   </trkpt>
   <trkpt lat="-29.8179680" lon="24.4111240">
    <ele>1131.3</ele>
   </trkpt>
   <trkpt lat="-29.8179650" lon="24.4111120">
    <ele>1131.3</ele>
   </trkpt>
   <trkpt lat="-29.8179610" lon="24.4110910">
    <ele>1131.3</ele>
   </trkpt>
   <trkpt lat="-29.8179570" lon="24.4110690">
    <ele>1131.3</ele>
   </trkpt>
   <trkpt lat="-29.8179560" lon="24.4110550">
    <ele>1131.3</ele>
   </trkpt>
   <trkpt lat="-29.8179520" lon="24.4110380">
    <ele>1131.3</ele>
   </trkpt>
   <trkpt lat="-29.8179510" lon="24.4110230">
    <ele>1131.3</ele>
   </trkpt>
   <trkpt lat="-29.8179450" lon="24.4109990">
    <ele>1131.4</ele>
   </trkpt>
   <trkpt lat="-29.8179400" lon="24.4109870">
    <ele>1131.4</ele>
   </trkpt>
   <trkpt lat="-29.8179340" lon="24.4109750">
    <ele>1131.4</ele>
   </trkpt>
   <trkpt lat="-29.8179330" lon="24.4109610">
    <ele>1131.4</ele>
   </trkpt>
   <trkpt lat="-29.8179320" lon="24.4109450">
    <ele>1131.4</ele>
   </trkpt>
   <trkpt lat="-29.8179420" lon="24.4109380">
    <ele>1131.4</ele>
   </trkpt>
   <trkpt lat="-29.8179510" lon="24.4109200">
    <ele>1131.4</ele>
   </trkpt>
   <trkpt lat="-29.8179600" lon="24.4109140">
    <ele>1131.4</ele>
   </trkpt>
   <trkpt lat="-29.8179680" lon="24.4109080">
    <ele>1131.4</ele>
   </trkpt>
   <trkpt lat="-29.8179840" lon="24.4109020">
    <ele>1131.4</ele>
   </trkpt>
   <trkpt lat="-29.8179960" lon="24.4108950">
    <ele>1131.5</ele>
   </trkpt>
   <trkpt lat="-29.8180130" lon="24.4108910">
    <ele>1131.5</ele>
   </trkpt>
   <trkpt lat="-29.8180280" lon="24.4108920">
    <ele>1131.5</ele>
   </trkpt>
   <trkpt lat="-29.8180440" lon="24.4108930">
    <ele>1131.5</ele>
   </trkpt>
   <trkpt lat="-29.8180600" lon="24.4108920">
    <ele>1131.5</ele>
   </trkpt>
   <trkpt lat="-29.8180730" lon="24.4109040">
    <ele>1131.5</ele>
   </trkpt>
   <trkpt lat="-29.8180840" lon="24.4109140">
    <ele>1131.5</ele>
   </trkpt>
   <trkpt lat="-29.8180980" lon="24.4109200">
    <ele>1131.5</ele>
   </trkpt>
   <trkpt lat="-29.8181080" lon="24.4109310">
    <ele>1131.6</ele>
   </trkpt>
   <trkpt lat="-29.8181210" lon="24.4109420">
    <ele>1131.6</ele>
   </trkpt>
   <trkpt lat="-29.8181280" lon="24.4109550">
    <ele>1131.6</ele>
   </trkpt>
   <trkpt lat="-29.8181370" lon="24.4109680">
    <ele>1131.6</ele>
   </trkpt>
   <trkpt lat="-29.8181460" lon="24.4109820">
    <ele>1131.6</ele>
   </trkpt>
   <trkpt lat="-29.8181500" lon="24.4109980">
    <ele>1131.6</ele>
   </trkpt>
   <trkpt lat="-29.8181560" lon="24.4110110">
    <ele>1131.6</ele>
   </trkpt>
   <trkpt lat="-29.8181630" lon="24.4110250">
    <ele>1131.6</ele>
   </trkpt>
   <trkpt lat="-29.8181710" lon="24.4110390">
    <ele>1131.7</ele>
   </trkpt>
   <trkpt lat="-29.8181740" lon="24.4110540">
    <ele>1131.6</ele>
   </trkpt>
   <trkpt lat="-29.8181800" lon="24.4110710">
    <ele>1131.6</ele>
   </trkpt>
   <trkpt lat="-29.8181840" lon="24.4110850">
    <ele>1131.6</ele>
   </trkpt>
   <trkpt lat="-29.8181900" lon="24.4111010">
    <ele>1131.6</ele>
   </trkpt>
   <trkpt lat="-29.8181960" lon="24.4111140">
    <ele>1131.6</ele>
   </trkpt>
   <trkpt lat="-29.8181970" lon="24.4111310">
    <ele>1131.5</ele>
   </trkpt>
   <trkpt lat="-29.8182020" lon="24.4111450">
    <ele>1131.5</ele>
   </trkpt>
   <trkpt lat="-29.8182030" lon="24.4111620">
    <ele>1131.5</ele>
   </trkpt>
   <trkpt lat="-29.8182040" lon="24.4111780">
    <ele>1131.5</ele>
   </trkpt>
   <trkpt lat="-29.8182080" lon="24.4111920">
    <ele>1131.5</ele>
   </trkpt>
   <trkpt lat="-29.8182110" lon="24.4112080">
    <ele>1131.4</ele>
   </trkpt>
   <trkpt lat="-29.8182150" lon="24.4112230">
    <ele>1131.4</ele>
   </trkpt>
   <trkpt lat="-29.8182240" lon="24.4112370">
    <ele>1131.4</ele>
   </trkpt>
   <trkpt lat="-29.8182270" lon="24.4112530">
    <ele>1131.5</ele>
   </trkpt>
   <trkpt lat="-29.8182330" lon="24.4112680">
    <ele>1131.6</ele>
   </trkpt>
   <trkpt lat="-29.8182380" lon="24.4112840">
    <ele>1131.8</ele>
   </trkpt>
   <trkpt lat="-29.8182430" lon="24.4113000">
    <ele>1131.9</ele>
   </trkpt>
   <trkpt lat="-29.8182520" lon="24.4113160">
    <ele>1132.1</ele>
   </trkpt>
   <trkpt lat="-29.8182540" lon="24.4113340">
    <ele>1132.3</ele>
   </trkpt>
   <trkpt lat="-29.8182610" lon="24.4113490">
    <ele>1132.4</ele>
   </trkpt>
   <trkpt lat="-29.8182680" lon="24.4113640">
    <ele>1132.6</ele>
   </trkpt>
   <trkpt lat="-29.8182710" lon="24.4113800">
    <ele>1132.7</ele>
   </trkpt>
   <trkpt lat="-29.8182870" lon="24.4113970">
    <ele>1132.7</ele>
   </trkpt>
   <trkpt lat="-29.8182940" lon="24.4114030">
    <ele>1132.8</ele>
   </trkpt>
   <trkpt lat="-29.8183010" lon="24.4114100">
    <ele>1132.8</ele>
   </trkpt>
   <trkpt lat="-29.8183120" lon="24.4114190">
    <ele>1132.8</ele>
   </trkpt>
   <trkpt lat="-29.8183230" lon="24.4114340">
    <ele>1132.9</ele>
   </trkpt>
   <trkpt lat="-29.8183340" lon="24.4114490">
    <ele>1132.9</ele>
   </trkpt>
   <trkpt lat="-29.8183460" lon="24.4114560">
    <ele>1132.9</ele>
   </trkpt>
   <trkpt lat="-29.8183630" lon="24.4114660">
    <ele>1133.0</ele>
   </trkpt>
   <trkpt lat="-29.8183780" lon="24.4114750">
    <ele>1133.0</ele>
   </trkpt>
   <trkpt lat="-29.8183880" lon="24.4114820">
    <ele>1133.0</ele>
   </trkpt>
   <trkpt lat="-29.8184030" lon="24.4114870">
    <ele>1133.0</ele>
   </trkpt>
   <trkpt lat="-29.8184170" lon="24.4114920">
    <ele>1133.0</ele>
   </trkpt>
   <trkpt lat="-29.8184300" lon="24.4114950">
    <ele>1133.0</ele>
   </trkpt>
   <trkpt lat="-29.8184420" lon="24.4114960">
    <ele>1133.0</ele>
   </trkpt>
   <trkpt lat="-29.8184510" lon="24.4114950">
    <ele>1132.9</ele>
   </trkpt>
   <trkpt lat="-29.8184620" lon="24.4114810">
    <ele>1132.9</ele>
   </trkpt>
   <trkpt lat="-29.8184730" lon="24.4114650">
    <ele>1132.9</ele>
   </trkpt>
   <trkpt lat="-29.8184870" lon="24.4114620">
    <ele>1132.9</ele>
   </trkpt>
   <trkpt lat="-29.8184940" lon="24.4114540">
    <ele>1132.9</ele>
   </trkpt>
   <trkpt lat="-29.8184810" lon="24.4114590">
    <ele>1132.9</ele>
   </trkpt>
   <trkpt lat="-29.8184780" lon="24.4114610">
    <ele>1132.9</ele>
   </trkpt>
   <trkpt lat="-29.8184800" lon="24.4114580">
    <ele>1132.9</ele>
   </trkpt>
   <trkpt lat="-29.8184840" lon="24.4114670">
    <ele>1132.9</ele>
   </trkpt>
   <trkpt lat="-29.8184830" lon="24.4114650">
    <ele>1132.9</ele>
   </trkpt>
   <trkpt lat="-29.8184780" lon="24.4114690">
    <ele>1132.9</ele>
   </trkpt>
   <trkpt lat="-29.8184760" lon="24.4114770">
    <ele>1132.9</ele>
   </trkpt>
   <trkpt lat="-29.8184750" lon="24.4114850">
    <ele>1132.9</ele>
   </trkpt>
   <trkpt lat="-29.8184820" lon="24.4114870">
    <ele>1132.9</ele>
   </trkpt>
   <trkpt lat="-29.8185020" lon="24.4114850">
    <ele>1132.9</ele>
   </trkpt>
   <trkpt lat="-29.8185760" lon="24.4114620">
    <ele>1132.9</ele>
   </trkpt>
   <trkpt lat="-29.8186150" lon="24.4114440">
    <ele>1132.9</ele>
   </trkpt>
   <trkpt lat="-29.8186590" lon="24.4114240">
    <ele>1132.8</ele>
   </trkpt>
   <trkpt lat="-29.8187050" lon="24.4114010">
    <ele>1132.8</ele>
   </trkpt>
   <trkpt lat="-29.8187510" lon="24.4113790">
    <ele>1132.7</ele>
   </trkpt>
   <trkpt lat="-29.8188010" lon="24.4113560">
    <ele>1132.6</ele>
   </trkpt>
   <trkpt lat="-29.8188550" lon="24.4113300">
    <ele>1132.5</ele>
   </trkpt>
   <trkpt lat="-29.8189140" lon="24.4113060">
    <ele>1132.4</ele>
   </trkpt>
   <trkpt lat="-29.8189800" lon="24.4112840">
    <ele>1132.3</ele>
   </trkpt>
   <trkpt lat="-29.8190440" lon="24.4112730">
    <ele>1132.2</ele>
   </trkpt>
   <trkpt lat="-29.8191120" lon="24.4112660">
    <ele>1132.2</ele>
   </trkpt>
   <trkpt lat="-29.8191860" lon="24.4112600">
    <ele>1132.2</ele>
   </trkpt>
   <trkpt lat="-29.8192610" lon="24.4112560">
    <ele>1132.1</ele>
   </trkpt>
   <trkpt lat="-29.8193390" lon="24.4112460">
    <ele>1132.3</ele>
   </trkpt>
   <trkpt lat="-29.8194270" lon="24.4112440">
    <ele>1132.5</ele>
   </trkpt>
   <trkpt lat="-29.8195140" lon="24.4112360">
    <ele>1132.6</ele>
   </trkpt>
   <trkpt lat="-29.8196020" lon="24.4112260">
    <ele>1132.7</ele>
   </trkpt>
   <trkpt lat="-29.8196870" lon="24.4112140">
    <ele>1132.7</ele>
   </trkpt>
   <trkpt lat="-29.8197720" lon="24.4112030">
    <ele>1132.8</ele>
   </trkpt>
   <trkpt lat="-29.8198590" lon="24.4111950">
    <ele>1132.9</ele>
   </trkpt>
   <trkpt lat="-29.8199460" lon="24.4111860">
    <ele>1132.9</ele>
   </trkpt>
   <trkpt lat="-29.8200260" lon="24.4111760">
    <ele>1133.0</ele>
   </trkpt>
   <trkpt lat="-29.8201030" lon="24.4111610">
    <ele>1133.1</ele>
   </trkpt>
   <trkpt lat="-29.8201830" lon="24.4111480">
    <ele>1133.2</ele>
   </trkpt>
   <trkpt lat="-29.8202620" lon="24.4111360">
    <ele>1133.2</ele>
   </trkpt>
   <trkpt lat="-29.8203350" lon="24.4111300">
    <ele>1133.3</ele>
   </trkpt>
   <trkpt lat="-29.8204020" lon="24.4111280">
    <ele>1133.4</ele>
   </trkpt>
   <trkpt lat="-29.8204660" lon="24.4111280">
    <ele>1133.4</ele>
   </trkpt>
   <trkpt lat="-29.8205200" lon="24.4111370">
    <ele>1133.5</ele>
   </trkpt>
   <trkpt lat="-29.8205580" lon="24.4111550">
    <ele>1133.5</ele>
   </trkpt>
   <trkpt lat="-29.8205830" lon="24.4111770">
    <ele>1133.6</ele>
   </trkpt>
   <trkpt lat="-29.8205990" lon="24.4112160">
    <ele>1133.6</ele>
   </trkpt>
   <trkpt lat="-29.8206010" lon="24.4112320">
    <ele>1133.6</ele>
   </trkpt>
   <trkpt lat="-29.8205970" lon="24.4112640">
    <ele>1133.6</ele>
   </trkpt>
   <trkpt lat="-29.8205820" lon="24.4112970">
    <ele>1133.6</ele>
   </trkpt>
   <trkpt lat="-29.8205570" lon="24.4113340">
    <ele>1133.5</ele>
   </trkpt>
   <trkpt lat="-29.8205230" lon="24.4113700">
    <ele>1133.5</ele>
   </trkpt>
   <trkpt lat="-29.8204850" lon="24.4114100">
    <ele>1133.4</ele>
   </trkpt>
   <trkpt lat="-29.8204420" lon="24.4114510">
    <ele>1133.3</ele>
   </trkpt>
   <trkpt lat="-29.8203930" lon="24.4114950">
    <ele>1133.2</ele>
   </trkpt>
   <trkpt lat="-29.8203440" lon="24.4115490">
    <ele>1133.1</ele>
   </trkpt>
   <trkpt lat="-29.8202920" lon="24.4116090">
    <ele>1133.0</ele>
   </trkpt>
   <trkpt lat="-29.8202390" lon="24.4116760">
    <ele>1132.9</ele>
   </trkpt>
   <trkpt lat="-29.8201850" lon="24.4117490">
    <ele>1132.8</ele>
   </trkpt>
   <trkpt lat="-29.8201220" lon="24.4118250">
    <ele>1132.7</ele>
   </trkpt>
   <trkpt lat="-29.8200570" lon="24.4119030">
    <ele>1132.6</ele>
   </trkpt>
   <trkpt lat="-29.8199910" lon="24.4119830">
    <ele>1132.5</ele>
   </trkpt>
   <trkpt lat="-29.8199290" lon="24.4120630">
    <ele>1132.4</ele>
   </trkpt>
   <trkpt lat="-29.8198670" lon="24.4121330">
    <ele>1132.3</ele>
   </trkpt>
   <trkpt lat="-29.8198100" lon="24.4122030">
    <ele>1132.2</ele>
   </trkpt>
   <trkpt lat="-29.8197610" lon="24.4122640">
    <ele>1132.1</ele>
   </trkpt>
   <trkpt lat="-29.8197180" lon="24.4123160">
    <ele>1132.1</ele>
   </trkpt>
   <trkpt lat="-29.8196780" lon="24.4123610">
    <ele>1132.0</ele>
   </trkpt>
   <trkpt lat="-29.8196380" lon="24.4124060">
    <ele>1131.9</ele>
   </trkpt>
   <trkpt lat="-29.8195990" lon="24.4124510">
    <ele>1131.8</ele>
   </trkpt>
   <trkpt lat="-29.8195630" lon="24.4124950">
    <ele>1131.7</ele>
   </trkpt>
   <trkpt lat="-29.8195300" lon="24.4125340">
    <ele>1131.6</ele>
   </trkpt>
   <trkpt lat="-29.8194970" lon="24.4125710">
    <ele>1131.6</ele>
   </trkpt>
   <trkpt lat="-29.8194660" lon="24.4126000">
    <ele>1131.5</ele>
   </trkpt>
   <trkpt lat="-29.8194340" lon="24.4126200">
    <ele>1131.5</ele>
   </trkpt>
   <trkpt lat="-29.8194010" lon="24.4126150">
    <ele>1131.4</ele>
   </trkpt>
   <trkpt lat="-29.8193730" lon="24.4125990">
    <ele>1131.4</ele>
   </trkpt>
   <trkpt lat="-29.8193500" lon="24.4125660">
    <ele>1131.3</ele>
   </trkpt>
   <trkpt lat="-29.8193230" lon="24.4125280">
    <ele>1131.3</ele>
   </trkpt>
   <trkpt lat="-29.8192950" lon="24.4124940">
    <ele>1131.3</ele>
   </trkpt>
   <trkpt lat="-29.8192670" lon="24.4124620">
    <ele>1131.2</ele>
   </trkpt>
   <trkpt lat="-29.8192380" lon="24.4124340">
    <ele>1131.2</ele>
   </trkpt>
   <trkpt lat="-29.8192080" lon="24.4124080">
    <ele>1131.2</ele>
   </trkpt>
   <trkpt lat="-29.8191670" lon="24.4124190">
    <ele>1131.1</ele>
   </trkpt>
   <trkpt lat="-29.8191510" lon="24.4124490">
    <ele>1131.1</ele>
   </trkpt>
   <trkpt lat="-29.8191520" lon="24.4124920">
    <ele>1131.1</ele>
   </trkpt>
   <trkpt lat="-29.8191740" lon="24.4125290">
    <ele>1131.0</ele>
   </trkpt>
   <trkpt lat="-29.8192050" lon="24.4125540">
    <ele>1131.0</ele>
   </trkpt>
   <trkpt lat="-29.8192430" lon="24.4125780">
    <ele>1131.0</ele>
   </trkpt>
   <trkpt lat="-29.8192830" lon="24.4126060">
    <ele>1131.0</ele>
   </trkpt>
   <trkpt lat="-29.8193210" lon="24.4126390">
    <ele>1131.0</ele>
   </trkpt>
   <trkpt lat="-29.8193510" lon="24.4126780">
    <ele>1131.0</ele>
   </trkpt>
   <trkpt lat="-29.8193640" lon="24.4127200">
    <ele>1130.9</ele>
   </trkpt>
   <trkpt lat="-29.8193590" lon="24.4127620">
    <ele>1130.9</ele>
   </trkpt>
   <trkpt lat="-29.8193390" lon="24.4128030">
    <ele>1130.9</ele>
   </trkpt>
   <trkpt lat="-29.8193050" lon="24.4128420">
    <ele>1130.9</ele>
   </trkpt>
   <trkpt lat="-29.8192660" lon="24.4128820">
    <ele>1130.8</ele>
   </trkpt>
   <trkpt lat="-29.8192230" lon="24.4129270">
    <ele>1130.8</ele>
   </trkpt>
   <trkpt lat="-29.8191790" lon="24.4129790">
    <ele>1130.7</ele>
   </trkpt>
   <trkpt lat="-29.8191370" lon="24.4130350">
    <ele>1130.7</ele>
   </trkpt>
   <trkpt lat="-29.8190950" lon="24.4130910">
    <ele>1130.6</ele>
   </trkpt>
   <trkpt lat="-29.8190660" lon="24.4131410">
    <ele>1130.6</ele>
   </trkpt>
   <trkpt lat="-29.8190550" lon="24.4131890">
    <ele>1130.5</ele>
   </trkpt>
   <trkpt lat="-29.8190720" lon="24.4132420">
    <ele>1130.4</ele>
   </trkpt>
   <trkpt lat="-29.8191070" lon="24.4132750">
    <ele>1130.1</ele>
   </trkpt>
   <trkpt lat="-29.8191460" lon="24.4132960">
    <ele>1129.8</ele>
   </trkpt>
   <trkpt lat="-29.8191930" lon="24.4132990">
    <ele>1129.5</ele>
   </trkpt>
   <trkpt lat="-29.8192490" lon="24.4132870">
    <ele>1129.4</ele>
   </trkpt>
   <trkpt lat="-29.8193130" lon="24.4132890">
    <ele>1129.5</ele>
   </trkpt>
   <trkpt lat="-29.8193830" lon="24.4133010">
    <ele>1129.6</ele>
   </trkpt>
   <trkpt lat="-29.8194490" lon="24.4133210">
    <ele>1129.7</ele>
   </trkpt>
   <trkpt lat="-29.8195020" lon="24.4133420">
    <ele>1129.7</ele>
   </trkpt>
   <trkpt lat="-29.8195550" lon="24.4133600">
    <ele>1129.8</ele>
   </trkpt>
   <trkpt lat="-29.8196050" lon="24.4133740">
    <ele>1129.9</ele>
   </trkpt>
   <trkpt lat="-29.8196580" lon="24.4133880">
    <ele>1130.0</ele>
   </trkpt>
   <trkpt lat="-29.8197100" lon="24.4134000">
    <ele>1130.1</ele>
   </trkpt>
   <trkpt lat="-29.8197540" lon="24.4134160">
    <ele>1130.1</ele>
   </trkpt>
   <trkpt lat="-29.8197950" lon="24.4134270">
    <ele>1130.2</ele>
   </trkpt>
   <trkpt lat="-29.8198250" lon="24.4134350">
    <ele>1130.2</ele>
   </trkpt>
   <trkpt lat="-29.8198560" lon="24.4134380">
    <ele>1130.7</ele>
   </trkpt>
   <trkpt lat="-29.8198900" lon="24.4134390">
    <ele>1131.1</ele>
   </trkpt>
   <trkpt lat="-29.8199000" lon="24.4134380">
    <ele>1131.2</ele>
   </trkpt>
   <trkpt lat="-29.8199380" lon="24.4134410">
    <ele>1131.6</ele>
   </trkpt>
   <trkpt lat="-29.8199500" lon="24.4134440">
    <ele>1131.6</ele>
   </trkpt>
   <trkpt lat="-29.8199940" lon="24.4134500">
    <ele>1131.6</ele>
   </trkpt>
   <trkpt lat="-29.8200440" lon="24.4134580">
    <ele>1131.4</ele>
   </trkpt>
   <trkpt lat="-29.8201020" lon="24.4134700">
    <ele>1131.2</ele>
   </trkpt>
   <trkpt lat="-29.8201670" lon="24.4134860">
    <ele>1131.1</ele>
   </trkpt>
   <trkpt lat="-29.8202400" lon="24.4135060">
    <ele>1131.0</ele>
   </trkpt>
   <trkpt lat="-29.8203130" lon="24.4135270">
    <ele>1131.0</ele>
   </trkpt>
   <trkpt lat="-29.8203830" lon="24.4135450">
    <ele>1131.0</ele>
   </trkpt>
   <trkpt lat="-29.8204540" lon="24.4135550">
    <ele>1131.0</ele>
   </trkpt>
   <trkpt lat="-29.8205290" lon="24.4135600">
    <ele>1131.0</ele>
   </trkpt>
   <trkpt lat="-29.8206030" lon="24.4135730">
    <ele>1131.1</ele>
   </trkpt>
   <trkpt lat="-29.8207630" lon="24.4136280">
    <ele>1131.1</ele>
   </trkpt>
   <trkpt lat="-29.8208390" lon="24.4136560">
    <ele>1131.1</ele>
   </trkpt>
   <trkpt lat="-29.8209110" lon="24.4136750">
    <ele>1131.2</ele>
   </trkpt>
   <trkpt lat="-29.8209760" lon="24.4137000">
    <ele>1131.3</ele>
   </trkpt>
   <trkpt lat="-29.8210390" lon="24.4137270">
    <ele>1131.6</ele>
   </trkpt>
   <trkpt lat="-29.8210940" lon="24.4137540">
    <ele>1131.9</ele>
   </trkpt>
   <trkpt lat="-29.8211530" lon="24.4137660">
    <ele>1132.1</ele>
   </trkpt>
   <trkpt lat="-29.8212130" lon="24.4137760">
    <ele>1132.3</ele>
   </trkpt>
   <trkpt lat="-29.8212730" lon="24.4137870">
    <ele>1132.6</ele>
   </trkpt>
   <trkpt lat="-29.8213280" lon="24.4138120">
    <ele>1132.8</ele>
   </trkpt>
   <trkpt lat="-29.8213870" lon="24.4139260">
    <ele>1132.8</ele>
   </trkpt>
   <trkpt lat="-29.8213870" lon="24.4139950">
    <ele>1131.9</ele>
   </trkpt>
   <trkpt lat="-29.8213710" lon="24.4140660">
    <ele>1131.3</ele>
   </trkpt>
   <trkpt lat="-29.8213440" lon="24.4141420">
    <ele>1131.2</ele>
   </trkpt>
   <trkpt lat="-29.8213240" lon="24.4142220">
    <ele>1131.0</ele>
   </trkpt>
   <trkpt lat="-29.8212990" lon="24.4142940">
    <ele>1130.8</ele>
   </trkpt>
   <trkpt lat="-29.8212800" lon="24.4143680">
    <ele>1130.6</ele>
   </trkpt>
   <trkpt lat="-29.8212700" lon="24.4144410">
    <ele>1130.4</ele>
   </trkpt>
   <trkpt lat="-29.8212580" lon="24.4145200">
    <ele>1130.3</ele>
   </trkpt>
   <trkpt lat="-29.8212470" lon="24.4145990">
    <ele>1130.1</ele>
   </trkpt>
   <trkpt lat="-29.8212400" lon="24.4146680">
    <ele>1130.1</ele>
   </trkpt>
   <trkpt lat="-29.8212320" lon="24.4147330">
    <ele>1130.1</ele>
   </trkpt>
   <trkpt lat="-29.8212220" lon="24.4147810">
    <ele>1130.1</ele>
   </trkpt>
   <trkpt lat="-29.8212080" lon="24.4148130">
    <ele>1130.0</ele>
   </trkpt>
   <trkpt lat="-29.8211710" lon="24.4148180">
    <ele>1130.0</ele>
   </trkpt>
   <trkpt lat="-29.8211380" lon="24.4148080">
    <ele>1130.0</ele>
   </trkpt>
   <trkpt lat="-29.8211040" lon="24.4147890">
    <ele>1130.0</ele>
   </trkpt>
   <trkpt lat="-29.8210880" lon="24.4147830">
    <ele>1130.0</ele>
   </trkpt>
   <trkpt lat="-29.8210570" lon="24.4147800">
    <ele>1130.0</ele>
   </trkpt>
   <trkpt lat="-29.8210260" lon="24.4147720">
    <ele>1130.0</ele>
   </trkpt>
   <trkpt lat="-29.8209970" lon="24.4147800">
    <ele>1130.0</ele>
   </trkpt>
   <trkpt lat="-29.8209920" lon="24.4148190">
    <ele>1130.0</ele>
   </trkpt>
   <trkpt lat="-29.8209930" lon="24.4148340">
    <ele>1130.0</ele>
   </trkpt>
   <trkpt lat="-29.8210080" lon="24.4148740">
    <ele>1130.0</ele>
   </trkpt>
   <trkpt lat="-29.8210140" lon="24.4148930">
    <ele>1130.0</ele>
   </trkpt>
   <trkpt lat="-29.8210270" lon="24.4149320">
    <ele>1130.0</ele>
   </trkpt>
   <trkpt lat="-29.8210360" lon="24.4149680">
    <ele>1130.0</ele>
   </trkpt>
   <trkpt lat="-29.8210380" lon="24.4149930">
    <ele>1130.0</ele>
   </trkpt>
   <trkpt lat="-29.8210380" lon="24.4149980">
    <ele>1130.0</ele>
   </trkpt>
   <trkpt lat="-29.8210390" lon="24.4149950">
    <ele>1130.0</ele>
   </trkpt>
   <trkpt lat="-29.8210410" lon="24.4149950">
    <ele>1130.0</ele>
   </trkpt>
   <trkpt lat="-29.8210380" lon="24.4149910">
    <ele>1130.0</ele>
   </trkpt>
   <trkpt lat="-29.8210390" lon="24.4149900">
    <ele>1130.0</ele>
   </trkpt>
   <trkpt lat="-29.8210430" lon="24.4149940">
    <ele>1130.0</ele>
   </trkpt>
   <trkpt lat="-29.8210430" lon="24.4149940">
    <ele>1130.0</ele>
   </trkpt>
   <trkpt lat="-29.8210430" lon="24.4149940">
    <ele>1130.0</ele>
   </trkpt>
   <trkpt lat="-29.8210450" lon="24.4149970">
    <ele>1130.0</ele>
   </trkpt>
   <trkpt lat="-29.8210290" lon="24.4150160">
    <ele>1130.0</ele>
   </trkpt>
   <trkpt lat="-29.8210150" lon="24.4150370">
    <ele>1130.0</ele>
   </trkpt>
   <trkpt lat="-29.8210000" lon="24.4150570">
    <ele>1130.0</ele>
   </trkpt>
   <trkpt lat="-29.8209550" lon="24.4150560">
    <ele>1130.0</ele>
   </trkpt>
   <trkpt lat="-29.8209050" lon="24.4150370">
    <ele>1130.1</ele>
   </trkpt>
   <trkpt lat="-29.8208580" lon="24.4150180">
    <ele>1130.1</ele>
   </trkpt>
   <trkpt lat="-29.8208110" lon="24.4150000">
    <ele>1130.1</ele>
   </trkpt>
   <trkpt lat="-29.8207520" lon="24.4149820">
    <ele>1130.2</ele>
   </trkpt>
   <trkpt lat="-29.8206860" lon="24.4149610">
    <ele>1130.2</ele>
   </trkpt>
   <trkpt lat="-29.8206090" lon="24.4149410">
    <ele>1130.2</ele>
   </trkpt>
   <trkpt lat="-29.8205240" lon="24.4149130">
    <ele>1130.2</ele>
   </trkpt>
   <trkpt lat="-29.8204440" lon="24.4148870">
    <ele>1130.2</ele>
   </trkpt>
   <trkpt lat="-29.8203620" lon="24.4148650">
    <ele>1130.3</ele>
   </trkpt>
   <trkpt lat="-29.8202720" lon="24.4148410">
    <ele>1130.4</ele>
   </trkpt>
   <trkpt lat="-29.8201760" lon="24.4148150">
    <ele>1130.4</ele>
   </trkpt>
   <trkpt lat="-29.8200740" lon="24.4147850">
    <ele>1130.5</ele>
   </trkpt>
   <trkpt lat="-29.8199770" lon="24.4147620">
    <ele>1130.5</ele>
   </trkpt>
   <trkpt lat="-29.8198860" lon="24.4147370">
    <ele>1130.5</ele>
   </trkpt>
   <trkpt lat="-29.8197990" lon="24.4147190">
    <ele>1130.5</ele>
   </trkpt>
   <trkpt lat="-29.8197270" lon="24.4147020">
    <ele>1130.5</ele>
   </trkpt>
   <trkpt lat="-29.8196640" lon="24.4146900">
    <ele>1130.5</ele>
   </trkpt>
   <trkpt lat="-29.8196180" lon="24.4146780">
    <ele>1130.5</ele>
   </trkpt>
   <trkpt lat="-29.8195970" lon="24.4146720">
    <ele>1130.5</ele>
   </trkpt>
   <trkpt lat="-29.8195880" lon="24.4146680">
    <ele>1130.5</ele>
   </trkpt>
   <trkpt lat="-29.8195650" lon="24.4146610">
    <ele>1130.5</ele>
   </trkpt>
   <trkpt lat="-29.8195500" lon="24.4146570">
    <ele>1130.5</ele>
   </trkpt>
   <trkpt lat="-29.8195360" lon="24.4146530">
    <ele>1130.5</ele>
   </trkpt>
   <trkpt lat="-29.8194950" lon="24.4146400">
    <ele>1130.5</ele>
   </trkpt>
   <trkpt lat="-29.8194500" lon="24.4146290">
    <ele>1130.5</ele>
   </trkpt>
   <trkpt lat="-29.8193940" lon="24.4146140">
    <ele>1130.5</ele>
   </trkpt>
   <trkpt lat="-29.8193320" lon="24.4145990">
    <ele>1130.5</ele>
   </trkpt>
   <trkpt lat="-29.8192590" lon="24.4145740">
    <ele>1130.5</ele>
   </trkpt>
   <trkpt lat="-29.8191870" lon="24.4145380">
    <ele>1130.5</ele>
   </trkpt>
   <trkpt lat="-29.8191170" lon="24.4144870">
    <ele>1130.4</ele>
   </trkpt>
   <trkpt lat="-29.8190530" lon="24.4144200">
    <ele>1130.4</ele>
   </trkpt>
   <trkpt lat="-29.8189870" lon="24.4143520">
    <ele>1130.4</ele>
   </trkpt>
   <trkpt lat="-29.8189200" lon="24.4142890">
    <ele>1130.3</ele>
   </trkpt>
   <trkpt lat="-29.8188540" lon="24.4142260">
    <ele>1130.3</ele>
   </trkpt>
   <trkpt lat="-29.8187900" lon="24.4141700">
    <ele>1130.3</ele>
   </trkpt>
   <trkpt lat="-29.8187270" lon="24.4141130">
    <ele>1130.2</ele>
   </trkpt>
   <trkpt lat="-29.8186690" lon="24.4140590">
    <ele>1130.2</ele>
   </trkpt>
   <trkpt lat="-29.8186200" lon="24.4140110">
    <ele>1130.1</ele>
   </trkpt>
   <trkpt lat="-29.8185790" lon="24.4139710">
    <ele>1130.1</ele>
   </trkpt>
   <trkpt lat="-29.8185480" lon="24.4139330">
    <ele>1130.0</ele>
   </trkpt>
   <trkpt lat="-29.8185270" lon="24.4138950">
    <ele>1130.0</ele>
   </trkpt>
   <trkpt lat="-29.8185040" lon="24.4138610">
    <ele>1129.9</ele>
   </trkpt>
   <trkpt lat="-29.8184790" lon="24.4138270">
    <ele>1129.9</ele>
   </trkpt>
   <trkpt lat="-29.8184400" lon="24.4138250">
    <ele>1129.9</ele>
   </trkpt>
   <trkpt lat="-29.8184090" lon="24.4138520">
    <ele>1129.8</ele>
   </trkpt>
   <trkpt lat="-29.8183880" lon="24.4138930">
    <ele>1129.7</ele>
   </trkpt>
   <trkpt lat="-29.8183610" lon="24.4139470">
    <ele>1129.6</ele>
   </trkpt>
   <trkpt lat="-29.8183230" lon="24.4139960">
    <ele>1129.5</ele>
   </trkpt>
   <trkpt lat="-29.8182810" lon="24.4140460">
    <ele>1129.4</ele>
   </trkpt>
   <trkpt lat="-29.8182410" lon="24.4140890">
    <ele>1129.3</ele>
   </trkpt>
   <trkpt lat="-29.8182020" lon="24.4141340">
    <ele>1129.3</ele>
   </trkpt>
   <trkpt lat="-29.8181700" lon="24.4141780">
    <ele>1129.2</ele>
   </trkpt>
   <trkpt lat="-29.8181420" lon="24.4142110">
    <ele>1129.2</ele>
   </trkpt>
   <trkpt lat="-29.8181230" lon="24.4142340">
    <ele>1129.1</ele>
   </trkpt>
   <trkpt lat="-29.8181090" lon="24.4142480">
    <ele>1129.1</ele>
   </trkpt>
   <trkpt lat="-29.8181030" lon="24.4142560">
    <ele>1129.1</ele>
   </trkpt>
   <trkpt lat="-29.8181010" lon="24.4142570">
    <ele>1129.1</ele>
   </trkpt>
   <trkpt lat="-29.8181070" lon="24.4142520">
    <ele>1129.1</ele>
   </trkpt>
   <trkpt lat="-29.8181080" lon="24.4142520">
    <ele>1129.1</ele>
   </trkpt>
   <trkpt lat="-29.8181080" lon="24.4142520">
    <ele>1129.1</ele>
   </trkpt>
   <trkpt lat="-29.8181110" lon="24.4142520">
    <ele>1129.1</ele>
   </trkpt>
   <trkpt lat="-29.8181050" lon="24.4142610">
    <ele>1129.1</ele>
   </trkpt>
   <trkpt lat="-29.8180910" lon="24.4142840">
    <ele>1129.0</ele>
   </trkpt>
   <trkpt lat="-29.8180640" lon="24.4143220">
    <ele>1129.0</ele>
   </trkpt>
   <trkpt lat="-29.8180310" lon="24.4143640">
    <ele>1128.9</ele>
   </trkpt>
   <trkpt lat="-29.8179940" lon="24.4144090">
    <ele>1128.9</ele>
   </trkpt>
   <trkpt lat="-29.8179510" lon="24.4144650">
    <ele>1128.8</ele>
   </trkpt>
   <trkpt lat="-29.8178990" lon="24.4145230">
    <ele>1128.6</ele>
   </trkpt>
   <trkpt lat="-29.8178760" lon="24.4145490">
    <ele>1128.6</ele>
   </trkpt>
   <trkpt lat="-29.8178290" lon="24.4146060">
    <ele>1128.4</ele>
   </trkpt>
   <trkpt lat="-29.8177800" lon="24.4146670">
    <ele>1128.3</ele>
   </trkpt>
   <trkpt lat="-29.8177370" lon="24.4147210">
    <ele>1128.2</ele>
   </trkpt>
   <trkpt lat="-29.8176980" lon="24.4147680">
    <ele>1128.1</ele>
   </trkpt>
   <trkpt lat="-29.8176620" lon="24.4148090">
    <ele>1128.0</ele>
   </trkpt>
   <trkpt lat="-29.8176310" lon="24.4148440">
    <ele>1127.9</ele>
   </trkpt>
   <trkpt lat="-29.8176070" lon="24.4148710">
    <ele>1127.8</ele>
   </trkpt>
   <trkpt lat="-29.8175940" lon="24.4148870">
    <ele>1127.8</ele>
   </trkpt>
   <trkpt lat="-29.8175860" lon="24.4148930">
    <ele>1127.8</ele>
   </trkpt>
   <trkpt lat="-29.8175830" lon="24.4148940">
    <ele>1127.8</ele>
   </trkpt>
   <trkpt lat="-29.8175990" lon="24.4148760">
    <ele>1127.7</ele>
   </trkpt>
   <trkpt lat="-29.8175870" lon="24.4148900">
    <ele>1127.7</ele>
   </trkpt>
   <trkpt lat="-29.8175800" lon="24.4149010">
    <ele>1127.7</ele>
   </trkpt>
   <trkpt lat="-29.8175620" lon="24.4149260">
    <ele>1127.6</ele>
   </trkpt>
   <trkpt lat="-29.8175550" lon="24.4149350">
    <ele>1127.6</ele>
   </trkpt>
   <trkpt lat="-29.8175350" lon="24.4149600">
    <ele>1127.5</ele>
   </trkpt>
   <trkpt lat="-29.8175160" lon="24.4149860">
    <ele>1127.5</ele>
   </trkpt>
   <trkpt lat="-29.8174890" lon="24.4150200">
    <ele>1127.4</ele>
   </trkpt>
   <trkpt lat="-29.8174540" lon="24.4150620">
    <ele>1127.3</ele>
   </trkpt>
   <trkpt lat="-29.8174110" lon="24.4151130">
    <ele>1127.2</ele>
   </trkpt>
   <trkpt lat="-29.8173670" lon="24.4151640">
    <ele>1127.1</ele>
   </trkpt>
   <trkpt lat="-29.8173180" lon="24.4152210">
    <ele>1126.9</ele>
   </trkpt>
   <trkpt lat="-29.8172650" lon="24.4152860">
    <ele>1126.7</ele>
   </trkpt>
   <trkpt lat="-29.8172060" lon="24.4153580">
    <ele>1126.5</ele>
   </trkpt>
   <trkpt lat="-29.8171440" lon="24.4154370">
    <ele>1126.3</ele>
   </trkpt>
   <trkpt lat="-29.8170790" lon="24.4155180">
    <ele>1126.0</ele>
   </trkpt>
   <trkpt lat="-29.8170140" lon="24.4155970">
    <ele>1125.7</ele>
   </trkpt>
   <trkpt lat="-29.8169470" lon="24.4156820">
    <ele>1125.5</ele>
   </trkpt>
   <trkpt lat="-29.8168760" lon="24.4157720">
    <ele>1125.4</ele>
   </trkpt>
   <trkpt lat="-29.8168020" lon="24.4158670">
    <ele>1125.2</ele>
   </trkpt>
   <trkpt lat="-29.8167250" lon="24.4159630">
    <ele>1124.9</ele>
   </trkpt>
   <trkpt lat="-29.8166480" lon="24.4160550">
    <ele>1124.8</ele>
   </trkpt>
   <trkpt lat="-29.8165730" lon="24.4161450">
    <ele>1124.7</ele>
   </trkpt>
   <trkpt lat="-29.8165020" lon="24.4162300">
    <ele>1124.7</ele>
   </trkpt>
   <trkpt lat="-29.8164380" lon="24.4163070">
    <ele>1124.7</ele>
   </trkpt>
   <trkpt lat="-29.8163850" lon="24.4163710">
    <ele>1124.7</ele>
   </trkpt>
   <trkpt lat="-29.8163370" lon="24.4164290">
    <ele>1124.7</ele>
   </trkpt>
   <trkpt lat="-29.8162900" lon="24.4164910">
    <ele>1124.6</ele>
   </trkpt>
   <trkpt lat="-29.8162350" lon="24.4165570">
    <ele>1124.6</ele>
   </trkpt>
   <trkpt lat="-29.8161720" lon="24.4166120">
    <ele>1124.6</ele>
   </trkpt>
   <trkpt lat="-29.8160880" lon="24.4166400">
    <ele>1124.6</ele>
   </trkpt>
   <trkpt lat="-29.8160050" lon="24.4166400">
    <ele>1124.5</ele>
   </trkpt>
   <trkpt lat="-29.8159240" lon="24.4166140">
    <ele>1124.4</ele>
   </trkpt>
   <trkpt lat="-29.8158470" lon="24.4165730">
    <ele>1124.1</ele>
   </trkpt>
   <trkpt lat="-29.8157780" lon="24.4165070">
    <ele>1123.8</ele>
   </trkpt>
   <trkpt lat="-29.8157130" lon="24.4164250">
    <ele>1123.3</ele>
   </trkpt>
   <trkpt lat="-29.8156490" lon="24.4163360">
    <ele>1122.7</ele>
   </trkpt>
   <trkpt lat="-29.8155690" lon="24.4162550">
    <ele>1122.0</ele>
   </trkpt>
   <trkpt lat="-29.8154870" lon="24.4161710">
    <ele>1121.2</ele>
   </trkpt>
   <trkpt lat="-29.8154070" lon="24.4160820">
    <ele>1120.3</ele>
   </trkpt>
   <trkpt lat="-29.8153260" lon="24.4159920">
    <ele>1119.4</ele>
   </trkpt>
   <trkpt lat="-29.8152410" lon="24.4159010">
    <ele>1118.9</ele>
   </trkpt>
   <trkpt lat="-29.8151510" lon="24.4158050">
    <ele>1118.4</ele>
   </trkpt>
   <trkpt lat="-29.8150600" lon="24.4157080">
    <ele>1117.9</ele>
   </trkpt>
   <trkpt lat="-29.8149680" lon="24.4156130">
    <ele>1117.4</ele>
   </trkpt>
   <trkpt lat="-29.8148750" lon="24.4155120">
    <ele>1116.9</ele>
   </trkpt>
   <trkpt lat="-29.8147840" lon="24.4154140">
    <ele>1116.5</ele>
   </trkpt>
   <trkpt lat="-29.8146960" lon="24.4153180">
    <ele>1116.1</ele>
   </trkpt>
   <trkpt lat="-29.8146140" lon="24.4152300">
    <ele>1115.8</ele>
   </trkpt>
   <trkpt lat="-29.8145330" lon="24.4151430">
    <ele>1115.4</ele>
   </trkpt>
   <trkpt lat="-29.8144490" lon="24.4150540">
    <ele>1115.1</ele>
   </trkpt>
   <trkpt lat="-29.8143590" lon="24.4149630">
    <ele>1114.8</ele>
   </trkpt>
   <trkpt lat="-29.8142650" lon="24.4148660">
    <ele>1114.6</ele>
   </trkpt>
   <trkpt lat="-29.8141710" lon="24.4147610">
    <ele>1114.3</ele>
   </trkpt>
   <trkpt lat="-29.8140750" lon="24.4146580">
    <ele>1114.0</ele>
   </trkpt>
   <trkpt lat="-29.8139790" lon="24.4145540">
    <ele>1113.7</ele>
   </trkpt>
   <trkpt lat="-29.8138860" lon="24.4144530">
    <ele>1113.4</ele>
   </trkpt>
   <trkpt lat="-29.8137960" lon="24.4143540">
    <ele>1113.1</ele>
   </trkpt>
   <trkpt lat="-29.8137080" lon="24.4142610">
    <ele>1112.9</ele>
   </trkpt>
   <trkpt lat="-29.8136220" lon="24.4141740">
    <ele>1112.7</ele>
   </trkpt>
   <trkpt lat="-29.8135430" lon="24.4140840">
    <ele>1112.4</ele>
   </trkpt>
   <trkpt lat="-29.8134780" lon="24.4140140">
    <ele>1112.2</ele>
   </trkpt>
   <trkpt lat="-29.8134180" lon="24.4139480">
    <ele>1112.0</ele>
   </trkpt>
   <trkpt lat="-29.8133660" lon="24.4138920">
    <ele>1111.8</ele>
   </trkpt>
   <trkpt lat="-29.8133290" lon="24.4138520">
    <ele>1111.7</ele>
   </trkpt>
   <trkpt lat="-29.8132990" lon="24.4138250">
    <ele>1111.7</ele>
   </trkpt>
   <trkpt lat="-29.8132720" lon="24.4138110">
    <ele>1111.6</ele>
   </trkpt>
   <trkpt lat="-29.8132310" lon="24.4138160">
    <ele>1111.7</ele>
   </trkpt>
   <trkpt lat="-29.8131870" lon="24.4138450">
    <ele>1111.7</ele>
   </trkpt>
   <trkpt lat="-29.8131360" lon="24.4138970">
    <ele>1111.7</ele>
   </trkpt>
   <trkpt lat="-29.8130910" lon="24.4139660">
    <ele>1111.8</ele>
   </trkpt>
   <trkpt lat="-29.8130430" lon="24.4140300">
    <ele>1111.8</ele>
   </trkpt>
   <trkpt lat="-29.8129890" lon="24.4140990">
    <ele>1111.8</ele>
   </trkpt>
   <trkpt lat="-29.8129310" lon="24.4141720">
    <ele>1111.8</ele>
   </trkpt>
   <trkpt lat="-29.8128710" lon="24.4142550">
    <ele>1111.8</ele>
   </trkpt>
   <trkpt lat="-29.8128020" lon="24.4143340">
    <ele>1111.8</ele>
   </trkpt>
   <trkpt lat="-29.8127360" lon="24.4144120">
    <ele>1111.8</ele>
   </trkpt>
   <trkpt lat="-29.8126680" lon="24.4144960">
    <ele>1111.8</ele>
   </trkpt>
   <trkpt lat="-29.8125950" lon="24.4145880">
    <ele>1111.9</ele>
   </trkpt>
   <trkpt lat="-29.8125180" lon="24.4146830">
    <ele>1112.0</ele>
   </trkpt>
   <trkpt lat="-29.8124410" lon="24.4147780">
    <ele>1112.1</ele>
   </trkpt>
   <trkpt lat="-29.8123670" lon="24.4148730">
    <ele>1112.2</ele>
   </trkpt>
   <trkpt lat="-29.8122940" lon="24.4149660">
    <ele>1112.3</ele>
   </trkpt>
   <trkpt lat="-29.8122190" lon="24.4150590">
    <ele>1112.4</ele>
   </trkpt>
   <trkpt lat="-29.8121440" lon="24.4151500">
    <ele>1112.4</ele>
   </trkpt>
   <trkpt lat="-29.8120680" lon="24.4152450">
    <ele>1112.5</ele>
   </trkpt>
   <trkpt lat="-29.8119900" lon="24.4153410">
    <ele>1112.4</ele>
   </trkpt>
   <trkpt lat="-29.8119120" lon="24.4154360">
    <ele>1112.4</ele>
   </trkpt>
   <trkpt lat="-29.8118380" lon="24.4155230">
    <ele>1112.3</ele>
   </trkpt>
   <trkpt lat="-29.8117720" lon="24.4156080">
    <ele>1112.2</ele>
   </trkpt>
   <trkpt lat="-29.8117170" lon="24.4156790">
    <ele>1112.2</ele>
   </trkpt>
   <trkpt lat="-29.8116740" lon="24.4157400">
    <ele>1112.2</ele>
   </trkpt>
   <trkpt lat="-29.8116370" lon="24.4157900">
    <ele>1112.1</ele>
   </trkpt>
   <trkpt lat="-29.8115970" lon="24.4158450">
    <ele>1112.1</ele>
   </trkpt>
   <trkpt lat="-29.8115470" lon="24.4159080">
    <ele>1111.9</ele>
   </trkpt>
   <trkpt lat="-29.8114880" lon="24.4159690">
    <ele>1111.8</ele>
   </trkpt>
   <trkpt lat="-29.8114220" lon="24.4160400">
    <ele>1111.7</ele>
   </trkpt>
   <trkpt lat="-29.8113520" lon="24.4161190">
    <ele>1111.5</ele>
   </trkpt>
   <trkpt lat="-29.8112790" lon="24.4162040">
    <ele>1111.4</ele>
   </trkpt>
   <trkpt lat="-29.8112030" lon="24.4162950">
    <ele>1111.2</ele>
   </trkpt>
   <trkpt lat="-29.8111250" lon="24.4163990">
    <ele>1111.0</ele>
   </trkpt>
   <trkpt lat="-29.8110400" lon="24.4165100">
    <ele>1110.8</ele>
   </trkpt>
   <trkpt lat="-29.8109470" lon="24.4166270">
    <ele>1110.6</ele>
   </trkpt>
   <trkpt lat="-29.8108620" lon="24.4167270">
    <ele>1110.5</ele>
   </trkpt>
   <trkpt lat="-29.8107790" lon="24.4168300">
    <ele>1110.3</ele>
   </trkpt>
   <trkpt lat="-29.8106920" lon="24.4169350">
    <ele>1110.0</ele>
   </trkpt>
   <trkpt lat="-29.8106000" lon="24.4170460">
    <ele>1109.7</ele>
   </trkpt>
   <trkpt lat="-29.8105080" lon="24.4171550">
    <ele>1109.4</ele>
   </trkpt>
   <trkpt lat="-29.8104130" lon="24.4172700">
    <ele>1109.1</ele>
   </trkpt>
   <trkpt lat="-29.8103190" lon="24.4173800">
    <ele>1108.9</ele>
   </trkpt>
   <trkpt lat="-29.8102240" lon="24.4174970">
    <ele>1108.8</ele>
   </trkpt>
   <trkpt lat="-29.8101300" lon="24.4176120">
    <ele>1108.6</ele>
   </trkpt>
   <trkpt lat="-29.8100370" lon="24.4177230">
    <ele>1108.5</ele>
   </trkpt>
   <trkpt lat="-29.8099490" lon="24.4178260">
    <ele>1108.3</ele>
   </trkpt>
   <trkpt lat="-29.8098630" lon="24.4179280">
    <ele>1108.2</ele>
   </trkpt>
   <trkpt lat="-29.8097820" lon="24.4180290">
    <ele>1108.1</ele>
   </trkpt>
   <trkpt lat="-29.8097100" lon="24.4181150">
    <ele>1108.0</ele>
   </trkpt>
   <trkpt lat="-29.8096490" lon="24.4181820">
    <ele>1108.0</ele>
   </trkpt>
   <trkpt lat="-29.8095970" lon="24.4182430">
    <ele>1107.9</ele>
   </trkpt>
   <trkpt lat="-29.8095450" lon="24.4183080">
    <ele>1107.8</ele>
   </trkpt>
   <trkpt lat="-29.8094900" lon="24.4183740">
    <ele>1107.7</ele>
   </trkpt>
   <trkpt lat="-29.8094290" lon="24.4184440">
    <ele>1107.6</ele>
   </trkpt>
   <trkpt lat="-29.8093620" lon="24.4185150">
    <ele>1107.5</ele>
   </trkpt>
   <trkpt lat="-29.8092960" lon="24.4185930">
    <ele>1107.4</ele>
   </trkpt>
   <trkpt lat="-29.8092320" lon="24.4186780">
    <ele>1107.2</ele>
   </trkpt>
   <trkpt lat="-29.8091800" lon="24.4187670">
    <ele>1107.1</ele>
   </trkpt>
   <trkpt lat="-29.8091350" lon="24.4188640">
    <ele>1107.0</ele>
   </trkpt>
   <trkpt lat="-29.8090980" lon="24.4189660">
    <ele>1106.9</ele>
   </trkpt>
   <trkpt lat="-29.8090690" lon="24.4190740">
    <ele>1106.9</ele>
   </trkpt>
   <trkpt lat="-29.8090480" lon="24.4191910">
    <ele>1106.9</ele>
   </trkpt>
   <trkpt lat="-29.8090330" lon="24.4193050">
    <ele>1106.9</ele>
   </trkpt>
   <trkpt lat="-29.8090240" lon="24.4194170">
    <ele>1106.9</ele>
   </trkpt>
   <trkpt lat="-29.8090060" lon="24.4195190">
    <ele>1106.9</ele>
   </trkpt>
   <trkpt lat="-29.8089710" lon="24.4195910">
    <ele>1106.9</ele>
   </trkpt>
   <trkpt lat="-29.8089120" lon="24.4196450">
    <ele>1106.9</ele>
   </trkpt>
   <trkpt lat="-29.8088400" lon="24.4196730">
    <ele>1106.8</ele>
   </trkpt>
   <trkpt lat="-29.8087580" lon="24.4196810">
    <ele>1106.7</ele>
   </trkpt>
   <trkpt lat="-29.8086690" lon="24.4196710">
    <ele>1106.5</ele>
   </trkpt>
   <trkpt lat="-29.8085750" lon="24.4196550">
    <ele>1106.3</ele>
   </trkpt>
   <trkpt lat="-29.8084760" lon="24.4196440">
    <ele>1106.1</ele>
   </trkpt>
   <trkpt lat="-29.8083760" lon="24.4196350">
    <ele>1105.9</ele>
   </trkpt>
   <trkpt lat="-29.8082750" lon="24.4196250">
    <ele>1105.7</ele>
   </trkpt>
   <trkpt lat="-29.8081740" lon="24.4196160">
    <ele>1105.5</ele>
   </trkpt>
   <trkpt lat="-29.8080740" lon="24.4196100">
    <ele>1105.3</ele>
   </trkpt>
   <trkpt lat="-29.8079760" lon="24.4196080">
    <ele>1105.2</ele>
   </trkpt>
   <trkpt lat="-29.8078840" lon="24.4196100">
    <ele>1105.1</ele>
   </trkpt>
   <trkpt lat="-29.8077910" lon="24.4196110">
    <ele>1105.0</ele>
   </trkpt>
   <trkpt lat="-29.8077020" lon="24.4196120">
    <ele>1104.9</ele>
   </trkpt>
   <trkpt lat="-29.8076200" lon="24.4196160">
    <ele>1104.8</ele>
   </trkpt>
   <trkpt lat="-29.8075410" lon="24.4196280">
    <ele>1104.7</ele>
   </trkpt>
   <trkpt lat="-29.8074710" lon="24.4196510">
    <ele>1104.7</ele>
   </trkpt>
   <trkpt lat="-29.8074080" lon="24.4196710">
    <ele>1104.7</ele>
   </trkpt>
   <trkpt lat="-29.8073580" lon="24.4196710">
    <ele>1104.7</ele>
   </trkpt>
   <trkpt lat="-29.8073100" lon="24.4196480">
    <ele>1104.6</ele>
   </trkpt>
   <trkpt lat="-29.8072790" lon="24.4196000">
    <ele>1104.6</ele>
   </trkpt>
   <trkpt lat="-29.8072650" lon="24.4195490">
    <ele>1104.6</ele>
   </trkpt>
   <trkpt lat="-29.8072740" lon="24.4195110">
    <ele>1104.6</ele>
   </trkpt>
   <trkpt lat="-29.8072800" lon="24.4194860">
    <ele>1104.6</ele>
   </trkpt>
   <trkpt lat="-29.8072820" lon="24.4194790">
    <ele>1104.6</ele>
   </trkpt>
   <trkpt lat="-29.8072830" lon="24.4194720">
    <ele>1104.6</ele>
   </trkpt>
   <trkpt lat="-29.8072840" lon="24.4194650">
    <ele>1104.5</ele>
   </trkpt>
   <trkpt lat="-29.8072860" lon="24.4194580">
    <ele>1104.5</ele>
   </trkpt>
   <trkpt lat="-29.8072870" lon="24.4194510">
    <ele>1104.5</ele>
   </trkpt>
   <trkpt lat="-29.8072880" lon="24.4194440">
    <ele>1104.5</ele>
   </trkpt>
   <trkpt lat="-29.8072890" lon="24.4194370">
    <ele>1104.5</ele>
   </trkpt>
   <trkpt lat="-29.8072910" lon="24.4194300">
    <ele>1104.5</ele>
   </trkpt>
   <trkpt lat="-29.8072920" lon="24.4194230">
    <ele>1104.5</ele>
   </trkpt>
   <trkpt lat="-29.8073100" lon="24.4193970">
    <ele>1104.5</ele>
   </trkpt>
   <trkpt lat="-29.8073440" lon="24.4193820">
    <ele>1104.4</ele>
   </trkpt>
   <trkpt lat="-29.8073560" lon="24.4193770">
    <ele>1104.4</ele>
   </trkpt>
   <trkpt lat="-29.8073860" lon="24.4193840">
    <ele>1104.8</ele>
   </trkpt>
   <trkpt lat="-29.8073970" lon="24.4193830">
    <ele>1105.2</ele>
   </trkpt>
   <trkpt lat="-29.8074290" lon="24.4193800">
    <ele>1105.2</ele>
   </trkpt>
   <trkpt lat="-29.8074800" lon="24.4193770">
    <ele>1106.0</ele>
   </trkpt>
   <trkpt lat="-29.8075170" lon="24.4193770">
    <ele>1106.3</ele>
   </trkpt>
   <trkpt lat="-29.8075560" lon="24.4193760">
    <ele>1106.4</ele>
   </trkpt>
   <trkpt lat="-29.8075920" lon="24.4193730">
    <ele>1106.5</ele>
   </trkpt>
   <trkpt lat="-29.8076290" lon="24.4193710">
    <ele>1106.5</ele>
   </trkpt>
  </trkseg>
 </trk>
</gpx>
