<?xml version="1.0" encoding="UTF-8"?>
<gpx creator="StravaGPX" version="1.1" xmlns="http://www.topografix.com/GPX/1/1" xmlns:xsi="http://www.w3.org/2001/XMLSchema-instance" xsi:schemaLocation="http://www.topografix.com/GPX/1/1 http://www.topografix.com/GPX/1/1/gpx.xsd">
 <metadata>
  <name>Vasbyt Dag 3</name>
  <author>
   <name>Hennie Smit</name>
   <link href="https://www.strava.com/athletes/19289146"/>
  </author>
  <copyright author="OpenStreetMap contributors">
   <year>2020</year>
   <license>https://www.openstreetmap.org/copyright</license>
  </copyright>
  <link href="https://www.strava.com/routes/3276988074980008492"/>
 </metadata>
 <wpt lat="-29.80036" lon="24.48995">
  <name>waterpunt 6</name>
  <desc>7km</desc>
  <sym>Water Source</sym>
  <type>Water Source</type>
 </wpt>
 <wpt lat="-29.78263" lon="24.44735">
  <name>Waterpunt 1</name>
  <desc>12.3km</desc>
  <sym>Water Source</sym>
  <type>Water Source</type>
 </wpt>
 <wpt lat="-29.78181" lon="24.42271">
  <name>waterpunt 3</name>
  <desc>18.5km</desc>
  <sym>Water Source</sym>
  <type>Water Source</type>
 </wpt>
 <trk>
  <name>Vasbyt Dag 3</name>
  <link href="https://www.strava.com/routes/3276988074980008492"/>
  <type>running</type>
  <trkseg>
   <trkpt lat="-29.798810000000003" lon="24.44573">
    <ele>1118.46</ele>
   </trkpt>
   <trkpt lat="-29.798720000000003" lon="24.445860000000003">
    <ele>1118.5500000000002</ele>
   </trkpt>
   <trkpt lat="-29.798460000000002" lon="24.44631">
    <ele>1119.01</ele>
   </trkpt>
   <trkpt lat="-29.798000000000002" lon="24.446800000000003">
    <ele>1118.2</ele>
   </trkpt>
   <trkpt lat="-29.797466670811847" lon="24.44754334127673">
    <ele>1118.56</ele>
   </trkpt>
   <trkpt lat="-29.796933337464925" lon="24.44828667462886">
    <ele>1121.07</ele>
   </trkpt>
   <trkpt lat="-29.796400000000002" lon="24.44903">
    <ele>1123.3300000000002</ele>
   </trkpt>
   <trkpt lat="-29.79615" lon="24.449240000000003">
    <ele>1122.1000000000001</ele>
   </trkpt>
   <trkpt lat="-29.795520000000003" lon="24.44997">
    <ele>1122.8700000000001</ele>
   </trkpt>
   <trkpt lat="-29.79512333548892" lon="24.450500004146505">
    <ele>1123.2900000000002</ele>
   </trkpt>
   <trkpt lat="-29.794726668863756" lon="24.451030004091013">
    <ele>1124.8200000000002</ele>
   </trkpt>
   <trkpt lat="-29.794330000000002" lon="24.45156">
    <ele>1126.43</ele>
   </trkpt>
   <trkpt lat="-29.794050000000002" lon="24.45229">
    <ele>1127.49</ele>
   </trkpt>
   <trkpt lat="-29.793965003572115" lon="24.453265000886088">
    <ele>1129.55</ele>
   </trkpt>
   <trkpt lat="-29.79388" lon="24.454240000000002">
    <ele>1129.5000000000002</ele>
   </trkpt>
   <trkpt lat="-29.79353200978312" lon="24.455046011199894">
    <ele>1129.7700000000002</ele>
   </trkpt>
   <trkpt lat="-29.793184014677063" lon="24.455852016794033">
    <ele>1129.98</ele>
   </trkpt>
   <trkpt lat="-29.792836014681953" lon="24.456658016782445">
    <ele>1131.0</ele>
   </trkpt>
   <trkpt lat="-29.79248800979787" lon="24.45746401116517">
    <ele>1131.1</ele>
   </trkpt>
   <trkpt lat="-29.792140000000003" lon="24.458270000000002">
    <ele>1130.3500000000001</ele>
   </trkpt>
   <trkpt lat="-29.792130000000004" lon="24.45831">
    <ele>1130.44</ele>
   </trkpt>
   <trkpt lat="-29.7921" lon="24.458360000000003">
    <ele>1130.7</ele>
   </trkpt>
   <trkpt lat="-29.791990000000002" lon="24.458470000000002">
    <ele>1131.3500000000001</ele>
   </trkpt>
   <trkpt lat="-29.792190001662387" lon="24.4591299987579">
    <ele>1131.96</ele>
   </trkpt>
   <trkpt lat="-29.79239" lon="24.45979">
    <ele>1131.78</ele>
   </trkpt>
   <trkpt lat="-29.792810000000003" lon="24.46065">
    <ele>1127.15</ele>
   </trkpt>
   <trkpt lat="-29.792780000000004" lon="24.46121">
    <ele>1125.14</ele>
   </trkpt>
   <trkpt lat="-29.792370000000002" lon="24.461910000000003">
    <ele>1127.39</ele>
   </trkpt>
   <trkpt lat="-29.792120000000004" lon="24.462190000000003">
    <ele>1128.18</ele>
   </trkpt>
   <trkpt lat="-29.79182" lon="24.462300000000003">
    <ele>1132.0</ele>
   </trkpt>
   <trkpt lat="-29.791500000000003" lon="24.462870000000002">
    <ele>1132.67</ele>
   </trkpt>
   <trkpt lat="-29.79153" lon="24.46377">
    <ele>1134.47</ele>
   </trkpt>
   <trkpt lat="-29.792055001759703" lon="24.464429996689276">
    <ele>1136.02</ele>
   </trkpt>
   <trkpt lat="-29.79258" lon="24.465090000000004">
    <ele>1130.9600000000003</ele>
   </trkpt>
   <trkpt lat="-29.7927050017092" lon="24.465764999128453">
    <ele>1134.14</ele>
   </trkpt>
   <trkpt lat="-29.792830000000002" lon="24.466440000000002">
    <ele>1131.66</ele>
   </trkpt>
   <trkpt lat="-29.792730000000002" lon="24.46722">
    <ele>1132.71</ele>
   </trkpt>
   <trkpt lat="-29.79342" lon="24.467470000000002">
    <ele>1129.92</ele>
   </trkpt>
   <trkpt lat="-29.79398000004557" lon="24.467599999268316">
    <ele>1128.7900000000002</ele>
   </trkpt>
   <trkpt lat="-29.79454" lon="24.467730000000003">
    <ele>1130.5</ele>
   </trkpt>
   <trkpt lat="-29.794850000000004" lon="24.468140000000002">
    <ele>1129.4</ele>
   </trkpt>
   <trkpt lat="-29.794790000000003" lon="24.469040000000003">
    <ele>1132.97</ele>
   </trkpt>
   <trkpt lat="-29.795250000000003" lon="24.46968">
    <ele>1136.5</ele>
   </trkpt>
   <trkpt lat="-29.79566000002671" lon="24.46990999896089">
    <ele>1134.06</ele>
   </trkpt>
   <trkpt lat="-29.796070000000004" lon="24.47014">
    <ele>1132.3500000000001</ele>
   </trkpt>
   <trkpt lat="-29.79679" lon="24.47071">
    <ele>1132.05</ele>
   </trkpt>
   <trkpt lat="-29.79754" lon="24.471000000000004">
    <ele>1131.16</ele>
   </trkpt>
   <trkpt lat="-29.798170000000002" lon="24.47152">
    <ele>1126.2800000000002</ele>
   </trkpt>
   <trkpt lat="-29.798625000247522" lon="24.47177499884191">
    <ele>1133.0300000000002</ele>
   </trkpt>
   <trkpt lat="-29.799080000000004" lon="24.472030000000004">
    <ele>1129.8600000000001</ele>
   </trkpt>
   <trkpt lat="-29.799443338112606" lon="24.472826660885023">
    <ele>1131.67</ele>
   </trkpt>
   <trkpt lat="-29.79980667144817" lon="24.47362332755649">
    <ele>1132.97</ele>
   </trkpt>
   <trkpt lat="-29.80017" lon="24.474420000000002">
    <ele>1124.1000000000001</ele>
   </trkpt>
   <trkpt lat="-29.800130000000003" lon="24.4749">
    <ele>1126.3899999999999</ele>
   </trkpt>
   <trkpt lat="-29.79961" lon="24.47558">
    <ele>1130.29</ele>
   </trkpt>
   <trkpt lat="-29.799135000752756" lon="24.47601500202806">
    <ele>1131.66</ele>
   </trkpt>
   <trkpt lat="-29.79866" lon="24.476450000000003">
    <ele>1130.7800000000002</ele>
   </trkpt>
   <trkpt lat="-29.798090000018565" lon="24.476665001283482">
    <ele>1129.54</ele>
   </trkpt>
   <trkpt lat="-29.797520000000002" lon="24.47688">
    <ele>1134.1000000000001</ele>
   </trkpt>
   <trkpt lat="-29.797480000000004" lon="24.477120000000003">
    <ele>1133.97</ele>
   </trkpt>
   <trkpt lat="-29.797620000000002" lon="24.47773">
    <ele>1128.38</ele>
   </trkpt>
   <trkpt lat="-29.797590000000003" lon="24.478050000000003">
    <ele>1128.29</ele>
   </trkpt>
   <trkpt lat="-29.797250000000002" lon="24.479000000000003">
    <ele>1129.0</ele>
   </trkpt>
   <trkpt lat="-29.796730000000004" lon="24.47942">
    <ele>1129.21</ele>
   </trkpt>
   <trkpt lat="-29.796180000019802" lon="24.479259999098257">
    <ele>1131.44</ele>
   </trkpt>
   <trkpt lat="-29.795630000000003" lon="24.479100000000003">
    <ele>1131.8700000000001</ele>
   </trkpt>
   <trkpt lat="-29.795440000000003" lon="24.479270000000003">
    <ele>1130.42</ele>
   </trkpt>
   <trkpt lat="-29.795440000000003" lon="24.479540000000004">
    <ele>1130.42</ele>
   </trkpt>
   <trkpt lat="-29.79547" lon="24.479820000000004">
    <ele>1131.41</ele>
   </trkpt>
   <trkpt lat="-29.795360000000002" lon="24.480320000000003">
    <ele>1130.6900000000003</ele>
   </trkpt>
   <trkpt lat="-29.794880000000003" lon="24.480770000000003">
    <ele>1129.15</ele>
   </trkpt>
   <trkpt lat="-29.794195000380867" lon="24.48102000165818">
    <ele>1134.22</ele>
   </trkpt>
   <trkpt lat="-29.79351" lon="24.481270000000002">
    <ele>1133.21</ele>
   </trkpt>
   <trkpt lat="-29.793360000000003" lon="24.481520000000003">
    <ele>1132.23</ele>
   </trkpt>
   <trkpt lat="-29.79333" lon="24.481930000000002">
    <ele>1133.18</ele>
   </trkpt>
   <trkpt lat="-29.79351" lon="24.48215">
    <ele>1134.45</ele>
   </trkpt>
   <trkpt lat="-29.794010000000004" lon="24.482310000000002">
    <ele>1129.5900000000001</ele>
   </trkpt>
   <trkpt lat="-29.794210000000003" lon="24.4829">
    <ele>1130.3700000000001</ele>
   </trkpt>
   <trkpt lat="-29.794240002259937" lon="24.483674999762496">
    <ele>1131.2900000000002</ele>
   </trkpt>
   <trkpt lat="-29.79427" lon="24.484450000000002">
    <ele>1128.8400000000001</ele>
   </trkpt>
   <trkpt lat="-29.794155001052513" lon="24.484975000533296">
    <ele>1126.5500000000002</ele>
   </trkpt>
   <trkpt lat="-29.794040000000003" lon="24.485500000000002">
    <ele>1127.5300000000002</ele>
   </trkpt>
   <trkpt lat="-29.793860000000002" lon="24.486150000000002">
    <ele>1128.03</ele>
   </trkpt>
   <trkpt lat="-29.7936400009278" lon="24.48664500107521">
    <ele>1130.46</ele>
   </trkpt>
   <trkpt lat="-29.79342" lon="24.487140000000004">
    <ele>1131.94</ele>
   </trkpt>
   <trkpt lat="-29.793560000000003" lon="24.487460000000002">
    <ele>1130.49</ele>
   </trkpt>
   <trkpt lat="-29.793810000000004" lon="24.487630000000003">
    <ele>1131.7400000000002</ele>
   </trkpt>
   <trkpt lat="-29.794220000293063" lon="24.487350001148567">
    <ele>1127.51</ele>
   </trkpt>
   <trkpt lat="-29.79463" lon="24.487070000000003">
    <ele>1125.31</ele>
   </trkpt>
   <trkpt lat="-29.795420000000004" lon="24.486590000000003">
    <ele>1126.06</ele>
   </trkpt>
   <trkpt lat="-29.796015000125887" lon="24.48650000052075">
    <ele>1130.17</ele>
   </trkpt>
   <trkpt lat="-29.79661" lon="24.486410000000003">
    <ele>1126.53</ele>
   </trkpt>
   <trkpt lat="-29.797470000056506" lon="24.486594998394313">
    <ele>1130.21</ele>
   </trkpt>
   <trkpt lat="-29.798330000000004" lon="24.486780000000003">
    <ele>1130.42</ele>
   </trkpt>
   <trkpt lat="-29.798970000000004" lon="24.486530000000002">
    <ele>1131.0</ele>
   </trkpt>
   <trkpt lat="-29.799270000000003" lon="24.486710000000002">
    <ele>1137.07</ele>
   </trkpt>
   <trkpt lat="-29.79943" lon="24.4872">
    <ele>1136.83</ele>
   </trkpt>
   <trkpt lat="-29.79964000709606" lon="24.488169995992944">
    <ele>1133.5700000000002</ele>
   </trkpt>
   <trkpt lat="-29.799850007110187" lon="24.489139996058103">
    <ele>1134.0800000000002</ele>
   </trkpt>
   <trkpt lat="-29.800060000000002" lon="24.49011">
    <ele>1133.79</ele>
   </trkpt>
   <trkpt lat="-29.800400000000003" lon="24.489990000000002">
    <ele>1133.69</ele>
   </trkpt>
   <trkpt lat="-29.80036" lon="24.48995">
    <ele>1131.48</ele>
   </trkpt>
   <trkpt lat="-29.800430000000002" lon="24.489800000000002">
    <ele>1131.37</ele>
   </trkpt>
   <trkpt lat="-29.800610000000002" lon="24.48927">
    <ele>1131.38</ele>
   </trkpt>
   <trkpt lat="-29.80095500211783" lon="24.488515002663803">
    <ele>1131.0600000000002</ele>
   </trkpt>
   <trkpt lat="-29.8013" lon="24.48776">
    <ele>1133.01</ele>
   </trkpt>
   <trkpt lat="-29.8015" lon="24.48729">
    <ele>1133.91</ele>
   </trkpt>
   <trkpt lat="-29.801560000000002" lon="24.487190000000002">
    <ele>1134.19</ele>
   </trkpt>
   <trkpt lat="-29.801650000000002" lon="24.4871">
    <ele>1134.53</ele>
   </trkpt>
   <trkpt lat="-29.802120000000002" lon="24.486790000000003">
    <ele>1137.7</ele>
   </trkpt>
   <trkpt lat="-29.802290000000003" lon="24.486620000000002">
    <ele>1139.01</ele>
   </trkpt>
   <trkpt lat="-29.80243" lon="24.486430000000002">
    <ele>1139.49</ele>
   </trkpt>
   <trkpt lat="-29.80253" lon="24.486240000000002">
    <ele>1139.18</ele>
   </trkpt>
   <trkpt lat="-29.80262" lon="24.48601">
    <ele>1136.8100000000002</ele>
   </trkpt>
   <trkpt lat="-29.802680000000002" lon="24.485840000000003">
    <ele>1133.46</ele>
   </trkpt>
   <trkpt lat="-29.802680000000002" lon="24.48572">
    <ele>1131.8600000000001</ele>
   </trkpt>
   <trkpt lat="-29.802650000000003" lon="24.485580000000002">
    <ele>1128.1000000000001</ele>
   </trkpt>
   <trkpt lat="-29.80232" lon="24.48495">
    <ele>1120.83</ele>
   </trkpt>
   <trkpt lat="-29.802300000000002" lon="24.48479">
    <ele>1118.0400000000002</ele>
   </trkpt>
   <trkpt lat="-29.802290000000003" lon="24.4846">
    <ele>1115.44</ele>
   </trkpt>
   <trkpt lat="-29.80233" lon="24.484360000000002">
    <ele>1113.65</ele>
   </trkpt>
   <trkpt lat="-29.802505000990163" lon="24.483835001060015">
    <ele>1107.19</ele>
   </trkpt>
   <trkpt lat="-29.802680000000002" lon="24.483310000000003">
    <ele>1102.26</ele>
   </trkpt>
   <trkpt lat="-29.802870000000002" lon="24.482540000000004">
    <ele>1096.68</ele>
   </trkpt>
   <trkpt lat="-29.803030000000003" lon="24.481830000000002">
    <ele>1094.7600000000002</ele>
   </trkpt>
   <trkpt lat="-29.80309" lon="24.481640000000002">
    <ele>1094.6</ele>
   </trkpt>
   <trkpt lat="-29.80319" lon="24.4815">
    <ele>1094.5200000000002</ele>
   </trkpt>
   <trkpt lat="-29.80336" lon="24.48139">
    <ele>1094.23</ele>
   </trkpt>
   <trkpt lat="-29.803780000295998" lon="24.481180000816742">
    <ele>1094.6</ele>
   </trkpt>
   <trkpt lat="-29.8042" lon="24.480970000000003">
    <ele>1096.39</ele>
   </trkpt>
   <trkpt lat="-29.80448" lon="24.48093">
    <ele>1099.0600000000002</ele>
   </trkpt>
   <trkpt lat="-29.80459" lon="24.48084">
    <ele>1099.8600000000001</ele>
   </trkpt>
   <trkpt lat="-29.804630000000003" lon="24.480880000000003">
    <ele>1099.68</ele>
   </trkpt>
   <trkpt lat="-29.804077503154875" lon="24.480352491271635">
    <ele>1099.5600000000002</ele>
   </trkpt>
   <trkpt lat="-29.80352500421514" lon="24.479824988370588">
    <ele>1099.52</ele>
   </trkpt>
   <trkpt lat="-29.802972503180847" lon="24.479297491296673">
    <ele>1099.69</ele>
   </trkpt>
   <trkpt lat="-29.80242" lon="24.47877">
    <ele>1099.65</ele>
   </trkpt>
   <trkpt lat="-29.802110000000003" lon="24.4784">
    <ele>1099.5400000000002</ele>
   </trkpt>
   <trkpt lat="-29.801930000000002" lon="24.47819">
    <ele>1099.6000000000001</ele>
   </trkpt>
   <trkpt lat="-29.801650000000002" lon="24.477700000000002">
    <ele>1099.69</ele>
   </trkpt>
   <trkpt lat="-29.801460000000002" lon="24.477320000000002">
    <ele>1099.58</ele>
   </trkpt>
   <trkpt lat="-29.801250000000003" lon="24.476750000000003">
    <ele>1099.63</ele>
   </trkpt>
   <trkpt lat="-29.801240000000004" lon="24.476730000000003">
    <ele>1099.63</ele>
   </trkpt>
   <trkpt lat="-29.8011" lon="24.476200000000002">
    <ele>1099.69</ele>
   </trkpt>
   <trkpt lat="-29.801040000000004" lon="24.47565">
    <ele>1100.21</ele>
   </trkpt>
   <trkpt lat="-29.801030002380415" lon="24.47485500006245">
    <ele>1100.5</ele>
   </trkpt>
   <trkpt lat="-29.80102" lon="24.47406">
    <ele>1101.3700000000001</ele>
   </trkpt>
   <trkpt lat="-29.800970000000003" lon="24.473290000000002">
    <ele>1101.5700000000002</ele>
   </trkpt>
   <trkpt lat="-29.800810000000002" lon="24.472640000000002">
    <ele>1101.96</ele>
   </trkpt>
   <trkpt lat="-29.80054" lon="24.471970000000002">
    <ele>1102.2200000000003</ele>
   </trkpt>
   <trkpt lat="-29.800320000000003" lon="24.471490000000003">
    <ele>1102.2800000000002</ele>
   </trkpt>
   <trkpt lat="-29.799823763189316" lon="24.47078247543903">
    <ele>1101.76</ele>
   </trkpt>
   <trkpt lat="-29.799327522610803" lon="24.470074957896898">
    <ele>1102.0100000000002</ele>
   </trkpt>
   <trkpt lat="-29.79883127826458" lon="24.46936744737345">
    <ele>1101.91</ele>
   </trkpt>
   <trkpt lat="-29.798335030150753" lon="24.468659943868534">
    <ele>1102.2</ele>
   </trkpt>
   <trkpt lat="-29.79783877826945" lon="24.46795244738199">
    <ele>1102.8300000000002</ele>
   </trkpt>
   <trkpt lat="-29.797342522620767" lon="24.467244957913657">
    <ele>1103.1000000000001</ele>
   </trkpt>
   <trkpt lat="-29.796846263204834" lon="24.46653747546338">
    <ele>1103.93</ele>
   </trkpt>
   <trkpt lat="-29.796350000000004" lon="24.46583">
    <ele>1105.05</ele>
   </trkpt>
   <trkpt lat="-29.795832008464266" lon="24.46507998446583">
    <ele>1106.09</ele>
   </trkpt>
   <trkpt lat="-29.795314012694902" lon="24.464329976696956">
    <ele>1107.3200000000002</ele>
   </trkpt>
   <trkpt lat="-29.794796012692046" lon="24.463579976693193">
    <ele>1109.16</ele>
   </trkpt>
   <trkpt lat="-29.79427800845583" lon="24.462829984454363">
    <ele>1112.0</ele>
   </trkpt>
   <trkpt lat="-29.793760000000002" lon="24.46208">
    <ele>1116.24</ele>
   </trkpt>
   <trkpt lat="-29.793420000919433" lon="24.461579998269862">
    <ele>1119.58</ele>
   </trkpt>
   <trkpt lat="-29.793080000000003" lon="24.461080000000003">
    <ele>1124.9600000000003</ele>
   </trkpt>
   <trkpt lat="-29.792800000000003" lon="24.460630000000002">
    <ele>1127.22</ele>
   </trkpt>
   <trkpt lat="-29.79239" lon="24.45979">
    <ele>1131.78</ele>
   </trkpt>
   <trkpt lat="-29.792183336981598" lon="24.459093330441565">
    <ele>1131.96</ele>
   </trkpt>
   <trkpt lat="-29.791976670310643" lon="24.458396663760478">
    <ele>1131.3500000000001</ele>
   </trkpt>
   <trkpt lat="-29.791770000000003" lon="24.457700000000003">
    <ele>1130.88</ele>
   </trkpt>
   <trkpt lat="-29.791563338037907" lon="24.45690999676734">
    <ele>1131.52</ele>
   </trkpt>
   <trkpt lat="-29.79135667137909" lon="24.456119996797437">
    <ele>1132.7500000000002</ele>
   </trkpt>
   <trkpt lat="-29.791150000000002" lon="24.455330000000004">
    <ele>1135.55</ele>
   </trkpt>
   <trkpt lat="-29.791150000000002" lon="24.455350000000003">
    <ele>1135.52</ele>
   </trkpt>
   <trkpt lat="-29.790860000000002" lon="24.454480000000004">
    <ele>1136.56</ele>
   </trkpt>
   <trkpt lat="-29.79051" lon="24.45372">
    <ele>1135.4700000000003</ele>
   </trkpt>
   <trkpt lat="-29.790280000000003" lon="24.45334">
    <ele>1134.05</ele>
   </trkpt>
   <trkpt lat="-29.789920000000002" lon="24.45287">
    <ele>1132.49</ele>
   </trkpt>
   <trkpt lat="-29.789700000000003" lon="24.452640000000002">
    <ele>1131.0600000000002</ele>
   </trkpt>
   <trkpt lat="-29.789120000000004" lon="24.452150000000003">
    <ele>1129.43</ele>
   </trkpt>
   <trkpt lat="-29.78862" lon="24.45182">
    <ele>1127.8600000000001</ele>
   </trkpt>
   <trkpt lat="-29.787922002501528" lon="24.451413988687328">
    <ele>1124.5</ele>
   </trkpt>
   <trkpt lat="-29.78722400376261" lon="24.451007983037254">
    <ele>1122.91</ele>
   </trkpt>
   <trkpt lat="-29.7865260037833" lon="24.45060198304955">
    <ele>1121.2300000000002</ele>
   </trkpt>
   <trkpt lat="-29.78582800256365" lon="24.450195988723983">
    <ele>1120.7600000000002</ele>
   </trkpt>
   <trkpt lat="-29.785130000000002" lon="24.449790000000004">
    <ele>1122.36</ele>
   </trkpt>
   <trkpt lat="-29.78465500022958" lon="24.449494998539482">
    <ele>1123.0300000000002</ele>
   </trkpt>
   <trkpt lat="-29.784180000000003" lon="24.4492">
    <ele>1123.5700000000002</ele>
   </trkpt>
   <trkpt lat="-29.783700000000003" lon="24.44875">
    <ele>1124.53</ele>
   </trkpt>
   <trkpt lat="-29.78329" lon="24.448320000000002">
    <ele>1125.6200000000001</ele>
   </trkpt>
   <trkpt lat="-29.783" lon="24.447950000000002">
    <ele>1126.42</ele>
   </trkpt>
   <trkpt lat="-29.782700000000002" lon="24.447490000000002">
    <ele>1127.0300000000002</ele>
   </trkpt>
   <trkpt lat="-29.78263" lon="24.447350000000004">
    <ele>1127.5000000000002</ele>
   </trkpt>
   <trkpt lat="-29.78292" lon="24.44712">
    <ele>1123.89</ele>
   </trkpt>
   <trkpt lat="-29.78308667384638" lon="24.4461433365706">
    <ele>1123.8600000000001</ele>
   </trkpt>
   <trkpt lat="-29.78325334051557" lon="24.445166669889243">
    <ele>1126.74</ele>
   </trkpt>
   <trkpt lat="-29.783420000000003" lon="24.444190000000003">
    <ele>1125.89</ele>
   </trkpt>
   <trkpt lat="-29.78393000044004" lon="24.443890001468663">
    <ele>1129.22</ele>
   </trkpt>
   <trkpt lat="-29.784440000000004" lon="24.44359">
    <ele>1125.94</ele>
   </trkpt>
   <trkpt lat="-29.78500000026053" lon="24.443859998482964">
    <ele>1127.04</ele>
   </trkpt>
   <trkpt lat="-29.785560000000004" lon="24.44413">
    <ele>1127.0800000000002</ele>
   </trkpt>
   <trkpt lat="-29.785950000620137" lon="24.444544998353507">
    <ele>1126.8500000000001</ele>
   </trkpt>
   <trkpt lat="-29.786340000000003" lon="24.444960000000002">
    <ele>1129.76</ele>
   </trkpt>
   <trkpt lat="-29.78676" lon="24.445710000000002">
    <ele>1130.06</ele>
   </trkpt>
   <trkpt lat="-29.78722" lon="24.445860000000003">
    <ele>1128.24</ele>
   </trkpt>
   <trkpt lat="-29.787820000000004" lon="24.445710000000002">
    <ele>1127.76</ele>
   </trkpt>
   <trkpt lat="-29.788390000000003" lon="24.445110000000003">
    <ele>1126.74</ele>
   </trkpt>
   <trkpt lat="-29.78869000089087" lon="24.44460000167785">
    <ele>1128.43</ele>
   </trkpt>
   <trkpt lat="-29.788990000000002" lon="24.444090000000003">
    <ele>1130.3500000000001</ele>
   </trkpt>
   <trkpt lat="-29.789525000352874" lon="24.44379500156287">
    <ele>1128.2800000000002</ele>
   </trkpt>
   <trkpt lat="-29.790060000000004" lon="24.4435">
    <ele>1126.1000000000001</ele>
   </trkpt>
   <trkpt lat="-29.790355000867805" lon="24.443035001285164">
    <ele>1126.65</ele>
   </trkpt>
   <trkpt lat="-29.790650000000003" lon="24.442570000000003">
    <ele>1128.23</ele>
   </trkpt>
   <trkpt lat="-29.790986011715514" lon="24.4416880118263">
    <ele>1125.13</ele>
   </trkpt>
   <trkpt lat="-29.791322017576896" lon="24.44080601773024">
    <ele>1124.1100000000001</ele>
   </trkpt>
   <trkpt lat="-29.791658017584055" lon="24.4399240177118">
    <ele>1125.22</ele>
   </trkpt>
   <trkpt lat="-29.791994011736847" lon="24.439042011770955">
    <ele>1130.02</ele>
   </trkpt>
   <trkpt lat="-29.792330000000003" lon="24.438160000000003">
    <ele>1127.91</ele>
   </trkpt>
   <trkpt lat="-29.792520000000003" lon="24.437970000000004">
    <ele>1128.65</ele>
   </trkpt>
   <trkpt lat="-29.79303" lon="24.43795">
    <ele>1129.16</ele>
   </trkpt>
   <trkpt lat="-29.793730000000004" lon="24.437800000000003">
    <ele>1128.0800000000002</ele>
   </trkpt>
   <trkpt lat="-29.794193335285936" lon="24.437293338002778">
    <ele>1128.06</ele>
   </trkpt>
   <trkpt lat="-29.794656668639888" lon="24.436786671313623">
    <ele>1129.28</ele>
   </trkpt>
   <trkpt lat="-29.79512" lon="24.436280000000004">
    <ele>1126.2800000000002</ele>
   </trkpt>
   <trkpt lat="-29.795300001530528" lon="24.43565000100391">
    <ele>1125.34</ele>
   </trkpt>
   <trkpt lat="-29.79548" lon="24.43502">
    <ele>1130.7200000000003</ele>
   </trkpt>
   <trkpt lat="-29.79575" lon="24.43456">
    <ele>1130.17</ele>
   </trkpt>
   <trkpt lat="-29.796100002013652" lon="24.43382000268792">
    <ele>1124.68</ele>
   </trkpt>
   <trkpt lat="-29.796450000000004" lon="24.43308">
    <ele>1121.46</ele>
   </trkpt>
   <trkpt lat="-29.796930000000003" lon="24.43248">
    <ele>1122.33</ele>
   </trkpt>
   <trkpt lat="-29.797140001681527" lon="24.431820001252383">
    <ele>1122.91</ele>
   </trkpt>
   <trkpt lat="-29.79735" lon="24.431160000000002">
    <ele>1121.61</ele>
   </trkpt>
   <trkpt lat="-29.797670000000004" lon="24.43091">
    <ele>1119.72</ele>
   </trkpt>
   <trkpt lat="-29.797850000000004" lon="24.430400000000002">
    <ele>1123.0800000000002</ele>
   </trkpt>
   <trkpt lat="-29.797525001302464" lon="24.429824998235308">
    <ele>1127.5000000000002</ele>
   </trkpt>
   <trkpt lat="-29.797200000000004" lon="24.429250000000003">
    <ele>1123.14</ele>
   </trkpt>
   <trkpt lat="-29.796910000000004" lon="24.42912">
    <ele>1122.8700000000001</ele>
   </trkpt>
   <trkpt lat="-29.796550000000003" lon="24.42911">
    <ele>1123.99</ele>
   </trkpt>
   <trkpt lat="-29.79624" lon="24.429050000000004">
    <ele>1126.1499999999999</ele>
   </trkpt>
   <trkpt lat="-29.796010000000003" lon="24.428630000000002">
    <ele>1118.8500000000001</ele>
   </trkpt>
   <trkpt lat="-29.795600000000004" lon="24.428510000000003">
    <ele>1124.57</ele>
   </trkpt>
   <trkpt lat="-29.795080000027465" lon="24.42857500033634">
    <ele>1129.7400000000002</ele>
   </trkpt>
   <trkpt lat="-29.794560000000004" lon="24.42864">
    <ele>1126.93</ele>
   </trkpt>
   <trkpt lat="-29.79379" lon="24.428690000000003">
    <ele>1124.3100000000002</ele>
   </trkpt>
   <trkpt lat="-29.79315" lon="24.42893">
    <ele>1122.41</ele>
   </trkpt>
   <trkpt lat="-29.792530000000003" lon="24.429370000000002">
    <ele>1124.53</ele>
   </trkpt>
   <trkpt lat="-29.792150000000003" lon="24.430010000000003">
    <ele>1128.7200000000003</ele>
   </trkpt>
   <trkpt lat="-29.791940000000004" lon="24.430460000000004">
    <ele>1129.0300000000002</ele>
   </trkpt>
   <trkpt lat="-29.79163" lon="24.431230000000003">
    <ele>1128.95</ele>
   </trkpt>
   <trkpt lat="-29.791580000000003" lon="24.43202">
    <ele>1130.18</ele>
   </trkpt>
   <trkpt lat="-29.79153" lon="24.432570000000002">
    <ele>1130.26</ele>
   </trkpt>
   <trkpt lat="-29.791110000000003" lon="24.432840000000002">
    <ele>1130.0700000000002</ele>
   </trkpt>
   <trkpt lat="-29.790660000000003" lon="24.43287">
    <ele>1130.17</ele>
   </trkpt>
   <trkpt lat="-29.790250000000004" lon="24.43267">
    <ele>1130.89</ele>
   </trkpt>
   <trkpt lat="-29.790020000000002" lon="24.431680000000004">
    <ele>1124.89</ele>
   </trkpt>
   <trkpt lat="-29.789740000000002" lon="24.431330000000003">
    <ele>1125.7</ele>
   </trkpt>
   <trkpt lat="-29.788980000000002" lon="24.43139">
    <ele>1125.46</ele>
   </trkpt>
   <trkpt lat="-29.78836" lon="24.431510000000003">
    <ele>1123.2600000000002</ele>
   </trkpt>
   <trkpt lat="-29.78754000055451" lon="24.431900003203427">
    <ele>1127.4700000000003</ele>
   </trkpt>
   <trkpt lat="-29.786720000000003" lon="24.432290000000002">
    <ele>1126.64</ele>
   </trkpt>
   <trkpt lat="-29.78647" lon="24.43223">
    <ele>1124.89</ele>
   </trkpt>
   <trkpt lat="-29.786340000000003" lon="24.432000000000002">
    <ele>1123.3000000000002</ele>
   </trkpt>
   <trkpt lat="-29.78563" lon="24.431970000000003">
    <ele>1126.1000000000001</ele>
   </trkpt>
   <trkpt lat="-29.785010000000003" lon="24.432650000000002">
    <ele>1127.0900000000001</ele>
   </trkpt>
   <trkpt lat="-29.7846" lon="24.432930000000002">
    <ele>1130.27</ele>
   </trkpt>
   <trkpt lat="-29.784270000000003" lon="24.4325">
    <ele>1124.14</ele>
   </trkpt>
   <trkpt lat="-29.78385" lon="24.431600000000003">
    <ele>1126.74</ele>
   </trkpt>
   <trkpt lat="-29.783160000000002" lon="24.43136">
    <ele>1127.67</ele>
   </trkpt>
   <trkpt lat="-29.78235500007571" lon="24.431395000278336">
    <ele>1127.5900000000001</ele>
   </trkpt>
   <trkpt lat="-29.781550000000003" lon="24.431430000000002">
    <ele>1125.5300000000002</ele>
   </trkpt>
   <trkpt lat="-29.781330000000004" lon="24.43118">
    <ele>1124.43</ele>
   </trkpt>
   <trkpt lat="-29.780620000000003" lon="24.430750000000003">
    <ele>1122.93</ele>
   </trkpt>
   <trkpt lat="-29.780030000000004" lon="24.43008">
    <ele>1119.73</ele>
   </trkpt>
   <trkpt lat="-29.779560000000004" lon="24.42923">
    <ele>1119.0500000000002</ele>
   </trkpt>
   <trkpt lat="-29.779320000000002" lon="24.428590000000003">
    <ele>1115.34</ele>
   </trkpt>
   <trkpt lat="-29.779290000000003" lon="24.428040000000003">
    <ele>1111.94</ele>
   </trkpt>
   <trkpt lat="-29.779270000000004" lon="24.427380000000003">
    <ele>1113.48</ele>
   </trkpt>
   <trkpt lat="-29.779500000000002" lon="24.426520000000004">
    <ele>1110.69</ele>
   </trkpt>
   <trkpt lat="-29.779680000000003" lon="24.425990000000002">
    <ele>1109.0800000000002</ele>
   </trkpt>
   <trkpt lat="-29.7801" lon="24.425510000000003">
    <ele>1107.4</ele>
   </trkpt>
   <trkpt lat="-29.780630000000002" lon="24.42479">
    <ele>1105.52</ele>
   </trkpt>
   <trkpt lat="-29.780960000000004" lon="24.424470000000003">
    <ele>1103.92</ele>
   </trkpt>
   <trkpt lat="-29.78141" lon="24.42388">
    <ele>1101.96</ele>
   </trkpt>
   <trkpt lat="-29.781830000000003" lon="24.42359">
    <ele>1101.64</ele>
   </trkpt>
   <trkpt lat="-29.78226" lon="24.423070000000003">
    <ele>1100.14</ele>
   </trkpt>
   <trkpt lat="-29.781830000000003" lon="24.422680000000003">
    <ele>1098.46</ele>
   </trkpt>
   <trkpt lat="-29.781810000000004" lon="24.422710000000002">
    <ele>1098.89</ele>
   </trkpt>
   <trkpt lat="-29.781720000000004" lon="24.422620000000002">
    <ele>1099.2900000000002</ele>
   </trkpt>
   <trkpt lat="-29.782252009153947" lon="24.421840016581573">
    <ele>1098.0500000000002</ele>
   </trkpt>
   <trkpt lat="-29.78278401373036" lon="24.421060024873587">
    <ele>1097.3300000000002</ele>
   </trkpt>
   <trkpt lat="-29.7833160137291" lon="24.420280024875836">
    <ele>1096.42</ele>
   </trkpt>
   <trkpt lat="-29.78384800915002" lon="24.41950001658814">
    <ele>1095.8100000000002</ele>
   </trkpt>
   <trkpt lat="-29.784380000000002" lon="24.41872">
    <ele>1095.16</ele>
   </trkpt>
   <trkpt lat="-29.78490626685109" lon="24.417920029446098">
    <ele>1094.2200000000003</ele>
   </trkpt>
   <trkpt lat="-29.785432528886794" lon="24.417120050481074">
    <ele>1093.51</ele>
   </trkpt>
   <trkpt lat="-29.785958786106956" lon="24.41632006310475">
    <ele>1093.44</ele>
   </trkpt>
   <trkpt lat="-29.786485038511408" lon="24.415520067316923">
    <ele>1093.34</ele>
   </trkpt>
   <trkpt lat="-29.78701128610001" lon="24.41472006311741">
    <ele>1093.5000000000002</ele>
   </trkpt>
   <trkpt lat="-29.78753752887262" lon="24.413920050506018">
    <ele>1093.4700000000003</ele>
   </trkpt>
   <trkpt lat="-29.78806376682906" lon="24.413120029482556">
    <ele>1093.31</ele>
   </trkpt>
   <trkpt lat="-29.788590000000003" lon="24.41232">
    <ele>1092.5600000000002</ele>
   </trkpt>
   <trkpt lat="-29.789060000000003" lon="24.41165">
    <ele>1092.2500000000002</ele>
   </trkpt>
   <trkpt lat="-29.789580004613093" lon="24.41086667481312">
    <ele>1092.29</ele>
   </trkpt>
   <trkpt lat="-29.790100004608668" lon="24.410083341486597">
    <ele>1092.3500000000001</ele>
   </trkpt>
   <trkpt lat="-29.790620000000004" lon="24.4093">
    <ele>1092.3</ele>
   </trkpt>
   <trkpt lat="-29.790900000000004" lon="24.40884">
    <ele>1092.41</ele>
   </trkpt>
   <trkpt lat="-29.790900000000004" lon="24.40885">
    <ele>1092.41</ele>
   </trkpt>
   <trkpt lat="-29.791245001178396" lon="24.40829000193307">
    <ele>1092.6</ele>
   </trkpt>
   <trkpt lat="-29.791590000000003" lon="24.40773">
    <ele>1093.1000000000001</ele>
   </trkpt>
   <trkpt lat="-29.791700000000002" lon="24.40782">
    <ele>1093.0900000000001</ele>
   </trkpt>
   <trkpt lat="-29.791790000000002" lon="24.407860000000003">
    <ele>1093.1000000000001</ele>
   </trkpt>
   <trkpt lat="-29.791890000000002" lon="24.407960000000003">
    <ele>1093.1000000000001</ele>
   </trkpt>
   <trkpt lat="-29.791960000000003" lon="24.408130000000003">
    <ele>1093.24</ele>
   </trkpt>
   <trkpt lat="-29.791970000000003" lon="24.40893">
    <ele>1093.22</ele>
   </trkpt>
   <trkpt lat="-29.79202" lon="24.40942">
    <ele>1093.52</ele>
   </trkpt>
   <trkpt lat="-29.792260000000002" lon="24.410230000000002">
    <ele>1093.44</ele>
   </trkpt>
   <trkpt lat="-29.792550000000002" lon="24.410770000000003">
    <ele>1093.25</ele>
   </trkpt>
   <trkpt lat="-29.792740000000002" lon="24.41101">
    <ele>1093.44</ele>
   </trkpt>
   <trkpt lat="-29.793110000000002" lon="24.41138">
    <ele>1093.6200000000001</ele>
   </trkpt>
   <trkpt lat="-29.793300000000002" lon="24.411550000000002">
    <ele>1093.6200000000001</ele>
   </trkpt>
   <trkpt lat="-29.79373000026641" lon="24.411829998778213">
    <ele>1093.89</ele>
   </trkpt>
   <trkpt lat="-29.79416" lon="24.412110000000002">
    <ele>1093.8300000000002</ele>
   </trkpt>
   <trkpt lat="-29.794520000000002" lon="24.412640000000003">
    <ele>1093.6200000000001</ele>
   </trkpt>
   <trkpt lat="-29.794790000771716" lon="24.413069998960687">
    <ele>1093.5000000000002</ele>
   </trkpt>
   <trkpt lat="-29.795060000000003" lon="24.413500000000003">
    <ele>1093.43</ele>
   </trkpt>
   <trkpt lat="-29.795180000000002" lon="24.413660000000004">
    <ele>1093.43</ele>
   </trkpt>
   <trkpt lat="-29.795260000000003" lon="24.413880000000002">
    <ele>1093.43</ele>
   </trkpt>
   <trkpt lat="-29.795540000000003" lon="24.41438">
    <ele>1093.31</ele>
   </trkpt>
   <trkpt lat="-29.795885001095492" lon="24.414904998278534">
    <ele>1093.2700000000002</ele>
   </trkpt>
   <trkpt lat="-29.79623" lon="24.41543">
    <ele>1093.38</ele>
   </trkpt>
   <trkpt lat="-29.79654000060786" lon="24.415819998836348">
    <ele>1093.52</ele>
   </trkpt>
   <trkpt lat="-29.796850000000003" lon="24.416210000000003">
    <ele>1093.69</ele>
   </trkpt>
   <trkpt lat="-29.797010000000004" lon="24.41634">
    <ele>1093.7400000000002</ele>
   </trkpt>
   <trkpt lat="-29.797290000000004" lon="24.416670000000003">
    <ele>1093.8000000000002</ele>
   </trkpt>
   <trkpt lat="-29.79756" lon="24.417050000000003">
    <ele>1093.9</ele>
   </trkpt>
   <trkpt lat="-29.797940000000004" lon="24.41766">
    <ele>1093.76</ele>
   </trkpt>
   <trkpt lat="-29.798250000000003" lon="24.418110000000002">
    <ele>1093.5400000000002</ele>
   </trkpt>
   <trkpt lat="-29.798810000000003" lon="24.418870000000002">
    <ele>1093.5700000000002</ele>
   </trkpt>
   <trkpt lat="-29.79934" lon="24.41938">
    <ele>1093.68</ele>
   </trkpt>
   <trkpt lat="-29.799480000000003" lon="24.419580000000003">
    <ele>1093.6200000000001</ele>
   </trkpt>
   <trkpt lat="-29.799640000000004" lon="24.419870000000003">
    <ele>1093.34</ele>
   </trkpt>
   <trkpt lat="-29.7997" lon="24.41994">
    <ele>1093.34</ele>
   </trkpt>
   <trkpt lat="-29.799740000000003" lon="24.419970000000003">
    <ele>1093.34</ele>
   </trkpt>
   <trkpt lat="-29.799860000000002" lon="24.419890000000002">
    <ele>1093.1399999999999</ele>
   </trkpt>
   <trkpt lat="-29.799910000000004" lon="24.419880000000003">
    <ele>1093.1399999999999</ele>
   </trkpt>
   <trkpt lat="-29.79998" lon="24.41993">
    <ele>1092.97</ele>
   </trkpt>
   <trkpt lat="-29.800320000000003" lon="24.42038">
    <ele>1092.14</ele>
   </trkpt>
   <trkpt lat="-29.80069000055661" lon="24.42077999847137">
    <ele>1092.29</ele>
   </trkpt>
   <trkpt lat="-29.801060000000003" lon="24.421180000000003">
    <ele>1091.51</ele>
   </trkpt>
   <trkpt lat="-29.801360000000003" lon="24.421480000000003">
    <ele>1091.4</ele>
   </trkpt>
   <trkpt lat="-29.801810000000003" lon="24.420890000000004">
    <ele>1092.2</ele>
   </trkpt>
   <trkpt lat="-29.801810000000003" lon="24.42088">
    <ele>1092.21</ele>
   </trkpt>
   <trkpt lat="-29.802180000000003" lon="24.42041">
    <ele>1092.84</ele>
   </trkpt>
   <trkpt lat="-29.802635001180793" lon="24.419845002595547">
    <ele>1093.3700000000001</ele>
   </trkpt>
   <trkpt lat="-29.80309" lon="24.41928">
    <ele>1094.51</ele>
   </trkpt>
   <trkpt lat="-29.80358000116669" lon="24.41980999752217">
    <ele>1095.3600000000001</ele>
   </trkpt>
   <trkpt lat="-29.804070000000003" lon="24.420340000000003">
    <ele>1096.17</ele>
   </trkpt>
   <trkpt lat="-29.804280000000002" lon="24.420460000000002">
    <ele>1096.7</ele>
   </trkpt>
   <trkpt lat="-29.804450000000003" lon="24.42048">
    <ele>1096.91</ele>
   </trkpt>
   <trkpt lat="-29.804540000000003" lon="24.42047">
    <ele>1096.99</ele>
   </trkpt>
   <trkpt lat="-29.805100000000003" lon="24.420330000000003">
    <ele>1098.5800000000002</ele>
   </trkpt>
   <trkpt lat="-29.805310000000002" lon="24.4202">
    <ele>1099.0300000000002</ele>
   </trkpt>
   <trkpt lat="-29.805790000000002" lon="24.419760000000004">
    <ele>1100.13</ele>
   </trkpt>
   <trkpt lat="-29.80608" lon="24.419420000000002">
    <ele>1100.8</ele>
   </trkpt>
   <trkpt lat="-29.8065400011733" lon="24.418860002584157">
    <ele>1100.8600000000001</ele>
   </trkpt>
   <trkpt lat="-29.807000000000002" lon="24.418300000000002">
    <ele>1101.13</ele>
   </trkpt>
   <trkpt lat="-29.806990000000003" lon="24.41831">
    <ele>1103.25</ele>
   </trkpt>
   <trkpt lat="-29.807045002742637" lon="24.4191649993911">
    <ele>1101.49</ele>
   </trkpt>
   <trkpt lat="-29.807100000000002" lon="24.42002">
    <ele>1102.3700000000001</ele>
   </trkpt>
   <trkpt lat="-29.80787" lon="24.4201">
    <ele>1105.28</ele>
   </trkpt>
   <trkpt lat="-29.807980000000004" lon="24.419690000000003">
    <ele>1104.36</ele>
   </trkpt>
   <trkpt lat="-29.807450000000003" lon="24.41963">
    <ele>1104.74</ele>
   </trkpt>
   <trkpt lat="-29.8073" lon="24.41947">
    <ele>1102.45</ele>
   </trkpt>
   <trkpt lat="-29.807360000000003" lon="24.419340000000002">
    <ele>1103.2300000000002</ele>
   </trkpt>
   <trkpt lat="-29.80795" lon="24.419390000000003">
    <ele>1104.17</ele>
   </trkpt>
   <trkpt lat="-29.808480000000003" lon="24.419400000000003">
    <ele>1101.34</ele>
   </trkpt>
   <trkpt lat="-29.80863" lon="24.419300000000003">
    <ele>1102.51</ele>
   </trkpt>
   <trkpt lat="-29.808730000000004" lon="24.41916">
    <ele>1103.04</ele>
   </trkpt>
   <trkpt lat="-29.808750000000003" lon="24.419">
    <ele>1103.52</ele>
   </trkpt>
   <trkpt lat="-29.8087" lon="24.418840000000003">
    <ele>1103.94</ele>
   </trkpt>
   <trkpt lat="-29.808600000000002" lon="24.418680000000002">
    <ele>1104.88</ele>
   </trkpt>
   <trkpt lat="-29.808470000000003" lon="24.4186">
    <ele>1104.57</ele>
   </trkpt>
   <trkpt lat="-29.807850000000002" lon="24.418560000000003">
    <ele>1101.63</ele>
   </trkpt>
  </trkseg>
 </trk>
</gpx>
